{"type":"FeatureCollection","features":[{"type":"Feature","properties":{"psgc_code":"050514001","name":"Agos","level":"barangay-label","municipality_psgc_code":"050514000","municipality_name":"Polangui"},"geometry":{"type":"Point","coordinates":[123.4117491930001,13.336245928500032]}},{"type":"Feature","properties":{"psgc_code":"050514002","name":"Alnay","level":"barangay-label","municipality_psgc_code":"050514000","municipality_name":"Polangui"},"geometry":{"type":"Point","coordinates":[123.50542646250005,13.293325308000048]}},{"type":"Feature","properties":{"psgc_code":"050514003","name":"Alomon","level":"barangay-label","municipality_psgc_code":"050514000","municipality_name":"Polangui"},"geometry":{"type":"Point","coordinates":[123.47311146050004,13.282822649000025]}},{"type":"Feature","properties":{"psgc_code":"050514004","name":"Amoguis","level":"barangay-label","municipality_psgc_code":"050514000","municipality_name":"Polangui"},"geometry":{"type":"Point","coordinates":[123.53881610200006,13.340100863500027]}},{"type":"Feature","properties":{"psgc_code":"050514005","name":"Anopol","level":"barangay-label","municipality_psgc_code":"050514000","municipality_name":"Polangui"},"geometry":{"type":"Point","coordinates":[123.54595384100003,13.347723005000033]}},{"type":"Feature","properties":{"psgc_code":"050514006","name":"Apad","level":"barangay-label","municipality_psgc_code":"050514000","municipality_name":"Polangui"},"geometry":{"type":"Point","coordinates":[123.46735437100006,13.32410154200005]}},{"type":"Feature","properties":{"psgc_code":"050514007","name":"Balaba","level":"barangay-label","municipality_psgc_code":"050514000","municipality_name":"Polangui"},"geometry":{"type":"Point","coordinates":[123.54430763500005,13.313646711000045]}},{"type":"Feature","properties":{"psgc_code":"050514008","name":"Balangibang","level":"barangay-label","municipality_psgc_code":"050514000","municipality_name":"Polangui"},"geometry":{"type":"Point","coordinates":[123.45169934300009,13.309170985000037]}},{"type":"Feature","properties":{"psgc_code":"050514009","name":"Balinad","level":"barangay-label","municipality_psgc_code":"050514000","municipality_name":"Polangui"},"geometry":{"type":"Point","coordinates":[123.55130307750005,13.30320359300006]}},{"type":"Feature","properties":{"psgc_code":"050514010","name":"Basud","level":"barangay-label","municipality_psgc_code":"050514000","municipality_name":"Polangui"},"geometry":{"type":"Point","coordinates":[123.49423301600007,13.283525668000038]}},{"type":"Feature","properties":{"psgc_code":"050514011","name":"Binagbangan","level":"barangay-label","municipality_psgc_code":"050514000","municipality_name":"Polangui"},"geometry":{"type":"Point","coordinates":[123.49561741500008,13.31275021950006]}},{"type":"Feature","properties":{"psgc_code":"050514012","name":"Buyo","level":"barangay-label","municipality_psgc_code":"050514000","municipality_name":"Polangui"},"geometry":{"type":"Point","coordinates":[123.52896343150007,13.32526696600007]}},{"type":"Feature","properties":{"psgc_code":"050514013","name":"Centro Occidental (Pob.)","level":"barangay-label","municipality_psgc_code":"050514000","municipality_name":"Polangui"},"geometry":{"type":"Point","coordinates":[123.47658499150003,13.302854934500061]}},{"type":"Feature","properties":{"psgc_code":"050514014","name":"Centro Oriental (Pob.)","level":"barangay-label","municipality_psgc_code":"050514000","municipality_name":"Polangui"},"geometry":{"type":"Point","coordinates":[123.48757224050007,13.294275245000051]}},{"type":"Feature","properties":{"psgc_code":"050514015","name":"Cepres","level":"barangay-label","municipality_psgc_code":"050514000","municipality_name":"Polangui"},"geometry":{"type":"Point","coordinates":[123.51867894400004,13.316706216000057]}},{"type":"Feature","properties":{"psgc_code":"050514016","name":"Cotmon","level":"barangay-label","municipality_psgc_code":"050514000","municipality_name":"Polangui"},"geometry":{"type":"Point","coordinates":[123.55744354350009,13.333853180500057]}},{"type":"Feature","properties":{"psgc_code":"050514017","name":"Cotnogan","level":"barangay-label","municipality_psgc_code":"050514000","municipality_name":"Polangui"},"geometry":{"type":"Point","coordinates":[123.41548546000007,13.341778155000043]}},{"type":"Feature","properties":{"psgc_code":"050514018","name":"Danao","level":"barangay-label","municipality_psgc_code":"050514000","municipality_name":"Polangui"},"geometry":{"type":"Point","coordinates":[123.5696261445001,13.355603085500032]}},{"type":"Feature","properties":{"psgc_code":"050514019","name":"Gabon","level":"barangay-label","municipality_psgc_code":"050514000","municipality_name":"Polangui"},"geometry":{"type":"Point","coordinates":[123.49626843850007,13.29609468850006]}},{"type":"Feature","properties":{"psgc_code":"050514020","name":"Gamot","level":"barangay-label","municipality_psgc_code":"050514000","municipality_name":"Polangui"},"geometry":{"type":"Point","coordinates":[123.5007139705001,13.325324801500074]}},{"type":"Feature","properties":{"psgc_code":"050514022","name":"Itaran","level":"barangay-label","municipality_psgc_code":"050514000","municipality_name":"Polangui"},"geometry":{"type":"Point","coordinates":[123.51422206200004,13.335860914500046]}},{"type":"Feature","properties":{"psgc_code":"050514023","name":"Kinale","level":"barangay-label","municipality_psgc_code":"050514000","municipality_name":"Polangui"},"geometry":{"type":"Point","coordinates":[123.47000547600004,13.293375070500048]}},{"type":"Feature","properties":{"psgc_code":"050514024","name":"Kinuartilan","level":"barangay-label","municipality_psgc_code":"050514000","municipality_name":"Polangui"},"geometry":{"type":"Point","coordinates":[123.48995679250005,13.338623886500045]}},{"type":"Feature","properties":{"psgc_code":"050514025","name":"La Medalla","level":"barangay-label","municipality_psgc_code":"050514000","municipality_name":"Polangui"},"geometry":{"type":"Point","coordinates":[123.46758077350006,13.345509935500045]}},{"type":"Feature","properties":{"psgc_code":"050514026","name":"La Purisima","level":"barangay-label","municipality_psgc_code":"050514000","municipality_name":"Polangui"},"geometry":{"type":"Point","coordinates":[123.46115249350004,13.358803941000046]}},{"type":"Feature","properties":{"psgc_code":"050514027","name":"Lanigay","level":"barangay-label","municipality_psgc_code":"050514000","municipality_name":"Polangui"},"geometry":{"type":"Point","coordinates":[123.48323420400004,13.31998912000003]}},{"type":"Feature","properties":{"psgc_code":"050514028","name":"Lidong","level":"barangay-label","municipality_psgc_code":"050514000","municipality_name":"Polangui"},"geometry":{"type":"Point","coordinates":[123.52414695650009,13.34720547850003]}},{"type":"Feature","properties":{"psgc_code":"050514029","name":"Lourdes","level":"barangay-label","municipality_psgc_code":"050514000","municipality_name":"Polangui"},"geometry":{"type":"Point","coordinates":[123.48161520100008,13.353719793000066]}},{"type":"Feature","properties":{"psgc_code":"050514030","name":"Magpanambo","level":"barangay-label","municipality_psgc_code":"050514000","municipality_name":"Polangui"},"geometry":{"type":"Point","coordinates":[123.43613965650007,13.354963732000044]}},{"type":"Feature","properties":{"psgc_code":"050514031","name":"Magurang","level":"barangay-label","municipality_psgc_code":"050514000","municipality_name":"Polangui"},"geometry":{"type":"Point","coordinates":[123.49860186300009,13.285954936000053]}},{"type":"Feature","properties":{"psgc_code":"050514032","name":"Matacon","level":"barangay-label","municipality_psgc_code":"050514000","municipality_name":"Polangui"},"geometry":{"type":"Point","coordinates":[123.43164553500009,13.329479734500039]}},{"type":"Feature","properties":{"psgc_code":"050514033","name":"Maynaga","level":"barangay-label","municipality_psgc_code":"050514000","municipality_name":"Polangui"},"geometry":{"type":"Point","coordinates":[123.52736349700007,13.337970585500074]}},{"type":"Feature","properties":{"psgc_code":"050514034","name":"Maysua","level":"barangay-label","municipality_psgc_code":"050514000","municipality_name":"Polangui"},"geometry":{"type":"Point","coordinates":[123.5669403545001,13.342243610500049]}},{"type":"Feature","properties":{"psgc_code":"050514035","name":"Mendez","level":"barangay-label","municipality_psgc_code":"050514000","municipality_name":"Polangui"},"geometry":{"type":"Point","coordinates":[123.52245409000007,13.280207304000044]}},{"type":"Feature","properties":{"psgc_code":"050514036","name":"Napo","level":"barangay-label","municipality_psgc_code":"050514000","municipality_name":"Polangui"},"geometry":{"type":"Point","coordinates":[123.53050831850011,13.29425844000005]}},{"type":"Feature","properties":{"psgc_code":"050514037","name":"Pinagdapugan","level":"barangay-label","municipality_psgc_code":"050514000","municipality_name":"Polangui"},"geometry":{"type":"Point","coordinates":[123.53637553400006,13.329487341000059]}},{"type":"Feature","properties":{"psgc_code":"050514039","name":"Ponso","level":"barangay-label","municipality_psgc_code":"050514000","municipality_name":"Polangui"},"geometry":{"type":"Point","coordinates":[123.51657191200007,13.290192649500055]}},{"type":"Feature","properties":{"psgc_code":"050514040","name":"Salvacion","level":"barangay-label","municipality_psgc_code":"050514000","municipality_name":"Polangui"},"geometry":{"type":"Point","coordinates":[123.42771062800006,13.345057746000036]}},{"type":"Feature","properties":{"psgc_code":"050514041","name":"San Roque","level":"barangay-label","municipality_psgc_code":"050514000","municipality_name":"Polangui"},"geometry":{"type":"Point","coordinates":[123.4427018185001,13.33885358200004]}},{"type":"Feature","properties":{"psgc_code":"050514042","name":"Santicon","level":"barangay-label","municipality_psgc_code":"050514000","municipality_name":"Polangui"},"geometry":{"type":"Point","coordinates":[123.45589194600007,13.326433307000029]}},{"type":"Feature","properties":{"psgc_code":"050514043","name":"Santa Cruz","level":"barangay-label","municipality_psgc_code":"050514000","municipality_name":"Polangui"},"geometry":{"type":"Point","coordinates":[123.51218083150007,13.305354608000044]}},{"type":"Feature","properties":{"psgc_code":"050514044","name":"Santa Teresita","level":"barangay-label","municipality_psgc_code":"050514000","municipality_name":"Polangui"},"geometry":{"type":"Point","coordinates":[123.45075911200007,13.351959306500047]}},{"type":"Feature","properties":{"psgc_code":"050514045","name":"Sugcad","level":"barangay-label","municipality_psgc_code":"050514000","municipality_name":"Polangui"},"geometry":{"type":"Point","coordinates":[123.49193255750009,13.304070740500064]}},{"type":"Feature","properties":{"psgc_code":"050514046","name":"Ubaliw","level":"barangay-label","municipality_psgc_code":"050514000","municipality_name":"Polangui"},"geometry":{"type":"Point","coordinates":[123.48272284350008,13.283842082000064]}}]}
