{"type":"FeatureCollection","features":[{"type":"Feature","properties":{"psgc_code":"050518001","name":"Bagumbayan","level":"barangay-label","municipality_psgc_code":"050518000","municipality_name":"Tiwi"},"geometry":{"type":"Point","coordinates":[123.66469403350004,13.448659083500045]}},{"type":"Feature","properties":{"psgc_code":"050518002","name":"Bariis","level":"barangay-label","municipality_psgc_code":"050518000","municipality_name":"Tiwi"},"geometry":{"type":"Point","coordinates":[123.60544780800006,13.469609081500035]}},{"type":"Feature","properties":{"psgc_code":"050518003","name":"Baybay","level":"barangay-label","municipality_psgc_code":"050518000","municipality_name":"Tiwi"},"geometry":{"type":"Point","coordinates":[123.68896398550004,13.454562754000051]}},{"type":"Feature","properties":{"psgc_code":"050518004","name":"Belen","level":"barangay-label","municipality_psgc_code":"050518000","municipality_name":"Tiwi"},"geometry":{"type":"Point","coordinates":[123.67216457650005,13.44239959850006]}},{"type":"Feature","properties":{"psgc_code":"050518005","name":"Biyong","level":"barangay-label","municipality_psgc_code":"050518000","municipality_name":"Tiwi"},"geometry":{"type":"Point","coordinates":[123.62109072250007,13.431302820000068]}},{"type":"Feature","properties":{"psgc_code":"050518006","name":"Bolo","level":"barangay-label","municipality_psgc_code":"050518000","municipality_name":"Tiwi"},"geometry":{"type":"Point","coordinates":[123.67917749750006,13.466651335000051]}},{"type":"Feature","properties":{"psgc_code":"050518007","name":"Cale","level":"barangay-label","municipality_psgc_code":"050518000","municipality_name":"Tiwi"},"geometry":{"type":"Point","coordinates":[123.62133613050008,13.44714159850005]}},{"type":"Feature","properties":{"psgc_code":"050518008","name":"Cararayan","level":"barangay-label","municipality_psgc_code":"050518000","municipality_name":"Tiwi"},"geometry":{"type":"Point","coordinates":[123.66676278250009,13.463714600000056]}},{"type":"Feature","properties":{"psgc_code":"050518009","name":"Coro-coro","level":"barangay-label","municipality_psgc_code":"050518000","municipality_name":"Tiwi"},"geometry":{"type":"Point","coordinates":[123.67592472450008,13.447642366000053]}},{"type":"Feature","properties":{"psgc_code":"050518010","name":"Dap-dap","level":"barangay-label","municipality_psgc_code":"050518000","municipality_name":"Tiwi"},"geometry":{"type":"Point","coordinates":[123.57644631250008,13.50110211300003]}},{"type":"Feature","properties":{"psgc_code":"050518011","name":"Gajo","level":"barangay-label","municipality_psgc_code":"050518000","municipality_name":"Tiwi"},"geometry":{"type":"Point","coordinates":[123.68120892300004,13.448423792000055]}},{"type":"Feature","properties":{"psgc_code":"050518012","name":"Joroan","level":"barangay-label","municipality_psgc_code":"050518000","municipality_name":"Tiwi"},"geometry":{"type":"Point","coordinates":[123.59574414550008,13.47543858800006]}},{"type":"Feature","properties":{"psgc_code":"050518013","name":"Libjo","level":"barangay-label","municipality_psgc_code":"050518000","municipality_name":"Tiwi"},"geometry":{"type":"Point","coordinates":[123.66859727850004,13.463293144500057]}},{"type":"Feature","properties":{"psgc_code":"050518014","name":"Libtong","level":"barangay-label","municipality_psgc_code":"050518000","municipality_name":"Tiwi"},"geometry":{"type":"Point","coordinates":[123.66868764150007,13.454592327000027]}},{"type":"Feature","properties":{"psgc_code":"050518017","name":"Matalibong","level":"barangay-label","municipality_psgc_code":"050518000","municipality_name":"Tiwi"},"geometry":{"type":"Point","coordinates":[123.62738572800004,13.47674514700006]}},{"type":"Feature","properties":{"psgc_code":"050518018","name":"Maynonong","level":"barangay-label","municipality_psgc_code":"050518000","municipality_name":"Tiwi"},"geometry":{"type":"Point","coordinates":[123.58724934250012,13.484110990000033]}},{"type":"Feature","properties":{"psgc_code":"050518019","name":"Mayong","level":"barangay-label","municipality_psgc_code":"050518000","municipality_name":"Tiwi"},"geometry":{"type":"Point","coordinates":[123.57310773650005,13.509999850000042]}},{"type":"Feature","properties":{"psgc_code":"050518020","name":"Misibis","level":"barangay-label","municipality_psgc_code":"050518000","municipality_name":"Tiwi"},"geometry":{"type":"Point","coordinates":[123.58049138700005,13.491944828000074]}},{"type":"Feature","properties":{"psgc_code":"050518021","name":"Naga","level":"barangay-label","municipality_psgc_code":"050518000","municipality_name":"Tiwi"},"geometry":{"type":"Point","coordinates":[123.63426008850007,13.468302515500055]}},{"type":"Feature","properties":{"psgc_code":"050518023","name":"Nagas","level":"barangay-label","municipality_psgc_code":"050518000","municipality_name":"Tiwi"},"geometry":{"type":"Point","coordinates":[123.68421730300008,13.43775962050006]}},{"type":"Feature","properties":{"psgc_code":"050518024","name":"Oyama","level":"barangay-label","municipality_psgc_code":"050518000","municipality_name":"Tiwi"},"geometry":{"type":"Point","coordinates":[123.67529664050005,13.452670590500047]}},{"type":"Feature","properties":{"psgc_code":"050518025","name":"Putsan","level":"barangay-label","municipality_psgc_code":"050518000","municipality_name":"Tiwi"},"geometry":{"type":"Point","coordinates":[123.67092354950007,13.474432070500058]}},{"type":"Feature","properties":{"psgc_code":"050518026","name":"San Bernardo","level":"barangay-label","municipality_psgc_code":"050518000","municipality_name":"Tiwi"},"geometry":{"type":"Point","coordinates":[123.62438606450007,13.418459101000051]}},{"type":"Feature","properties":{"psgc_code":"050518027","name":"Sogod","level":"barangay-label","municipality_psgc_code":"050518000","municipality_name":"Tiwi"},"geometry":{"type":"Point","coordinates":[123.64741403750003,13.480656688500032]}},{"type":"Feature","properties":{"psgc_code":"050518028","name":"Tigbi (Pob.)","level":"barangay-label","municipality_psgc_code":"050518000","municipality_name":"Tiwi"},"geometry":{"type":"Point","coordinates":[123.67960048650008,13.456705979500045]}}]}
