{"type":"FeatureCollection","features":[{"type":"Feature","properties":{"psgc_code":"050504001","name":"Agpay","level":"barangay-label","municipality_psgc_code":"050504000","municipality_name":"Guinobatan"},"geometry":{"type":"Point","coordinates":[123.56236288000008,13.162159683000056]}},{"type":"Feature","properties":{"psgc_code":"050504002","name":"Balite","level":"barangay-label","municipality_psgc_code":"050504000","municipality_name":"Guinobatan"},"geometry":{"type":"Point","coordinates":[123.53692153900005,13.09729684800007]}},{"type":"Feature","properties":{"psgc_code":"050504003","name":"Banao","level":"barangay-label","municipality_psgc_code":"050504000","municipality_name":"Guinobatan"},"geometry":{"type":"Point","coordinates":[123.57389197400005,13.215719926500043]}},{"type":"Feature","properties":{"psgc_code":"050504004","name":"Batbat","level":"barangay-label","municipality_psgc_code":"050504000","municipality_name":"Guinobatan"},"geometry":{"type":"Point","coordinates":[123.50991285900005,13.146606948000052]}},{"type":"Feature","properties":{"psgc_code":"050504005","name":"Binogsacan Lower","level":"barangay-label","municipality_psgc_code":"050504000","municipality_name":"Guinobatan"},"geometry":{"type":"Point","coordinates":[123.5838233885001,13.201663067000055]}},{"type":"Feature","properties":{"psgc_code":"050504006","name":"Bololo","level":"barangay-label","municipality_psgc_code":"050504000","municipality_name":"Guinobatan"},"geometry":{"type":"Point","coordinates":[123.53787022650005,13.15612631500002]}},{"type":"Feature","properties":{"psgc_code":"050504007","name":"Bubulusan","level":"barangay-label","municipality_psgc_code":"050504000","municipality_name":"Guinobatan"},"geometry":{"type":"Point","coordinates":[123.59674755700007,13.223185817500053]}},{"type":"Feature","properties":{"psgc_code":"050504008","name":"Marcial O. Ra\u00f1ola","level":"barangay-label","municipality_psgc_code":"050504000","municipality_name":"Guinobatan"},"geometry":{"type":"Point","coordinates":[123.5029741675001,13.112411533500051]}},{"type":"Feature","properties":{"psgc_code":"050504009","name":"Calzada","level":"barangay-label","municipality_psgc_code":"050504000","municipality_name":"Guinobatan"},"geometry":{"type":"Point","coordinates":[123.59211493850006,13.188473390500064]}},{"type":"Feature","properties":{"psgc_code":"050504010","name":"Catomag","level":"barangay-label","municipality_psgc_code":"050504000","municipality_name":"Guinobatan"},"geometry":{"type":"Point","coordinates":[123.54122724050006,13.173886684000054]}},{"type":"Feature","properties":{"psgc_code":"050504011","name":"Do\u00f1a Mercedes","level":"barangay-label","municipality_psgc_code":"050504000","municipality_name":"Guinobatan"},"geometry":{"type":"Point","coordinates":[123.58233588750005,13.133604614000033]}},{"type":"Feature","properties":{"psgc_code":"050504012","name":"Do\u00f1a Tomasa","level":"barangay-label","municipality_psgc_code":"050504000","municipality_name":"Guinobatan"},"geometry":{"type":"Point","coordinates":[123.62458227950003,13.236672307500044]}},{"type":"Feature","properties":{"psgc_code":"050504013","name":"Ilawod","level":"barangay-label","municipality_psgc_code":"050504000","municipality_name":"Guinobatan"},"geometry":{"type":"Point","coordinates":[123.59744736600004,13.193594381000054]}},{"type":"Feature","properties":{"psgc_code":"050504014","name":"Inamnan Peque\u00f1o","level":"barangay-label","municipality_psgc_code":"050504000","municipality_name":"Guinobatan"},"geometry":{"type":"Point","coordinates":[123.59712399250009,13.183549197500042]}},{"type":"Feature","properties":{"psgc_code":"050504015","name":"Inamnan Grande","level":"barangay-label","municipality_psgc_code":"050504000","municipality_name":"Guinobatan"},"geometry":{"type":"Point","coordinates":[123.59468114550009,13.186604333000048]}},{"type":"Feature","properties":{"psgc_code":"050504016","name":"Inascan","level":"barangay-label","municipality_psgc_code":"050504000","municipality_name":"Guinobatan"},"geometry":{"type":"Point","coordinates":[123.5851514745001,13.216687004500045]}},{"type":"Feature","properties":{"psgc_code":"050504017","name":"Iraya","level":"barangay-label","municipality_psgc_code":"050504000","municipality_name":"Guinobatan"},"geometry":{"type":"Point","coordinates":[123.60297891900007,13.189224703000036]}},{"type":"Feature","properties":{"psgc_code":"050504018","name":"Lomacao","level":"barangay-label","municipality_psgc_code":"050504000","municipality_name":"Guinobatan"},"geometry":{"type":"Point","coordinates":[123.55587233900008,13.195525739500054]}},{"type":"Feature","properties":{"psgc_code":"050504021","name":"Maguiron","level":"barangay-label","municipality_psgc_code":"050504000","municipality_name":"Guinobatan"},"geometry":{"type":"Point","coordinates":[123.60181483650007,13.179453577500052]}},{"type":"Feature","properties":{"psgc_code":"050504022","name":"Maipon","level":"barangay-label","municipality_psgc_code":"050504000","municipality_name":"Guinobatan"},"geometry":{"type":"Point","coordinates":[123.60422392550004,13.210480427500041]}},{"type":"Feature","properties":{"psgc_code":"050504023","name":"Malabnig","level":"barangay-label","municipality_psgc_code":"050504000","municipality_name":"Guinobatan"},"geometry":{"type":"Point","coordinates":[123.58024750650003,13.178060320000071]}},{"type":"Feature","properties":{"psgc_code":"050504024","name":"Malipo","level":"barangay-label","municipality_psgc_code":"050504000","municipality_name":"Guinobatan"},"geometry":{"type":"Point","coordinates":[123.55915545750008,13.122599918000047]}},{"type":"Feature","properties":{"psgc_code":"050504025","name":"Malobago","level":"barangay-label","municipality_psgc_code":"050504000","municipality_name":"Guinobatan"},"geometry":{"type":"Point","coordinates":[123.56700115000007,13.123203472000057]}},{"type":"Feature","properties":{"psgc_code":"050504026","name":"Maninila","level":"barangay-label","municipality_psgc_code":"050504000","municipality_name":"Guinobatan"},"geometry":{"type":"Point","coordinates":[123.62589638950004,13.20924388800006]}},{"type":"Feature","properties":{"psgc_code":"050504027","name":"Mapaco","level":"barangay-label","municipality_psgc_code":"050504000","municipality_name":"Guinobatan"},"geometry":{"type":"Point","coordinates":[123.58029001600005,13.162938998500037]}},{"type":"Feature","properties":{"psgc_code":"050504029","name":"Masarawag","level":"barangay-label","municipality_psgc_code":"050504000","municipality_name":"Guinobatan"},"geometry":{"type":"Point","coordinates":[123.64447947400002,13.239199904500024]}},{"type":"Feature","properties":{"psgc_code":"050504030","name":"Mauraro","level":"barangay-label","municipality_psgc_code":"050504000","municipality_name":"Guinobatan"},"geometry":{"type":"Point","coordinates":[123.5906666295001,13.154276570000036]}},{"type":"Feature","properties":{"psgc_code":"050504031","name":"Minto","level":"barangay-label","municipality_psgc_code":"050504000","municipality_name":"Guinobatan"},"geometry":{"type":"Point","coordinates":[123.61580868000004,13.17952981500005]}},{"type":"Feature","properties":{"psgc_code":"050504032","name":"Morera","level":"barangay-label","municipality_psgc_code":"050504000","municipality_name":"Guinobatan"},"geometry":{"type":"Point","coordinates":[123.59084458000007,13.196011747500052]}},{"type":"Feature","properties":{"psgc_code":"050504033","name":"Muladbucad Peque\u00f1o","level":"barangay-label","municipality_psgc_code":"050504000","municipality_name":"Guinobatan"},"geometry":{"type":"Point","coordinates":[123.62368817800007,13.251795401000065]}},{"type":"Feature","properties":{"psgc_code":"050504034","name":"Muladbucad Grande","level":"barangay-label","municipality_psgc_code":"050504000","municipality_name":"Guinobatan"},"geometry":{"type":"Point","coordinates":[123.61458923150008,13.253594026500053]}},{"type":"Feature","properties":{"psgc_code":"050504035","name":"Ongo","level":"barangay-label","municipality_psgc_code":"050504000","municipality_name":"Guinobatan"},"geometry":{"type":"Point","coordinates":[123.52118704500009,13.103462588500065]}},{"type":"Feature","properties":{"psgc_code":"050504036","name":"Palanas","level":"barangay-label","municipality_psgc_code":"050504000","municipality_name":"Guinobatan"},"geometry":{"type":"Point","coordinates":[123.55033678500007,13.09352121850003]}},{"type":"Feature","properties":{"psgc_code":"050504038","name":"Poblacion","level":"barangay-label","municipality_psgc_code":"050504000","municipality_name":"Guinobatan"},"geometry":{"type":"Point","coordinates":[123.60026844650008,13.191151614500058]}},{"type":"Feature","properties":{"psgc_code":"050504040","name":"Pood","level":"barangay-label","municipality_psgc_code":"050504000","municipality_name":"Guinobatan"},"geometry":{"type":"Point","coordinates":[123.53772238200003,13.085456477000065]}},{"type":"Feature","properties":{"psgc_code":"050504041","name":"Quitago","level":"barangay-label","municipality_psgc_code":"050504000","municipality_name":"Guinobatan"},"geometry":{"type":"Point","coordinates":[123.61086607650003,13.171798991000058]}},{"type":"Feature","properties":{"psgc_code":"050504042","name":"Quibongbongan","level":"barangay-label","municipality_psgc_code":"050504000","municipality_name":"Guinobatan"},"geometry":{"type":"Point","coordinates":[123.60587463200005,13.157082484500052]}},{"type":"Feature","properties":{"psgc_code":"050504043","name":"San Francisco","level":"barangay-label","municipality_psgc_code":"050504000","municipality_name":"Guinobatan"},"geometry":{"type":"Point","coordinates":[123.60933049500011,13.189898914500048]}},{"type":"Feature","properties":{"psgc_code":"050504044","name":"San Jose","level":"barangay-label","municipality_psgc_code":"050504000","municipality_name":"Guinobatan"},"geometry":{"type":"Point","coordinates":[123.59135220100006,13.233743312500051]}},{"type":"Feature","properties":{"psgc_code":"050504045","name":"San Rafael","level":"barangay-label","municipality_psgc_code":"050504000","municipality_name":"Guinobatan"},"geometry":{"type":"Point","coordinates":[123.60208749550009,13.19905749700007]}},{"type":"Feature","properties":{"psgc_code":"050504046","name":"Sinungtan","level":"barangay-label","municipality_psgc_code":"050504000","municipality_name":"Guinobatan"},"geometry":{"type":"Point","coordinates":[123.54139755850008,13.122611258500058]}},{"type":"Feature","properties":{"psgc_code":"050504047","name":"Tandarora","level":"barangay-label","municipality_psgc_code":"050504000","municipality_name":"Guinobatan"},"geometry":{"type":"Point","coordinates":[123.6188801835001,13.20013869300004]}},{"type":"Feature","properties":{"psgc_code":"050504048","name":"Travesia","level":"barangay-label","municipality_psgc_code":"050504000","municipality_name":"Guinobatan"},"geometry":{"type":"Point","coordinates":[123.61837761150008,13.189351409500063]}},{"type":"Feature","properties":{"psgc_code":"050504049","name":"Binogsacan Upper","level":"barangay-label","municipality_psgc_code":"050504000","municipality_name":"Guinobatan"},"geometry":{"type":"Point","coordinates":[123.57727896600005,13.196986741000044]}}]}
