{"type":"FeatureCollection","features":[{"type":"Feature","properties":{"psgc_code":"050510001","name":"Awang","level":"barangay-label","municipality_psgc_code":"050510000","municipality_name":"Malinao"},"geometry":{"type":"Point","coordinates":[123.69389651850008,13.368965685500058]}},{"type":"Feature","properties":{"psgc_code":"050510002","name":"Bagatangki","level":"barangay-label","municipality_psgc_code":"050510000","municipality_name":"Malinao"},"geometry":{"type":"Point","coordinates":[123.60629899100007,13.390450047500053]}},{"type":"Feature","properties":{"psgc_code":"050510003","name":"Balading","level":"barangay-label","municipality_psgc_code":"050510000","municipality_name":"Malinao"},"geometry":{"type":"Point","coordinates":[123.70760041050006,13.386529962500049]}},{"type":"Feature","properties":{"psgc_code":"050510004","name":"Balza","level":"barangay-label","municipality_psgc_code":"050510000","municipality_name":"Malinao"},"geometry":{"type":"Point","coordinates":[123.69884295800006,13.405143321500049]}},{"type":"Feature","properties":{"psgc_code":"050510005","name":"Bariw","level":"barangay-label","municipality_psgc_code":"050510000","municipality_name":"Malinao"},"geometry":{"type":"Point","coordinates":[123.71261205500002,13.38264378100007]}},{"type":"Feature","properties":{"psgc_code":"050510006","name":"Baybay","level":"barangay-label","municipality_psgc_code":"050510000","municipality_name":"Malinao"},"geometry":{"type":"Point","coordinates":[123.71326790300009,13.408092888000056]}},{"type":"Feature","properties":{"psgc_code":"050510007","name":"Bulang","level":"barangay-label","municipality_psgc_code":"050510000","municipality_name":"Malinao"},"geometry":{"type":"Point","coordinates":[123.63854810000004,13.370334193500042]}},{"type":"Feature","properties":{"psgc_code":"050510008","name":"Burabod","level":"barangay-label","municipality_psgc_code":"050510000","municipality_name":"Malinao"},"geometry":{"type":"Point","coordinates":[123.68890682850008,13.424657589000049]}},{"type":"Feature","properties":{"psgc_code":"050510009","name":"Cabunturan","level":"barangay-label","municipality_psgc_code":"050510000","municipality_name":"Malinao"},"geometry":{"type":"Point","coordinates":[123.69061807450004,13.416885142500062]}},{"type":"Feature","properties":{"psgc_code":"050510010","name":"Comun","level":"barangay-label","municipality_psgc_code":"050510000","municipality_name":"Malinao"},"geometry":{"type":"Point","coordinates":[123.66454419000007,13.348054696000048]}},{"type":"Feature","properties":{"psgc_code":"050510011","name":"Diaro","level":"barangay-label","municipality_psgc_code":"050510000","municipality_name":"Malinao"},"geometry":{"type":"Point","coordinates":[123.66727015600003,13.369050833000042]}},{"type":"Feature","properties":{"psgc_code":"050510012","name":"Estancia","level":"barangay-label","municipality_psgc_code":"050510000","municipality_name":"Malinao"},"geometry":{"type":"Point","coordinates":[123.67503398200006,13.360223997500043]}},{"type":"Feature","properties":{"psgc_code":"050510013","name":"Jonop","level":"barangay-label","municipality_psgc_code":"050510000","municipality_name":"Malinao"},"geometry":{"type":"Point","coordinates":[123.70275940250008,13.42153607250006]}},{"type":"Feature","properties":{"psgc_code":"050510014","name":"Labnig","level":"barangay-label","municipality_psgc_code":"050510000","municipality_name":"Malinao"},"geometry":{"type":"Point","coordinates":[123.67846001750007,13.374696010000036]}},{"type":"Feature","properties":{"psgc_code":"050510015","name":"Libod","level":"barangay-label","municipality_psgc_code":"050510000","municipality_name":"Malinao"},"geometry":{"type":"Point","coordinates":[123.68834939700002,13.40028295150006]}},{"type":"Feature","properties":{"psgc_code":"050510016","name":"Malolos","level":"barangay-label","municipality_psgc_code":"050510000","municipality_name":"Malinao"},"geometry":{"type":"Point","coordinates":[123.67159573450004,13.382399689000037]}},{"type":"Feature","properties":{"psgc_code":"050510017","name":"Matalipni","level":"barangay-label","municipality_psgc_code":"050510000","municipality_name":"Malinao"},"geometry":{"type":"Point","coordinates":[123.65830462800005,13.394584131000075]}},{"type":"Feature","properties":{"psgc_code":"050510018","name":"Ogob","level":"barangay-label","municipality_psgc_code":"050510000","municipality_name":"Malinao"},"geometry":{"type":"Point","coordinates":[123.65544642000009,13.359812826500043]}},{"type":"Feature","properties":{"psgc_code":"050510019","name":"Pawa","level":"barangay-label","municipality_psgc_code":"050510000","municipality_name":"Malinao"},"geometry":{"type":"Point","coordinates":[123.70137897950008,13.390356880000041]}},{"type":"Feature","properties":{"psgc_code":"050510020","name":"Payahan","level":"barangay-label","municipality_psgc_code":"050510000","municipality_name":"Malinao"},"geometry":{"type":"Point","coordinates":[123.70922549750009,13.402592453000068]}},{"type":"Feature","properties":{"psgc_code":"050510021","name":"Poblacion","level":"barangay-label","municipality_psgc_code":"050510000","municipality_name":"Malinao"},"geometry":{"type":"Point","coordinates":[123.70806447900003,13.395536204500043]}},{"type":"Feature","properties":{"psgc_code":"050510022","name":"Bagumbayan","level":"barangay-label","municipality_psgc_code":"050510000","municipality_name":"Malinao"},"geometry":{"type":"Point","coordinates":[123.70014477400002,13.397422089500054]}},{"type":"Feature","properties":{"psgc_code":"050510023","name":"Quinarabasahan","level":"barangay-label","municipality_psgc_code":"050510000","municipality_name":"Malinao"},"geometry":{"type":"Point","coordinates":[123.59602442350007,13.363630218000052]}},{"type":"Feature","properties":{"psgc_code":"050510024","name":"Santa Elena","level":"barangay-label","municipality_psgc_code":"050510000","municipality_name":"Malinao"},"geometry":{"type":"Point","coordinates":[123.67674639900008,13.422453635500062]}},{"type":"Feature","properties":{"psgc_code":"050510025","name":"Soa","level":"barangay-label","municipality_psgc_code":"050510000","municipality_name":"Malinao"},"geometry":{"type":"Point","coordinates":[123.63251445700007,13.346295106500037]}},{"type":"Feature","properties":{"psgc_code":"050510026","name":"Sugcad","level":"barangay-label","municipality_psgc_code":"050510000","municipality_name":"Malinao"},"geometry":{"type":"Point","coordinates":[123.65435420200004,13.404692928500054]}},{"type":"Feature","properties":{"psgc_code":"050510027","name":"Tagoytoy","level":"barangay-label","municipality_psgc_code":"050510000","municipality_name":"Malinao"},"geometry":{"type":"Point","coordinates":[123.66337284000008,13.416699603000039]}},{"type":"Feature","properties":{"psgc_code":"050510028","name":"Tanawan","level":"barangay-label","municipality_psgc_code":"050510000","municipality_name":"Malinao"},"geometry":{"type":"Point","coordinates":[123.68087982600008,13.406563387500029]}},{"type":"Feature","properties":{"psgc_code":"050510029","name":"Tuliw","level":"barangay-label","municipality_psgc_code":"050510000","municipality_name":"Malinao"},"geometry":{"type":"Point","coordinates":[123.69352324050004,13.387482118000033]}}]}
