{"type":"FeatureCollection","features":[{"type":"Feature","properties":{"psgc_code":"050509001","name":"Binitayan","level":"barangay-label","municipality_psgc_code":"050509000","municipality_name":"Malilipot"},"geometry":{"type":"Point","coordinates":[123.76053635400007,13.312723462000063]}},{"type":"Feature","properties":{"psgc_code":"050509002","name":"Calbayog","level":"barangay-label","municipality_psgc_code":"050509000","municipality_name":"Malilipot"},"geometry":{"type":"Point","coordinates":[123.71739304450007,13.277754504500024]}},{"type":"Feature","properties":{"psgc_code":"050509003","name":"Canaway","level":"barangay-label","municipality_psgc_code":"050509000","municipality_name":"Malilipot"},"geometry":{"type":"Point","coordinates":[123.70272469650007,13.292213847000056]}},{"type":"Feature","properties":{"psgc_code":"050509004","name":"Barangay I (Pob.)","level":"barangay-label","municipality_psgc_code":"050509000","municipality_name":"Malilipot"},"geometry":{"type":"Point","coordinates":[123.73552054100003,13.30662587750004]}},{"type":"Feature","properties":{"psgc_code":"050509005","name":"Barangay II (Pob.)","level":"barangay-label","municipality_psgc_code":"050509000","municipality_name":"Malilipot"},"geometry":{"type":"Point","coordinates":[123.73814370650007,13.318914781000045]}},{"type":"Feature","properties":{"psgc_code":"050509006","name":"Barangay III (Pob.)","level":"barangay-label","municipality_psgc_code":"050509000","municipality_name":"Malilipot"},"geometry":{"type":"Point","coordinates":[123.7433243155001,13.321608692500064]}},{"type":"Feature","properties":{"psgc_code":"050509007","name":"Barangay IV (Pob.)","level":"barangay-label","municipality_psgc_code":"050509000","municipality_name":"Malilipot"},"geometry":{"type":"Point","coordinates":[123.73545986400006,13.322466418000062]}},{"type":"Feature","properties":{"psgc_code":"050509008","name":"Barangay V (Pob.)","level":"barangay-label","municipality_psgc_code":"050509000","municipality_name":"Malilipot"},"geometry":{"type":"Point","coordinates":[123.72926361950006,13.30808152250006]}},{"type":"Feature","properties":{"psgc_code":"050509009","name":"Salvacion","level":"barangay-label","municipality_psgc_code":"050509000","municipality_name":"Malilipot"},"geometry":{"type":"Point","coordinates":[123.8550234880001,13.348333241500058]}},{"type":"Feature","properties":{"psgc_code":"050509010","name":"San Antonio Santicon (Pob.)","level":"barangay-label","municipality_psgc_code":"050509000","municipality_name":"Malilipot"},"geometry":{"type":"Point","coordinates":[123.84846883000006,13.345214697000046]}},{"type":"Feature","properties":{"psgc_code":"050509011","name":"San Antonio Sulong","level":"barangay-label","municipality_psgc_code":"050509000","municipality_name":"Malilipot"},"geometry":{"type":"Point","coordinates":[123.84516763250008,13.340762246000052]}},{"type":"Feature","properties":{"psgc_code":"050509012","name":"San Francisco","level":"barangay-label","municipality_psgc_code":"050509000","municipality_name":"Malilipot"},"geometry":{"type":"Point","coordinates":[123.75044047050005,13.315335535500052]}},{"type":"Feature","properties":{"psgc_code":"050509013","name":"San Isidro Ilawod","level":"barangay-label","municipality_psgc_code":"050509000","municipality_name":"Malilipot"},"geometry":{"type":"Point","coordinates":[123.7367995025001,13.329540106500046]}},{"type":"Feature","properties":{"psgc_code":"050509014","name":"San Isidro Iraya","level":"barangay-label","municipality_psgc_code":"050509000","municipality_name":"Malilipot"},"geometry":{"type":"Point","coordinates":[123.72371011900003,13.32924190250003]}},{"type":"Feature","properties":{"psgc_code":"050509015","name":"San Jose","level":"barangay-label","municipality_psgc_code":"050509000","municipality_name":"Malilipot"},"geometry":{"type":"Point","coordinates":[123.7493435885001,13.299193057500048]}},{"type":"Feature","properties":{"psgc_code":"050509016","name":"San Roque","level":"barangay-label","municipality_psgc_code":"050509000","municipality_name":"Malilipot"},"geometry":{"type":"Point","coordinates":[123.73401608350007,13.28124593000004]}},{"type":"Feature","properties":{"psgc_code":"050509017","name":"Santa Cruz","level":"barangay-label","municipality_psgc_code":"050509000","municipality_name":"Malilipot"},"geometry":{"type":"Point","coordinates":[123.72592517400005,13.30809036100004]}},{"type":"Feature","properties":{"psgc_code":"050509018","name":"Santa Teresa","level":"barangay-label","municipality_psgc_code":"050509000","municipality_name":"Malilipot"},"geometry":{"type":"Point","coordinates":[123.74094586550007,13.307524709500058]}}]}
