{"type":"FeatureCollection","features":[{"type":"Feature","properties":{"psgc_code":"050502001","name":"Anoling","level":"barangay-label","municipality_psgc_code":"050502000","municipality_name":"Camalig"},"geometry":{"type":"Point","coordinates":[123.67521637850005,13.221944098500046]}},{"type":"Feature","properties":{"psgc_code":"050502002","name":"Baligang","level":"barangay-label","municipality_psgc_code":"050502000","municipality_name":"Camalig"},"geometry":{"type":"Point","coordinates":[123.63953872400003,13.143438313000047]}},{"type":"Feature","properties":{"psgc_code":"050502003","name":"Bantonan","level":"barangay-label","municipality_psgc_code":"050502000","municipality_name":"Camalig"},"geometry":{"type":"Point","coordinates":[123.62803433500005,13.146353420000052]}},{"type":"Feature","properties":{"psgc_code":"050502004","name":"Bariw","level":"barangay-label","municipality_psgc_code":"050502000","municipality_name":"Camalig"},"geometry":{"type":"Point","coordinates":[123.62245401000007,13.167559574000052]}},{"type":"Feature","properties":{"psgc_code":"050502006","name":"Binanderahan","level":"barangay-label","municipality_psgc_code":"050502000","municipality_name":"Camalig"},"geometry":{"type":"Point","coordinates":[123.60525357750004,13.101606285000031]}},{"type":"Feature","properties":{"psgc_code":"050502007","name":"Binitayan","level":"barangay-label","municipality_psgc_code":"050502000","municipality_name":"Camalig"},"geometry":{"type":"Point","coordinates":[123.66730775750005,13.134556295500033]}},{"type":"Feature","properties":{"psgc_code":"050502009","name":"Bongabong","level":"barangay-label","municipality_psgc_code":"050502000","municipality_name":"Camalig"},"geometry":{"type":"Point","coordinates":[123.64783782150005,13.13199158650005]}},{"type":"Feature","properties":{"psgc_code":"050502010","name":"Cabag\u00f1an","level":"barangay-label","municipality_psgc_code":"050502000","municipality_name":"Camalig"},"geometry":{"type":"Point","coordinates":[123.67215560150004,13.187713647500033]}},{"type":"Feature","properties":{"psgc_code":"050502011","name":"Cabraran Peque\u00f1o","level":"barangay-label","municipality_psgc_code":"050502000","municipality_name":"Camalig"},"geometry":{"type":"Point","coordinates":[123.59713260750004,13.09343956400005]}},{"type":"Feature","properties":{"psgc_code":"050502012","name":"Calabidongan","level":"barangay-label","municipality_psgc_code":"050502000","municipality_name":"Camalig"},"geometry":{"type":"Point","coordinates":[123.6314915005001,13.117000435500074]}},{"type":"Feature","properties":{"psgc_code":"050502013","name":"Comun","level":"barangay-label","municipality_psgc_code":"050502000","municipality_name":"Camalig"},"geometry":{"type":"Point","coordinates":[123.6611962455001,13.129964302000047]}},{"type":"Feature","properties":{"psgc_code":"050502014","name":"Cotmon","level":"barangay-label","municipality_psgc_code":"050502000","municipality_name":"Camalig"},"geometry":{"type":"Point","coordinates":[123.65779624300006,13.114226611500042]}},{"type":"Feature","properties":{"psgc_code":"050502015","name":"Del Rosario","level":"barangay-label","municipality_psgc_code":"050502000","municipality_name":"Camalig"},"geometry":{"type":"Point","coordinates":[123.66346206550003,13.097086175000044]}},{"type":"Feature","properties":{"psgc_code":"050502016","name":"Gapo","level":"barangay-label","municipality_psgc_code":"050502000","municipality_name":"Camalig"},"geometry":{"type":"Point","coordinates":[123.6608921135001,13.181179822500072]}},{"type":"Feature","properties":{"psgc_code":"050502017","name":"Gotob","level":"barangay-label","municipality_psgc_code":"050502000","municipality_name":"Camalig"},"geometry":{"type":"Point","coordinates":[123.65067009800003,13.156659114500057]}},{"type":"Feature","properties":{"psgc_code":"050502018","name":"Ilawod","level":"barangay-label","municipality_psgc_code":"050502000","municipality_name":"Camalig"},"geometry":{"type":"Point","coordinates":[123.64982193200007,13.177868381000053]}},{"type":"Feature","properties":{"psgc_code":"050502019","name":"Iluluan","level":"barangay-label","municipality_psgc_code":"050502000","municipality_name":"Camalig"},"geometry":{"type":"Point","coordinates":[123.59635024500011,13.124251866500032]}},{"type":"Feature","properties":{"psgc_code":"050502021","name":"Libod","level":"barangay-label","municipality_psgc_code":"050502000","municipality_name":"Camalig"},"geometry":{"type":"Point","coordinates":[123.63298064500009,13.179622708500064]}},{"type":"Feature","properties":{"psgc_code":"050502022","name":"Ligban","level":"barangay-label","municipality_psgc_code":"050502000","municipality_name":"Camalig"},"geometry":{"type":"Point","coordinates":[123.65426370000006,13.165517533500065]}},{"type":"Feature","properties":{"psgc_code":"050502023","name":"Mabunga","level":"barangay-label","municipality_psgc_code":"050502000","municipality_name":"Camalig"},"geometry":{"type":"Point","coordinates":[123.62322138400003,13.079441780000025]}},{"type":"Feature","properties":{"psgc_code":"050502024","name":"Magogon","level":"barangay-label","municipality_psgc_code":"050502000","municipality_name":"Camalig"},"geometry":{"type":"Point","coordinates":[123.66481335650003,13.064863208500043]}},{"type":"Feature","properties":{"psgc_code":"050502025","name":"Manawan","level":"barangay-label","municipality_psgc_code":"050502000","municipality_name":"Camalig"},"geometry":{"type":"Point","coordinates":[123.58015222800003,13.108836407000041]}},{"type":"Feature","properties":{"psgc_code":"050502026","name":"Maninila","level":"barangay-label","municipality_psgc_code":"050502000","municipality_name":"Camalig"},"geometry":{"type":"Point","coordinates":[123.65176148700004,13.097849644000036]}},{"type":"Feature","properties":{"psgc_code":"050502027","name":"Mina","level":"barangay-label","municipality_psgc_code":"050502000","municipality_name":"Camalig"},"geometry":{"type":"Point","coordinates":[123.66178303200007,13.157182512000045]}},{"type":"Feature","properties":{"psgc_code":"050502028","name":"Miti","level":"barangay-label","municipality_psgc_code":"050502000","municipality_name":"Camalig"},"geometry":{"type":"Point","coordinates":[123.61344027700005,13.132728279500043]}},{"type":"Feature","properties":{"psgc_code":"050502029","name":"Palanog","level":"barangay-label","municipality_psgc_code":"050502000","municipality_name":"Camalig"},"geometry":{"type":"Point","coordinates":[123.61801610000009,13.150337033500051]}},{"type":"Feature","properties":{"psgc_code":"050502030","name":"Panoypoy","level":"barangay-label","municipality_psgc_code":"050502000","municipality_name":"Camalig"},"geometry":{"type":"Point","coordinates":[123.65950778350003,13.075456304500051]}},{"type":"Feature","properties":{"psgc_code":"050502031","name":"Pariaan","level":"barangay-label","municipality_psgc_code":"050502000","municipality_name":"Camalig"},"geometry":{"type":"Point","coordinates":[123.60004201650003,13.108071942000036]}},{"type":"Feature","properties":{"psgc_code":"050502032","name":"Quinartilan","level":"barangay-label","municipality_psgc_code":"050502000","municipality_name":"Camalig"},"geometry":{"type":"Point","coordinates":[123.57378183300006,13.093502338500057]}},{"type":"Feature","properties":{"psgc_code":"050502033","name":"Quirangay","level":"barangay-label","municipality_psgc_code":"050502000","municipality_name":"Camalig"},"geometry":{"type":"Point","coordinates":[123.66573817950005,13.217426991000051]}},{"type":"Feature","properties":{"psgc_code":"050502034","name":"Quitinday","level":"barangay-label","municipality_psgc_code":"050502000","municipality_name":"Camalig"},"geometry":{"type":"Point","coordinates":[123.61590833850006,13.092817774000025]}},{"type":"Feature","properties":{"psgc_code":"050502035","name":"Salugan","level":"barangay-label","municipality_psgc_code":"050502000","municipality_name":"Camalig"},"geometry":{"type":"Point","coordinates":[123.66316440650002,13.18951070700004]}},{"type":"Feature","properties":{"psgc_code":"050502036","name":"Solong","level":"barangay-label","municipality_psgc_code":"050502000","municipality_name":"Camalig"},"geometry":{"type":"Point","coordinates":[123.64501479300009,13.11722624850006]}},{"type":"Feature","properties":{"psgc_code":"050502037","name":"Sua","level":"barangay-label","municipality_psgc_code":"050502000","municipality_name":"Camalig"},"geometry":{"type":"Point","coordinates":[123.65538383450001,13.216203826500047]}},{"type":"Feature","properties":{"psgc_code":"050502038","name":"Sumlang","level":"barangay-label","municipality_psgc_code":"050502000","municipality_name":"Camalig"},"geometry":{"type":"Point","coordinates":[123.66827184450005,13.176761700500036]}},{"type":"Feature","properties":{"psgc_code":"050502039","name":"Tagaytay","level":"barangay-label","municipality_psgc_code":"050502000","municipality_name":"Camalig"},"geometry":{"type":"Point","coordinates":[123.63578175850007,13.162080200000046]}},{"type":"Feature","properties":{"psgc_code":"050502040","name":"Tagoytoy","level":"barangay-label","municipality_psgc_code":"050502000","municipality_name":"Camalig"},"geometry":{"type":"Point","coordinates":[123.66354457550005,13.149412019500033]}},{"type":"Feature","properties":{"psgc_code":"050502041","name":"Taladong","level":"barangay-label","municipality_psgc_code":"050502000","municipality_name":"Camalig"},"geometry":{"type":"Point","coordinates":[123.6590322520001,13.142909364000047]}},{"type":"Feature","properties":{"psgc_code":"050502042","name":"Taloto","level":"barangay-label","municipality_psgc_code":"050502000","municipality_name":"Camalig"},"geometry":{"type":"Point","coordinates":[123.64486611800004,13.078865304500058]}},{"type":"Feature","properties":{"psgc_code":"050502043","name":"Taplacon","level":"barangay-label","municipality_psgc_code":"050502000","municipality_name":"Camalig"},"geometry":{"type":"Point","coordinates":[123.63272712100007,13.094379408000036]}},{"type":"Feature","properties":{"psgc_code":"050502044","name":"Tinago","level":"barangay-label","municipality_psgc_code":"050502000","municipality_name":"Camalig"},"geometry":{"type":"Point","coordinates":[123.65925313450009,13.170958850500027]}},{"type":"Feature","properties":{"psgc_code":"050502045","name":"Tumpa","level":"barangay-label","municipality_psgc_code":"050502000","municipality_name":"Camalig"},"geometry":{"type":"Point","coordinates":[123.6449661105001,13.214436264000026]}},{"type":"Feature","properties":{"psgc_code":"050502046","name":"Barangay 1 (Pob.)","level":"barangay-label","municipality_psgc_code":"050502000","municipality_name":"Camalig"},"geometry":{"type":"Point","coordinates":[123.65613520100004,13.184431742500038]}},{"type":"Feature","properties":{"psgc_code":"050502047","name":"Barangay 2 (Pob.)","level":"barangay-label","municipality_psgc_code":"050502000","municipality_name":"Camalig"},"geometry":{"type":"Point","coordinates":[123.65512607000005,13.18304753700005]}},{"type":"Feature","properties":{"psgc_code":"050502048","name":"Barangay 3 (Pob.)","level":"barangay-label","municipality_psgc_code":"050502000","municipality_name":"Camalig"},"geometry":{"type":"Point","coordinates":[123.6534295300001,13.181612359000042]}},{"type":"Feature","properties":{"psgc_code":"050502049","name":"Barangay 4 (Pob.)","level":"barangay-label","municipality_psgc_code":"050502000","municipality_name":"Camalig"},"geometry":{"type":"Point","coordinates":[123.65222528950005,13.180250197500044]}},{"type":"Feature","properties":{"psgc_code":"050502050","name":"Barangay 5 (Pob.)","level":"barangay-label","municipality_psgc_code":"050502000","municipality_name":"Camalig"},"geometry":{"type":"Point","coordinates":[123.6554779760001,13.17945396500005]}},{"type":"Feature","properties":{"psgc_code":"050502051","name":"Barangay 6 (Pob.)","level":"barangay-label","municipality_psgc_code":"050502000","municipality_name":"Camalig"},"geometry":{"type":"Point","coordinates":[123.6554519880001,13.179046963500038]}},{"type":"Feature","properties":{"psgc_code":"050502052","name":"Barangay 7 (Pob.)","level":"barangay-label","municipality_psgc_code":"050502000","municipality_name":"Camalig"},"geometry":{"type":"Point","coordinates":[123.65712626200002,13.181797391500027]}},{"type":"Feature","properties":{"psgc_code":"050502053","name":"Caguiba","level":"barangay-label","municipality_psgc_code":"050502000","municipality_name":"Camalig"},"geometry":{"type":"Point","coordinates":[123.62173284800008,13.120577733000061]}}]}
