{"type":"FeatureCollection","features":[{"type":"Feature","properties":{"psgc_code":"050515003","name":"Bagaobawan","level":"barangay-label","municipality_psgc_code":"050515000","municipality_name":"Rapu-Rapu"},"geometry":{"type":"Point","coordinates":[124.05820078450006,13.237511127500056]}},{"type":"Feature","properties":{"psgc_code":"050515004","name":"Batan","level":"barangay-label","municipality_psgc_code":"050515000","municipality_name":"Rapu-Rapu"},"geometry":{"type":"Point","coordinates":[124.04100820100007,13.236196753000058]}},{"type":"Feature","properties":{"psgc_code":"050515005","name":"Bilbao","level":"barangay-label","municipality_psgc_code":"050515000","municipality_name":"Rapu-Rapu"},"geometry":{"type":"Point","coordinates":[124.0162364310001,13.257379954500067]}},{"type":"Feature","properties":{"psgc_code":"050515006","name":"Binosawan","level":"barangay-label","municipality_psgc_code":"050515000","municipality_name":"Rapu-Rapu"},"geometry":{"type":"Point","coordinates":[124.21108799150005,13.187788928500055]}},{"type":"Feature","properties":{"psgc_code":"050515007","name":"Bogtong","level":"barangay-label","municipality_psgc_code":"050515000","municipality_name":"Rapu-Rapu"},"geometry":{"type":"Point","coordinates":[124.01604932250007,13.226930130500051]}},{"type":"Feature","properties":{"psgc_code":"050515008","name":"Buenavista","level":"barangay-label","municipality_psgc_code":"050515000","municipality_name":"Rapu-Rapu"},"geometry":{"type":"Point","coordinates":[124.16532986400011,13.217098086500043]}},{"type":"Feature","properties":{"psgc_code":"050515009","name":"Buhatan","level":"barangay-label","municipality_psgc_code":"050515000","municipality_name":"Rapu-Rapu"},"geometry":{"type":"Point","coordinates":[123.96577845100003,13.273831631500059]}},{"type":"Feature","properties":{"psgc_code":"050515010","name":"Calanaga","level":"barangay-label","municipality_psgc_code":"050515000","municipality_name":"Rapu-Rapu"},"geometry":{"type":"Point","coordinates":[124.04277081400005,13.26463597600005]}},{"type":"Feature","properties":{"psgc_code":"050515011","name":"Caracaran","level":"barangay-label","municipality_psgc_code":"050515000","municipality_name":"Rapu-Rapu"},"geometry":{"type":"Point","coordinates":[123.98286634200008,13.238902169000054]}},{"type":"Feature","properties":{"psgc_code":"050515012","name":"Carogcog","level":"barangay-label","municipality_psgc_code":"050515000","municipality_name":"Rapu-Rapu"},"geometry":{"type":"Point","coordinates":[124.16008425200005,13.189489265000045]}},{"type":"Feature","properties":{"psgc_code":"050515013","name":"Dap-dap","level":"barangay-label","municipality_psgc_code":"050515000","municipality_name":"Rapu-Rapu"},"geometry":{"type":"Point","coordinates":[124.03066886050004,13.23145120050006]}},{"type":"Feature","properties":{"psgc_code":"050515014","name":"Gaba","level":"barangay-label","municipality_psgc_code":"050515000","municipality_name":"Rapu-Rapu"},"geometry":{"type":"Point","coordinates":[123.97702479800006,13.26845428650006]}},{"type":"Feature","properties":{"psgc_code":"050515015","name":"Galicia","level":"barangay-label","municipality_psgc_code":"050515000","municipality_name":"Rapu-Rapu"},"geometry":{"type":"Point","coordinates":[123.95066722250004,13.282220150500052]}},{"type":"Feature","properties":{"psgc_code":"050515016","name":"Guadalupe","level":"barangay-label","municipality_psgc_code":"050515000","municipality_name":"Rapu-Rapu"},"geometry":{"type":"Point","coordinates":[124.16072278700011,13.20778129800007]}},{"type":"Feature","properties":{"psgc_code":"050515017","name":"Hamorawon","level":"barangay-label","municipality_psgc_code":"050515000","municipality_name":"Rapu-Rapu"},"geometry":{"type":"Point","coordinates":[124.00486592650003,13.273833774500048]}},{"type":"Feature","properties":{"psgc_code":"050515018","name":"Lagundi","level":"barangay-label","municipality_psgc_code":"050515000","municipality_name":"Rapu-Rapu"},"geometry":{"type":"Point","coordinates":[124.00421028550011,13.23482768100007]}},{"type":"Feature","properties":{"psgc_code":"050515019","name":"Liguan","level":"barangay-label","municipality_psgc_code":"050515000","municipality_name":"Rapu-Rapu"},"geometry":{"type":"Point","coordinates":[123.92242184750006,13.266006240000054]}},{"type":"Feature","properties":{"psgc_code":"050515020","name":"Linao","level":"barangay-label","municipality_psgc_code":"050515000","municipality_name":"Rapu-Rapu"},"geometry":{"type":"Point","coordinates":[124.20174266350007,13.198688327500037]}},{"type":"Feature","properties":{"psgc_code":"050515021","name":"Malobago","level":"barangay-label","municipality_psgc_code":"050515000","municipality_name":"Rapu-Rapu"},"geometry":{"type":"Point","coordinates":[124.19778232150003,13.179659358000036]}},{"type":"Feature","properties":{"psgc_code":"050515022","name":"Mananao","level":"barangay-label","municipality_psgc_code":"050515000","municipality_name":"Rapu-Rapu"},"geometry":{"type":"Point","coordinates":[124.13741111400009,13.219846258500043]}},{"type":"Feature","properties":{"psgc_code":"050515023","name":"Mancao","level":"barangay-label","municipality_psgc_code":"050515000","municipality_name":"Rapu-Rapu"},"geometry":{"type":"Point","coordinates":[123.92565253800001,13.280404199500051]}},{"type":"Feature","properties":{"psgc_code":"050515024","name":"Manila","level":"barangay-label","municipality_psgc_code":"050515000","municipality_name":"Rapu-Rapu"},"geometry":{"type":"Point","coordinates":[123.95988509450007,13.246095169500048]}},{"type":"Feature","properties":{"psgc_code":"050515025","name":"Masaga","level":"barangay-label","municipality_psgc_code":"050515000","municipality_name":"Rapu-Rapu"},"geometry":{"type":"Point","coordinates":[124.05754371500007,13.247523711500037]}},{"type":"Feature","properties":{"psgc_code":"050515026","name":"Morocborocan","level":"barangay-label","municipality_psgc_code":"050515000","municipality_name":"Rapu-Rapu"},"geometry":{"type":"Point","coordinates":[124.08910090850003,13.214669462000042]}},{"type":"Feature","properties":{"psgc_code":"050515027","name":"Nagcalsot","level":"barangay-label","municipality_psgc_code":"050515000","municipality_name":"Rapu-Rapu"},"geometry":{"type":"Point","coordinates":[124.01625820500004,13.277036449000036]}},{"type":"Feature","properties":{"psgc_code":"050515028","name":"Pagcolbon","level":"barangay-label","municipality_psgc_code":"050515000","municipality_name":"Rapu-Rapu"},"geometry":{"type":"Point","coordinates":[124.21038162400004,13.177337341000054]}},{"type":"Feature","properties":{"psgc_code":"050515029","name":"Poblacion","level":"barangay-label","municipality_psgc_code":"050515000","municipality_name":"Rapu-Rapu"},"geometry":{"type":"Point","coordinates":[124.10685872150003,13.196395365500052]}},{"type":"Feature","properties":{"psgc_code":"050515030","name":"Sagrada","level":"barangay-label","municipality_psgc_code":"050515000","municipality_name":"Rapu-Rapu"},"geometry":{"type":"Point","coordinates":[124.04057651300008,13.249841872000047]}},{"type":"Feature","properties":{"psgc_code":"050515031","name":"San Ramon","level":"barangay-label","municipality_psgc_code":"050515000","municipality_name":"Rapu-Rapu"},"geometry":{"type":"Point","coordinates":[124.07400157450003,13.26349887850003]}},{"type":"Feature","properties":{"psgc_code":"050515032","name":"Santa Barbara","level":"barangay-label","municipality_psgc_code":"050515000","municipality_name":"Rapu-Rapu"},"geometry":{"type":"Point","coordinates":[124.18732905250005,13.184916707000067]}},{"type":"Feature","properties":{"psgc_code":"050515033","name":"Tinocawan","level":"barangay-label","municipality_psgc_code":"050515000","municipality_name":"Rapu-Rapu"},"geometry":{"type":"Point","coordinates":[123.93667974400006,13.258356441000046]}},{"type":"Feature","properties":{"psgc_code":"050515034","name":"Tinopan","level":"barangay-label","municipality_psgc_code":"050515000","municipality_name":"Rapu-Rapu"},"geometry":{"type":"Point","coordinates":[124.18910093800002,13.203000349500059]}},{"type":"Feature","properties":{"psgc_code":"050515035","name":"Viga","level":"barangay-label","municipality_psgc_code":"050515000","municipality_name":"Rapu-Rapu"},"geometry":{"type":"Point","coordinates":[124.18717103300008,13.213667108500058]}},{"type":"Feature","properties":{"psgc_code":"050515036","name":"Villahermosa","level":"barangay-label","municipality_psgc_code":"050515000","municipality_name":"Rapu-Rapu"},"geometry":{"type":"Point","coordinates":[123.98978902450006,13.255735169000047]}}]}
