{"type":"FeatureCollection","features":[{"type":"Feature","properties":{"psgc_code":"050513001","name":"Agol","level":"barangay-label","municipality_psgc_code":"050513000","municipality_name":"Pio Duran"},"geometry":{"type":"Point","coordinates":[123.4670799870001,13.080812620000044]}},{"type":"Feature","properties":{"psgc_code":"050513002","name":"Alabangpuro","level":"barangay-label","municipality_psgc_code":"050513000","municipality_name":"Pio Duran"},"geometry":{"type":"Point","coordinates":[123.48601254650004,13.043492085500048]}},{"type":"Feature","properties":{"psgc_code":"050513003","name":"Basicao Coastal","level":"barangay-label","municipality_psgc_code":"050513000","municipality_name":"Pio Duran"},"geometry":{"type":"Point","coordinates":[123.40205062750005,13.059339915000038]}},{"type":"Feature","properties":{"psgc_code":"050513004","name":"Basicao Interior","level":"barangay-label","municipality_psgc_code":"050513000","municipality_name":"Pio Duran"},"geometry":{"type":"Point","coordinates":[123.48464385600005,13.081285747000038]}},{"type":"Feature","properties":{"psgc_code":"050513005","name":"Banawan","level":"barangay-label","municipality_psgc_code":"050513000","municipality_name":"Pio Duran"},"geometry":{"type":"Point","coordinates":[123.44016764850005,13.03634115650004]}},{"type":"Feature","properties":{"psgc_code":"050513006","name":"Binodegahan","level":"barangay-label","municipality_psgc_code":"050513000","municipality_name":"Pio Duran"},"geometry":{"type":"Point","coordinates":[123.45847885150005,13.065816557500028]}},{"type":"Feature","properties":{"psgc_code":"050513007","name":"Buenavista","level":"barangay-label","municipality_psgc_code":"050513000","municipality_name":"Pio Duran"},"geometry":{"type":"Point","coordinates":[123.48099974850004,13.00101410700006]}},{"type":"Feature","properties":{"psgc_code":"050513008","name":"Buyo","level":"barangay-label","municipality_psgc_code":"050513000","municipality_name":"Pio Duran"},"geometry":{"type":"Point","coordinates":[123.52577574800006,13.05565602750005]}},{"type":"Feature","properties":{"psgc_code":"050513009","name":"Caratagan","level":"barangay-label","municipality_psgc_code":"050513000","municipality_name":"Pio Duran"},"geometry":{"type":"Point","coordinates":[123.45661122750005,13.045742618500043]}},{"type":"Feature","properties":{"psgc_code":"050513010","name":"Cuyaoyao","level":"barangay-label","municipality_psgc_code":"050513000","municipality_name":"Pio Duran"},"geometry":{"type":"Point","coordinates":[123.46756771650007,13.096164602500039]}},{"type":"Feature","properties":{"psgc_code":"050513011","name":"Flores","level":"barangay-label","municipality_psgc_code":"050513000","municipality_name":"Pio Duran"},"geometry":{"type":"Point","coordinates":[123.43483678900009,13.092830881000054]}},{"type":"Feature","properties":{"psgc_code":"050513012","name":"Lawinon","level":"barangay-label","municipality_psgc_code":"050513000","municipality_name":"Pio Duran"},"geometry":{"type":"Point","coordinates":[123.49153896650006,13.010727415500073]}},{"type":"Feature","properties":{"psgc_code":"050513013","name":"Macasitas","level":"barangay-label","municipality_psgc_code":"050513000","municipality_name":"Pio Duran"},"geometry":{"type":"Point","coordinates":[123.49822215700004,13.052289542500034]}},{"type":"Feature","properties":{"psgc_code":"050513014","name":"Malapay","level":"barangay-label","municipality_psgc_code":"050513000","municipality_name":"Pio Duran"},"geometry":{"type":"Point","coordinates":[123.49415708950005,13.067523719500056]}},{"type":"Feature","properties":{"psgc_code":"050513015","name":"Malidong","level":"barangay-label","municipality_psgc_code":"050513000","municipality_name":"Pio Duran"},"geometry":{"type":"Point","coordinates":[123.46693188600005,13.014803375500062]}},{"type":"Feature","properties":{"psgc_code":"050513016","name":"Mamlad","level":"barangay-label","municipality_psgc_code":"050513000","municipality_name":"Pio Duran"},"geometry":{"type":"Point","coordinates":[123.50084991400007,13.029635324000052]}},{"type":"Feature","properties":{"psgc_code":"050513017","name":"Marigondon","level":"barangay-label","municipality_psgc_code":"050513000","municipality_name":"Pio Duran"},"geometry":{"type":"Point","coordinates":[123.42684728650005,13.056216563500044]}},{"type":"Feature","properties":{"psgc_code":"050513018","name":"Matanglad","level":"barangay-label","municipality_psgc_code":"050513000","municipality_name":"Pio Duran"},"geometry":{"type":"Point","coordinates":[123.5321769580001,13.074401794500062]}},{"type":"Feature","properties":{"psgc_code":"050513019","name":"Nablangbulod","level":"barangay-label","municipality_psgc_code":"050513000","municipality_name":"Pio Duran"},"geometry":{"type":"Point","coordinates":[123.47748250100011,13.058310560500047]}},{"type":"Feature","properties":{"psgc_code":"050513020","name":"Oringon","level":"barangay-label","municipality_psgc_code":"050513000","municipality_name":"Pio Duran"},"geometry":{"type":"Point","coordinates":[123.4795686615001,13.03216218850005]}},{"type":"Feature","properties":{"psgc_code":"050513021","name":"Palapas","level":"barangay-label","municipality_psgc_code":"050513000","municipality_name":"Pio Duran"},"geometry":{"type":"Point","coordinates":[123.4636898710001,13.107305616000046]}},{"type":"Feature","properties":{"psgc_code":"050513022","name":"Panganiran","level":"barangay-label","municipality_psgc_code":"050513000","municipality_name":"Pio Duran"},"geometry":{"type":"Point","coordinates":[123.41649381250005,13.088204382000043]}},{"type":"Feature","properties":{"psgc_code":"050513023","name":"Barangay I (Pob.)","level":"barangay-label","municipality_psgc_code":"050513000","municipality_name":"Pio Duran"},"geometry":{"type":"Point","coordinates":[123.45439242550003,13.02750929850006]}},{"type":"Feature","properties":{"psgc_code":"050513024","name":"Barangay II (Pob.)","level":"barangay-label","municipality_psgc_code":"050513000","municipality_name":"Pio Duran"},"geometry":{"type":"Point","coordinates":[123.4487145510001,13.030679089500037]}},{"type":"Feature","properties":{"psgc_code":"050513025","name":"Barangay III (Pob.)","level":"barangay-label","municipality_psgc_code":"050513000","municipality_name":"Pio Duran"},"geometry":{"type":"Point","coordinates":[123.44534520050007,13.029780616500034]}},{"type":"Feature","properties":{"psgc_code":"050513026","name":"Barangay IV (Pob.)","level":"barangay-label","municipality_psgc_code":"050513000","municipality_name":"Pio Duran"},"geometry":{"type":"Point","coordinates":[123.44396843350006,13.030233989500033]}},{"type":"Feature","properties":{"psgc_code":"050513027","name":"Barangay V (Pob.)","level":"barangay-label","municipality_psgc_code":"050513000","municipality_name":"Pio Duran"},"geometry":{"type":"Point","coordinates":[123.43977599850007,13.03053187300003]}},{"type":"Feature","properties":{"psgc_code":"050513028","name":"Rawis","level":"barangay-label","municipality_psgc_code":"050513000","municipality_name":"Pio Duran"},"geometry":{"type":"Point","coordinates":[123.51149212050007,13.039535093500064]}},{"type":"Feature","properties":{"psgc_code":"050513029","name":"Salvacion","level":"barangay-label","municipality_psgc_code":"050513000","municipality_name":"Pio Duran"},"geometry":{"type":"Point","coordinates":[123.50745306250008,13.082953290500058]}},{"type":"Feature","properties":{"psgc_code":"050513030","name":"Santo Cristo","level":"barangay-label","municipality_psgc_code":"050513000","municipality_name":"Pio Duran"},"geometry":{"type":"Point","coordinates":[123.4984967470001,13.095991787500026]}},{"type":"Feature","properties":{"psgc_code":"050513031","name":"Sukip","level":"barangay-label","municipality_psgc_code":"050513000","municipality_name":"Pio Duran"},"geometry":{"type":"Point","coordinates":[123.51687596950006,13.065477925000065]}},{"type":"Feature","properties":{"psgc_code":"050513032","name":"Tibabo","level":"barangay-label","municipality_psgc_code":"050513000","municipality_name":"Pio Duran"},"geometry":{"type":"Point","coordinates":[123.49268307500006,13.104972528500042]}},{"type":"Feature","properties":{"psgc_code":"050513033","name":"La Medalla","level":"barangay-label","municipality_psgc_code":"050513000","municipality_name":"Pio Duran"},"geometry":{"type":"Point","coordinates":[123.44180315350008,13.060871221500065]}}]}
