{"type":"FeatureCollection","features":[{"type":"Feature","properties":{"psgc_code":"050508001","name":"Abella","level":"barangay-label","municipality_psgc_code":"050508000","municipality_name":"City of Ligao"},"geometry":{"type":"Point","coordinates":[123.42500128800003,13.114322926500051]}},{"type":"Feature","properties":{"psgc_code":"050508002","name":"Allang","level":"barangay-label","municipality_psgc_code":"050508000","municipality_name":"City of Ligao"},"geometry":{"type":"Point","coordinates":[123.47151746800007,13.19751088850006]}},{"type":"Feature","properties":{"psgc_code":"050508003","name":"Amtic","level":"barangay-label","municipality_psgc_code":"050508000","municipality_name":"City of Ligao"},"geometry":{"type":"Point","coordinates":[123.6157358330001,13.301166066500059]}},{"type":"Feature","properties":{"psgc_code":"050508004","name":"Bacong","level":"barangay-label","municipality_psgc_code":"050508000","municipality_name":"City of Ligao"},"geometry":{"type":"Point","coordinates":[123.45192742200004,13.132568236000052]}},{"type":"Feature","properties":{"psgc_code":"050508005","name":"Bagumbayan","level":"barangay-label","municipality_psgc_code":"050508000","municipality_name":"City of Ligao"},"geometry":{"type":"Point","coordinates":[123.53991312450006,13.246542605500052]}},{"type":"Feature","properties":{"psgc_code":"050508006","name":"Balanac","level":"barangay-label","municipality_psgc_code":"050508000","municipality_name":"City of Ligao"},"geometry":{"type":"Point","coordinates":[123.47797489700008,13.128597145000043]}},{"type":"Feature","properties":{"psgc_code":"050508007","name":"Baligang","level":"barangay-label","municipality_psgc_code":"050508000","municipality_name":"City of Ligao"},"geometry":{"type":"Point","coordinates":[123.65459363950004,13.27374539850004]}},{"type":"Feature","properties":{"psgc_code":"050508008","name":"Barayong","level":"barangay-label","municipality_psgc_code":"050508000","municipality_name":"City of Ligao"},"geometry":{"type":"Point","coordinates":[123.57429714500006,13.279897038500053]}},{"type":"Feature","properties":{"psgc_code":"050508009","name":"Basag","level":"barangay-label","municipality_psgc_code":"050508000","municipality_name":"City of Ligao"},"geometry":{"type":"Point","coordinates":[123.60836589550007,13.273020483000037]}},{"type":"Feature","properties":{"psgc_code":"050508010","name":"Batang","level":"barangay-label","municipality_psgc_code":"050508000","municipality_name":"City of Ligao"},"geometry":{"type":"Point","coordinates":[123.57003513500007,13.251723200500038]}},{"type":"Feature","properties":{"psgc_code":"050508011","name":"Bay","level":"barangay-label","municipality_psgc_code":"050508000","municipality_name":"City of Ligao"},"geometry":{"type":"Point","coordinates":[123.55487215700003,13.24628433150005]}},{"type":"Feature","properties":{"psgc_code":"050508012","name":"Binanowan","level":"barangay-label","municipality_psgc_code":"050508000","municipality_name":"City of Ligao"},"geometry":{"type":"Point","coordinates":[123.58473282800009,13.241316985000054]}},{"type":"Feature","properties":{"psgc_code":"050508013","name":"Binatagan (Pob.)","level":"barangay-label","municipality_psgc_code":"050508000","municipality_name":"City of Ligao"},"geometry":{"type":"Point","coordinates":[123.52407046300004,13.244915958000036]}},{"type":"Feature","properties":{"psgc_code":"050508014","name":"Bobonsuran","level":"barangay-label","municipality_psgc_code":"050508000","municipality_name":"City of Ligao"},"geometry":{"type":"Point","coordinates":[123.51382237450004,13.238458568000054]}},{"type":"Feature","properties":{"psgc_code":"050508015","name":"Bonga","level":"barangay-label","municipality_psgc_code":"050508000","municipality_name":"City of Ligao"},"geometry":{"type":"Point","coordinates":[123.55287684050006,13.22298479050005]}},{"type":"Feature","properties":{"psgc_code":"050508016","name":"Busac","level":"barangay-label","municipality_psgc_code":"050508000","municipality_name":"City of Ligao"},"geometry":{"type":"Point","coordinates":[123.48559689450008,13.176150860500057]}},{"type":"Feature","properties":{"psgc_code":"050508017","name":"Busay","level":"barangay-label","municipality_psgc_code":"050508000","municipality_name":"City of Ligao"},"geometry":{"type":"Point","coordinates":[123.57135308200009,13.294645036500043]}},{"type":"Feature","properties":{"psgc_code":"050508018","name":"Cabarian","level":"barangay-label","municipality_psgc_code":"050508000","municipality_name":"City of Ligao"},"geometry":{"type":"Point","coordinates":[123.33957850900003,13.027793954500055]}},{"type":"Feature","properties":{"psgc_code":"050508019","name":"Calzada (Pob.)","level":"barangay-label","municipality_psgc_code":"050508000","municipality_name":"City of Ligao"},"geometry":{"type":"Point","coordinates":[123.5429269015001,13.23853611100003]}},{"type":"Feature","properties":{"psgc_code":"050508020","name":"Catburawan","level":"barangay-label","municipality_psgc_code":"050508000","municipality_name":"City of Ligao"},"geometry":{"type":"Point","coordinates":[123.31692734050006,13.018518450000045]}},{"type":"Feature","properties":{"psgc_code":"050508021","name":"Cavasi","level":"barangay-label","municipality_psgc_code":"050508000","municipality_name":"City of Ligao"},"geometry":{"type":"Point","coordinates":[123.52101198000003,13.231597590000035]}},{"type":"Feature","properties":{"psgc_code":"050508022","name":"Culliat","level":"barangay-label","municipality_psgc_code":"050508000","municipality_name":"City of Ligao"},"geometry":{"type":"Point","coordinates":[123.4709989540001,13.211740378000057]}},{"type":"Feature","properties":{"psgc_code":"050508023","name":"Dunao","level":"barangay-label","municipality_psgc_code":"050508000","municipality_name":"City of Ligao"},"geometry":{"type":"Point","coordinates":[123.53892444050007,13.238209988500046]}},{"type":"Feature","properties":{"psgc_code":"050508024","name":"Francia","level":"barangay-label","municipality_psgc_code":"050508000","municipality_name":"City of Ligao"},"geometry":{"type":"Point","coordinates":[123.44409692400006,13.164289942500032]}},{"type":"Feature","properties":{"psgc_code":"050508025","name":"Guilid","level":"barangay-label","municipality_psgc_code":"050508000","municipality_name":"City of Ligao"},"geometry":{"type":"Point","coordinates":[123.52951601150005,13.253329624500054]}},{"type":"Feature","properties":{"psgc_code":"050508026","name":"Herrera","level":"barangay-label","municipality_psgc_code":"050508000","municipality_name":"City of Ligao"},"geometry":{"type":"Point","coordinates":[123.58294276950005,13.27731948850004]}},{"type":"Feature","properties":{"psgc_code":"050508027","name":"Layon","level":"barangay-label","municipality_psgc_code":"050508000","municipality_name":"City of Ligao"},"geometry":{"type":"Point","coordinates":[123.56276293400009,13.241094352000031]}},{"type":"Feature","properties":{"psgc_code":"050508028","name":"Macalidong","level":"barangay-label","municipality_psgc_code":"050508000","municipality_name":"City of Ligao"},"geometry":{"type":"Point","coordinates":[123.51517576050003,13.20927981850005]}},{"type":"Feature","properties":{"psgc_code":"050508029","name":"Mahaba","level":"barangay-label","municipality_psgc_code":"050508000","municipality_name":"City of Ligao"},"geometry":{"type":"Point","coordinates":[123.54954452900006,13.26276709250007]}},{"type":"Feature","properties":{"psgc_code":"050508030","name":"Malama","level":"barangay-label","municipality_psgc_code":"050508000","municipality_name":"City of Ligao"},"geometry":{"type":"Point","coordinates":[123.46238435050009,13.153244305500039]}},{"type":"Feature","properties":{"psgc_code":"050508031","name":"Maonon","level":"barangay-label","municipality_psgc_code":"050508000","municipality_name":"City of Ligao"},"geometry":{"type":"Point","coordinates":[123.36865480600005,13.061267235500054]}},{"type":"Feature","properties":{"psgc_code":"050508032","name":"Nasisi","level":"barangay-label","municipality_psgc_code":"050508000","municipality_name":"City of Ligao"},"geometry":{"type":"Point","coordinates":[123.58483972650009,13.262636370500047]}},{"type":"Feature","properties":{"psgc_code":"050508033","name":"Nabonton","level":"barangay-label","municipality_psgc_code":"050508000","municipality_name":"City of Ligao"},"geometry":{"type":"Point","coordinates":[123.59532204600004,13.255391556000035]}},{"type":"Feature","properties":{"psgc_code":"050508034","name":"Oma-oma","level":"barangay-label","municipality_psgc_code":"050508000","municipality_name":"City of Ligao"},"geometry":{"type":"Point","coordinates":[123.50528986850003,13.179561988500039]}},{"type":"Feature","properties":{"psgc_code":"050508035","name":"Palapas","level":"barangay-label","municipality_psgc_code":"050508000","municipality_name":"City of Ligao"},"geometry":{"type":"Point","coordinates":[123.46532286950003,13.121252238500063]}},{"type":"Feature","properties":{"psgc_code":"050508036","name":"Pandan","level":"barangay-label","municipality_psgc_code":"050508000","municipality_name":"City of Ligao"},"geometry":{"type":"Point","coordinates":[123.53034453450005,13.200289125500033]}},{"type":"Feature","properties":{"psgc_code":"050508037","name":"Paulba","level":"barangay-label","municipality_psgc_code":"050508000","municipality_name":"City of Ligao"},"geometry":{"type":"Point","coordinates":[123.45297289600006,13.177157686500038]}},{"type":"Feature","properties":{"psgc_code":"050508038","name":"Paulog","level":"barangay-label","municipality_psgc_code":"050508000","municipality_name":"City of Ligao"},"geometry":{"type":"Point","coordinates":[123.56972737550007,13.230120432500055]}},{"type":"Feature","properties":{"psgc_code":"050508039","name":"Pinamaniquian","level":"barangay-label","municipality_psgc_code":"050508000","municipality_name":"City of Ligao"},"geometry":{"type":"Point","coordinates":[123.55408541750006,13.204812463000053]}},{"type":"Feature","properties":{"psgc_code":"050508040","name":"Pinit","level":"barangay-label","municipality_psgc_code":"050508000","municipality_name":"City of Ligao"},"geometry":{"type":"Point","coordinates":[123.55912573000006,13.257096777000042]}},{"type":"Feature","properties":{"psgc_code":"050508042","name":"Ranao-ranao","level":"barangay-label","municipality_psgc_code":"050508000","municipality_name":"City of Ligao"},"geometry":{"type":"Point","coordinates":[123.51669792350003,13.222794459000056]}},{"type":"Feature","properties":{"psgc_code":"050508043","name":"San Vicente","level":"barangay-label","municipality_psgc_code":"050508000","municipality_name":"City of Ligao"},"geometry":{"type":"Point","coordinates":[123.43342815800003,13.137508690500056]}},{"type":"Feature","properties":{"psgc_code":"050508044","name":"Santa Cruz (Pob.)","level":"barangay-label","municipality_psgc_code":"050508000","municipality_name":"City of Ligao"},"geometry":{"type":"Point","coordinates":[123.53736362000006,13.234780054500046]}},{"type":"Feature","properties":{"psgc_code":"050508045","name":"Tagpo","level":"barangay-label","municipality_psgc_code":"050508000","municipality_name":"City of Ligao"},"geometry":{"type":"Point","coordinates":[123.52729941150005,13.228777932000044]}},{"type":"Feature","properties":{"psgc_code":"050508046","name":"Tambo","level":"barangay-label","municipality_psgc_code":"050508000","municipality_name":"City of Ligao"},"geometry":{"type":"Point","coordinates":[123.60784387000007,13.289854894500023]}},{"type":"Feature","properties":{"psgc_code":"050508047","name":"Tandarura","level":"barangay-label","municipality_psgc_code":"050508000","municipality_name":"City of Ligao"},"geometry":{"type":"Point","coordinates":[123.46895932500007,13.173045460500047]}},{"type":"Feature","properties":{"psgc_code":"050508048","name":"Tastas","level":"barangay-label","municipality_psgc_code":"050508000","municipality_name":"City of Ligao"},"geometry":{"type":"Point","coordinates":[123.52345292200005,13.208131106500048]}},{"type":"Feature","properties":{"psgc_code":"050508049","name":"Tinago","level":"barangay-label","municipality_psgc_code":"050508000","municipality_name":"City of Ligao"},"geometry":{"type":"Point","coordinates":[123.54694399800002,13.248040933500047]}},{"type":"Feature","properties":{"psgc_code":"050508050","name":"Tinampo","level":"barangay-label","municipality_psgc_code":"050508000","municipality_name":"City of Ligao"},"geometry":{"type":"Point","coordinates":[123.50378251250004,13.231562312000051]}},{"type":"Feature","properties":{"psgc_code":"050508051","name":"Tiongson","level":"barangay-label","municipality_psgc_code":"050508000","municipality_name":"City of Ligao"},"geometry":{"type":"Point","coordinates":[123.51052665900005,13.159817236500029]}},{"type":"Feature","properties":{"psgc_code":"050508052","name":"Tomolin","level":"barangay-label","municipality_psgc_code":"050508000","municipality_name":"City of Ligao"},"geometry":{"type":"Point","coordinates":[123.52662953550004,13.234213741500042]}},{"type":"Feature","properties":{"psgc_code":"050508053","name":"Tuburan","level":"barangay-label","municipality_psgc_code":"050508000","municipality_name":"City of Ligao"},"geometry":{"type":"Point","coordinates":[123.55354102950008,13.232916714000055]}},{"type":"Feature","properties":{"psgc_code":"050508054","name":"Tula-tula Grande","level":"barangay-label","municipality_psgc_code":"050508000","municipality_name":"City of Ligao"},"geometry":{"type":"Point","coordinates":[123.48364160650004,13.213497974000033]}},{"type":"Feature","properties":{"psgc_code":"050508055","name":"Tula-tula Peque\u00f1o","level":"barangay-label","municipality_psgc_code":"050508000","municipality_name":"City of Ligao"},"geometry":{"type":"Point","coordinates":[123.49578030700008,13.205769849000063]}},{"type":"Feature","properties":{"psgc_code":"050508056","name":"Tupas","level":"barangay-label","municipality_psgc_code":"050508000","municipality_name":"City of Ligao"},"geometry":{"type":"Point","coordinates":[123.49467225950002,13.148906522500054]}}]}
