{"type":"FeatureCollection","features":[{"type":"Feature","properties":{"psgc_code":"050506001","name":"Bgy. 47 - Arimbay","level":"barangay-label","municipality_psgc_code":"050506000","municipality_name":"City of Legazpi"},"geometry":{"type":"Point","coordinates":[123.75239496800009,13.183983096500041]}},{"type":"Feature","properties":{"psgc_code":"050506002","name":"Bgy. 64 - Bagacay","level":"barangay-label","municipality_psgc_code":"050506000","municipality_name":"City of Legazpi"},"geometry":{"type":"Point","coordinates":[123.7539617325001,13.07440855650006]}},{"type":"Feature","properties":{"psgc_code":"050506003","name":"Bgy. 48 - Bagong Abre","level":"barangay-label","municipality_psgc_code":"050506000","municipality_name":"City of Legazpi"},"geometry":{"type":"Point","coordinates":[123.74126785800007,13.190223341000035]}},{"type":"Feature","properties":{"psgc_code":"050506004","name":"Bgy. 66 - Banquerohan","level":"barangay-label","municipality_psgc_code":"050506000","municipality_name":"City of Legazpi"},"geometry":{"type":"Point","coordinates":[123.74823933150009,13.049043955500053]}},{"type":"Feature","properties":{"psgc_code":"050506005","name":"Bgy. 1 - Em's Barrio (Pob.)","level":"barangay-label","municipality_psgc_code":"050506000","municipality_name":"City of Legazpi"},"geometry":{"type":"Point","coordinates":[123.72814349500004,13.146922533000065]}},{"type":"Feature","properties":{"psgc_code":"050506007","name":"Bgy. 11 - Maoyod Pob.","level":"barangay-label","municipality_psgc_code":"050506000","municipality_name":"City of Legazpi"},"geometry":{"type":"Point","coordinates":[123.73028315350007,13.134767531500044]}},{"type":"Feature","properties":{"psgc_code":"050506008","name":"Bgy. 12 - Tula-tula (Pob.)","level":"barangay-label","municipality_psgc_code":"050506000","municipality_name":"City of Legazpi"},"geometry":{"type":"Point","coordinates":[123.73435252000007,13.135382172500071]}},{"type":"Feature","properties":{"psgc_code":"050506009","name":"Bgy. 13 - Ilawod West Pob.","level":"barangay-label","municipality_psgc_code":"050506000","municipality_name":"City of Legazpi"},"geometry":{"type":"Point","coordinates":[123.73483333150011,13.137434111500056]}},{"type":"Feature","properties":{"psgc_code":"050506010","name":"Bgy. 14 - Ilawod Pob.","level":"barangay-label","municipality_psgc_code":"050506000","municipality_name":"City of Legazpi"},"geometry":{"type":"Point","coordinates":[123.73748835250007,13.136926113000044]}},{"type":"Feature","properties":{"psgc_code":"050506011","name":"Bgy. 15 - Ilawod East Pob.","level":"barangay-label","municipality_psgc_code":"050506000","municipality_name":"City of Legazpi"},"geometry":{"type":"Point","coordinates":[123.74127014450005,13.136422108000032]}},{"type":"Feature","properties":{"psgc_code":"050506012","name":"Bgy. 16 - Kawit-East Washington Drive (Pob.)","level":"barangay-label","municipality_psgc_code":"050506000","municipality_name":"City of Legazpi"},"geometry":{"type":"Point","coordinates":[123.73690463900004,13.144842950500049]}},{"type":"Feature","properties":{"psgc_code":"050506013","name":"Bgy. 17 - Rizal Street., Ilawod (Pob.)","level":"barangay-label","municipality_psgc_code":"050506000","municipality_name":"City of Legazpi"},"geometry":{"type":"Point","coordinates":[123.73875017950002,13.143219995000036]}},{"type":"Feature","properties":{"psgc_code":"050506015","name":"Bgy. 19 - Cabag\u00f1an","level":"barangay-label","municipality_psgc_code":"050506000","municipality_name":"City of Legazpi"},"geometry":{"type":"Point","coordinates":[123.74793150100002,13.140302472000059]}},{"type":"Feature","properties":{"psgc_code":"050506016","name":"Bgy. 2 - Em's Barrio South (Pob.)","level":"barangay-label","municipality_psgc_code":"050506000","municipality_name":"City of Legazpi"},"geometry":{"type":"Point","coordinates":[123.72420689400002,13.142015765500048]}},{"type":"Feature","properties":{"psgc_code":"050506017","name":"Bgy. 18 - Cabag\u00f1an West (Pob.)","level":"barangay-label","municipality_psgc_code":"050506000","municipality_name":"City of Legazpi"},"geometry":{"type":"Point","coordinates":[123.74459561550009,13.141632057500033]}},{"type":"Feature","properties":{"psgc_code":"050506018","name":"Bgy. 21 - Binanuahan West (Pob.)","level":"barangay-label","municipality_psgc_code":"050506000","municipality_name":"City of Legazpi"},"geometry":{"type":"Point","coordinates":[123.75055197600005,13.139895673500034]}},{"type":"Feature","properties":{"psgc_code":"050506019","name":"Bgy. 22 - Binanuahan East (Pob.)","level":"barangay-label","municipality_psgc_code":"050506000","municipality_name":"City of Legazpi"},"geometry":{"type":"Point","coordinates":[123.75307492400003,13.139240882000053]}},{"type":"Feature","properties":{"psgc_code":"050506020","name":"Bgy. 23 - Imperial Court Subd. (Pob.)","level":"barangay-label","municipality_psgc_code":"050506000","municipality_name":"City of Legazpi"},"geometry":{"type":"Point","coordinates":[123.75247487750003,13.141076699000052]}},{"type":"Feature","properties":{"psgc_code":"050506021","name":"Bgy. 20 - Cabag\u00f1an East (Pob.)","level":"barangay-label","municipality_psgc_code":"050506000","municipality_name":"City of Legazpi"},"geometry":{"type":"Point","coordinates":[123.74922630300006,13.14157515650004]}},{"type":"Feature","properties":{"psgc_code":"050506022","name":"Bgy. 25 - Lapu-lapu (Pob.)","level":"barangay-label","municipality_psgc_code":"050506000","municipality_name":"City of Legazpi"},"geometry":{"type":"Point","coordinates":[123.75372051000006,13.144921941500058]}},{"type":"Feature","properties":{"psgc_code":"050506023","name":"Bgy. 26 - Dinagaan (Pob.)","level":"barangay-label","municipality_psgc_code":"050506000","municipality_name":"City of Legazpi"},"geometry":{"type":"Point","coordinates":[123.75435076050007,13.14651858500005]}},{"type":"Feature","properties":{"psgc_code":"050506024","name":"Bgy. 27 - Victory Village South (Pob.)","level":"barangay-label","municipality_psgc_code":"050506000","municipality_name":"City of Legazpi"},"geometry":{"type":"Point","coordinates":[123.75719555400002,13.142734795500045]}},{"type":"Feature","properties":{"psgc_code":"050506025","name":"Bgy. 28 - Victory Village North (Pob.)","level":"barangay-label","municipality_psgc_code":"050506000","municipality_name":"City of Legazpi"},"geometry":{"type":"Point","coordinates":[123.75605229800004,13.144356718500061]}},{"type":"Feature","properties":{"psgc_code":"050506026","name":"Bgy. 29 - Sabang (Pob.)","level":"barangay-label","municipality_psgc_code":"050506000","municipality_name":"City of Legazpi"},"geometry":{"type":"Point","coordinates":[123.75579543800006,13.146696814500046]}},{"type":"Feature","properties":{"psgc_code":"050506027","name":"Bgy. 3 - Em's Barrio East (Pob.)","level":"barangay-label","municipality_psgc_code":"050506000","municipality_name":"City of Legazpi"},"geometry":{"type":"Point","coordinates":[123.72921315000008,13.144046493000046]}},{"type":"Feature","properties":{"psgc_code":"050506028","name":"Bgy. 36 - Kapantawan (Pob.)","level":"barangay-label","municipality_psgc_code":"050506000","municipality_name":"City of Legazpi"},"geometry":{"type":"Point","coordinates":[123.75035703200007,13.146055932500047]}},{"type":"Feature","properties":{"psgc_code":"050506029","name":"Bgy. 30 - Pigcale (Pob.)","level":"barangay-label","municipality_psgc_code":"050506000","municipality_name":"City of Legazpi"},"geometry":{"type":"Point","coordinates":[123.75564918600008,13.147578026000048]}},{"type":"Feature","properties":{"psgc_code":"050506030","name":"Bgy. 31 - Centro-Baybay (Pob.)","level":"barangay-label","municipality_psgc_code":"050506000","municipality_name":"City of Legazpi"},"geometry":{"type":"Point","coordinates":[123.75498177850005,13.14945396850004]}},{"type":"Feature","properties":{"psgc_code":"050506032","name":"Bgy. 33 - PNR-Pe\u00f1aranda St.-Iraya (Pob.)","level":"barangay-label","municipality_psgc_code":"050506000","municipality_name":"City of Legazpi"},"geometry":{"type":"Point","coordinates":[123.75165589250008,13.152611811500037]}},{"type":"Feature","properties":{"psgc_code":"050506033","name":"Bgy. 34 - Oro Site-Magallanes St. (Pob.)","level":"barangay-label","municipality_psgc_code":"050506000","municipality_name":"City of Legazpi"},"geometry":{"type":"Point","coordinates":[123.75145497750009,13.149380758500058]}},{"type":"Feature","properties":{"psgc_code":"050506034","name":"Bgy. 35 - Tinago (Pob.)","level":"barangay-label","municipality_psgc_code":"050506000","municipality_name":"City of Legazpi"},"geometry":{"type":"Point","coordinates":[123.75203991150005,13.145614077500028]}},{"type":"Feature","properties":{"psgc_code":"050506035","name":"Bgy. 37 - Bitano (Pob.)","level":"barangay-label","municipality_psgc_code":"050506000","municipality_name":"City of Legazpi"},"geometry":{"type":"Point","coordinates":[123.74690946000004,13.147300765500034]}},{"type":"Feature","properties":{"psgc_code":"050506037","name":"Bgy. 39 - Bonot (Pob.)","level":"barangay-label","municipality_psgc_code":"050506000","municipality_name":"City of Legazpi"},"geometry":{"type":"Point","coordinates":[123.75301453250006,13.15803750750004]}},{"type":"Feature","properties":{"psgc_code":"050506038","name":"Bgy. 4 - Sagpon Pob.","level":"barangay-label","municipality_psgc_code":"050506000","municipality_name":"City of Legazpi"},"geometry":{"type":"Point","coordinates":[123.72828421150007,13.142733558000032]}},{"type":"Feature","properties":{"psgc_code":"050506039","name":"Bgy. 5 - Sagmin Pob.","level":"barangay-label","municipality_psgc_code":"050506000","municipality_name":"City of Legazpi"},"geometry":{"type":"Point","coordinates":[123.73145831950006,13.140765883500048]}},{"type":"Feature","properties":{"psgc_code":"050506040","name":"Bgy. 6 - Ba\u00f1adero Pob.","level":"barangay-label","municipality_psgc_code":"050506000","municipality_name":"City of Legazpi"},"geometry":{"type":"Point","coordinates":[123.72685171450007,13.138406124500023]}},{"type":"Feature","properties":{"psgc_code":"050506041","name":"Bgy. 7 - Ba\u00f1o (Pob.)","level":"barangay-label","municipality_psgc_code":"050506000","municipality_name":"City of Legazpi"},"geometry":{"type":"Point","coordinates":[123.73377856150006,13.139963568500033]}},{"type":"Feature","properties":{"psgc_code":"050506042","name":"Bgy. 8 - Bagumbayan (Pob.)","level":"barangay-label","municipality_psgc_code":"050506000","municipality_name":"City of Legazpi"},"geometry":{"type":"Point","coordinates":[123.73257566650005,13.14589429250003]}},{"type":"Feature","properties":{"psgc_code":"050506043","name":"Bgy. 9 - Pinaric (Pob.)","level":"barangay-label","municipality_psgc_code":"050506000","municipality_name":"City of Legazpi"},"geometry":{"type":"Point","coordinates":[123.72840477750005,13.136740388000048]}},{"type":"Feature","properties":{"psgc_code":"050506044","name":"Bgy. 67 - Bariis","level":"barangay-label","municipality_psgc_code":"050506000","municipality_name":"City of Legazpi"},"geometry":{"type":"Point","coordinates":[123.74741385050004,13.01903771800005]}},{"type":"Feature","properties":{"psgc_code":"050506045","name":"Bgy. 49 - Bigaa","level":"barangay-label","municipality_psgc_code":"050506000","municipality_name":"City of Legazpi"},"geometry":{"type":"Point","coordinates":[123.75461512700008,13.195696421000036]}},{"type":"Feature","properties":{"psgc_code":"050506046","name":"Bgy. 41 - Bogtong","level":"barangay-label","municipality_psgc_code":"050506000","municipality_name":"City of Legazpi"},"geometry":{"type":"Point","coordinates":[123.7370632895001,13.159609025000035]}},{"type":"Feature","properties":{"psgc_code":"050506047","name":"Bgy. 53 - Bonga","level":"barangay-label","municipality_psgc_code":"050506000","municipality_name":"City of Legazpi"},"geometry":{"type":"Point","coordinates":[123.72476281500008,13.198718660500049]}},{"type":"Feature","properties":{"psgc_code":"050506048","name":"Bgy. 69 - Buenavista","level":"barangay-label","municipality_psgc_code":"050506000","municipality_name":"City of Legazpi"},"geometry":{"type":"Point","coordinates":[123.82776436850008,13.040408800500046]}},{"type":"Feature","properties":{"psgc_code":"050506049","name":"Bgy. 51 - Buyuan","level":"barangay-label","municipality_psgc_code":"050506000","municipality_name":"City of Legazpi"},"geometry":{"type":"Point","coordinates":[123.73835493100003,13.204789424500035]}},{"type":"Feature","properties":{"psgc_code":"050506050","name":"Bgy. 70 - Cagbacong","level":"barangay-label","municipality_psgc_code":"050506000","municipality_name":"City of Legazpi"},"geometry":{"type":"Point","coordinates":[123.79456157150008,13.007234023500047]}},{"type":"Feature","properties":{"psgc_code":"050506051","name":"Bgy. 40 - Cruzada","level":"barangay-label","municipality_psgc_code":"050506000","municipality_name":"City of Legazpi"},"geometry":{"type":"Point","coordinates":[123.73565506800009,13.154706757000042]}},{"type":"Feature","properties":{"psgc_code":"050506052","name":"Bgy. 57 - Dap-dap","level":"barangay-label","municipality_psgc_code":"050506000","municipality_name":"City of Legazpi"},"geometry":{"type":"Point","coordinates":[123.75765172100006,13.14104317150003]}},{"type":"Feature","properties":{"psgc_code":"050506053","name":"Bgy. 45 - Dita","level":"barangay-label","municipality_psgc_code":"050506000","municipality_name":"City of Legazpi"},"geometry":{"type":"Point","coordinates":[123.73920116850009,13.181973963500042]}},{"type":"Feature","properties":{"psgc_code":"050506054","name":"Bgy. 55 - Estanza","level":"barangay-label","municipality_psgc_code":"050506000","municipality_name":"City of Legazpi"},"geometry":{"type":"Point","coordinates":[123.72504264300005,13.122443962500055]}},{"type":"Feature","properties":{"psgc_code":"050506055","name":"Bgy. 38 - Gogon","level":"barangay-label","municipality_psgc_code":"050506000","municipality_name":"City of Legazpi"},"geometry":{"type":"Point","coordinates":[123.74527714100003,13.156999623500067]}},{"type":"Feature","properties":{"psgc_code":"050506056","name":"Bgy. 62 - Homapon","level":"barangay-label","municipality_psgc_code":"050506000","municipality_name":"City of Legazpi"},"geometry":{"type":"Point","coordinates":[123.74241119600005,13.08793815550004]}},{"type":"Feature","properties":{"psgc_code":"050506057","name":"Bgy. 65 - Imalnod","level":"barangay-label","municipality_psgc_code":"050506000","municipality_name":"City of Legazpi"},"geometry":{"type":"Point","coordinates":[123.72735183850011,13.074051043500049]}},{"type":"Feature","properties":{"psgc_code":"050506058","name":"Bgy. 54 - Mabinit","level":"barangay-label","municipality_psgc_code":"050506000","municipality_name":"City of Legazpi"},"geometry":{"type":"Point","coordinates":[123.71515428600009,13.197545593000058]}},{"type":"Feature","properties":{"psgc_code":"050506059","name":"Bgy. 63 - Mariawa","level":"barangay-label","municipality_psgc_code":"050506000","municipality_name":"City of Legazpi"},"geometry":{"type":"Point","coordinates":[123.72692808200009,13.10095362700005]}},{"type":"Feature","properties":{"psgc_code":"050506060","name":"Bgy. 61 - Maslog","level":"barangay-label","municipality_psgc_code":"050506000","municipality_name":"City of Legazpi"},"geometry":{"type":"Point","coordinates":[123.76897948000004,13.104563220500037]}},{"type":"Feature","properties":{"psgc_code":"050506061","name":"Bgy. 50 - Padang","level":"barangay-label","municipality_psgc_code":"050506000","municipality_name":"City of Legazpi"},"geometry":{"type":"Point","coordinates":[123.72392907350006,13.227266064500043]}},{"type":"Feature","properties":{"psgc_code":"050506062","name":"Bgy. 44 - Pawa","level":"barangay-label","municipality_psgc_code":"050506000","municipality_name":"City of Legazpi"},"geometry":{"type":"Point","coordinates":[123.73239930950007,13.17330453000005]}},{"type":"Feature","properties":{"psgc_code":"050506063","name":"Bgy. 59 - Puro","level":"barangay-label","municipality_psgc_code":"050506000","municipality_name":"City of Legazpi"},"geometry":{"type":"Point","coordinates":[123.76292492000005,13.127180340500047]}},{"type":"Feature","properties":{"psgc_code":"050506064","name":"Bgy. 42 - Rawis","level":"barangay-label","municipality_psgc_code":"050506000","municipality_name":"City of Legazpi"},"geometry":{"type":"Point","coordinates":[123.75076974350009,13.169500149500037]}},{"type":"Feature","properties":{"psgc_code":"050506065","name":"Bgy. 68 - San Francisco","level":"barangay-label","municipality_psgc_code":"050506000","municipality_name":"City of Legazpi"},"geometry":{"type":"Point","coordinates":[123.7819430460001,13.040629039500033]}},{"type":"Feature","properties":{"psgc_code":"050506066","name":"Bgy. 46 - San Joaquin","level":"barangay-label","municipality_psgc_code":"050506000","municipality_name":"City of Legazpi"},"geometry":{"type":"Point","coordinates":[123.74458866400005,13.179861690500047]}},{"type":"Feature","properties":{"psgc_code":"050506067","name":"Bgy. 32 - San Roque","level":"barangay-label","municipality_psgc_code":"050506000","municipality_name":"City of Legazpi"},"geometry":{"type":"Point","coordinates":[123.75494236200007,13.154778497500047]}},{"type":"Feature","properties":{"psgc_code":"050506069","name":"Bgy. 43 - Tamaoyan","level":"barangay-label","municipality_psgc_code":"050506000","municipality_name":"City of Legazpi"},"geometry":{"type":"Point","coordinates":[123.74110605150003,13.170099764500064]}},{"type":"Feature","properties":{"psgc_code":"050506070","name":"Bgy. 56 - Taysan","level":"barangay-label","municipality_psgc_code":"050506000","municipality_name":"City of Legazpi"},"geometry":{"type":"Point","coordinates":[123.74559469150006,13.120581327000027]}},{"type":"Feature","properties":{"psgc_code":"050506071","name":"Bgy. 52 - Matanag","level":"barangay-label","municipality_psgc_code":"050506000","municipality_name":"City of Legazpi"},"geometry":{"type":"Point","coordinates":[123.7293101030001,13.204755454000036]}},{"type":"Feature","properties":{"psgc_code":"050506072","name":"Bgy. 10 - Cabugao","level":"barangay-label","municipality_psgc_code":"050506000","municipality_name":"City of Legazpi"},"geometry":{"type":"Point","coordinates":[123.73322426900006,13.138078205000054]}},{"type":"Feature","properties":{"psgc_code":"050506073","name":"Bgy. 24 - Rizal Street","level":"barangay-label","municipality_psgc_code":"050506000","municipality_name":"City of Legazpi"},"geometry":{"type":"Point","coordinates":[123.75295542750007,13.14368455500005]}},{"type":"Feature","properties":{"psgc_code":"050506074","name":"Bgy. 58 - Buragwis","level":"barangay-label","municipality_psgc_code":"050506000","municipality_name":"City of Legazpi"},"geometry":{"type":"Point","coordinates":[123.75613958400004,13.134800166000046]}},{"type":"Feature","properties":{"psgc_code":"050506077","name":"Bgy. 60 - Lamba","level":"barangay-label","municipality_psgc_code":"050506000","municipality_name":"City of Legazpi"},"geometry":{"type":"Point","coordinates":[123.7760958620001,13.11855362500003]}}]}
