{"type":"FeatureCollection","features":[{"type":"Feature","properties":{"psgc_code":"050512001","name":"Badbad","level":"barangay-label","municipality_psgc_code":"050512000","municipality_name":"Oas"},"geometry":{"type":"Point","coordinates":[123.40539604000008,13.195992511500037]}},{"type":"Feature","properties":{"psgc_code":"050512002","name":"Badian","level":"barangay-label","municipality_psgc_code":"050512000","municipality_name":"Oas"},"geometry":{"type":"Point","coordinates":[123.31718222550006,13.035901972500055]}},{"type":"Feature","properties":{"psgc_code":"050512003","name":"Bagsa","level":"barangay-label","municipality_psgc_code":"050512000","municipality_name":"Oas"},"geometry":{"type":"Point","coordinates":[123.50568918150009,13.266782519000031]}},{"type":"Feature","properties":{"psgc_code":"050512004","name":"Bagumbayan","level":"barangay-label","municipality_psgc_code":"050512000","municipality_name":"Oas"},"geometry":{"type":"Point","coordinates":[123.51466976800003,13.255755989000049]}},{"type":"Feature","properties":{"psgc_code":"050512005","name":"Balogo","level":"barangay-label","municipality_psgc_code":"050512000","municipality_name":"Oas"},"geometry":{"type":"Point","coordinates":[123.56737625700009,13.315720777500047]}},{"type":"Feature","properties":{"psgc_code":"050512008","name":"Banao","level":"barangay-label","municipality_psgc_code":"050512000","municipality_name":"Oas"},"geometry":{"type":"Point","coordinates":[123.44479551600006,13.229585072500043]}},{"type":"Feature","properties":{"psgc_code":"050512009","name":"Bangiawon","level":"barangay-label","municipality_psgc_code":"050512000","municipality_name":"Oas"},"geometry":{"type":"Point","coordinates":[123.39191038650006,13.181073858000046]}},{"type":"Feature","properties":{"psgc_code":"050512010","name":"Bongoran","level":"barangay-label","municipality_psgc_code":"050512000","municipality_name":"Oas"},"geometry":{"type":"Point","coordinates":[123.50541912950007,13.25015386700005]}},{"type":"Feature","properties":{"psgc_code":"050512011","name":"Bogtong","level":"barangay-label","municipality_psgc_code":"050512000","municipality_name":"Oas"},"geometry":{"type":"Point","coordinates":[123.35050624950003,13.063923870000052]}},{"type":"Feature","properties":{"psgc_code":"050512012","name":"Busac","level":"barangay-label","municipality_psgc_code":"050512000","municipality_name":"Oas"},"geometry":{"type":"Point","coordinates":[123.4730053455001,13.270029312000048]}},{"type":"Feature","properties":{"psgc_code":"050512013","name":"Cadawag","level":"barangay-label","municipality_psgc_code":"050512000","municipality_name":"Oas"},"geometry":{"type":"Point","coordinates":[123.34529353400005,13.14622245050006]}},{"type":"Feature","properties":{"psgc_code":"050512014","name":"Cagmanaba","level":"barangay-label","municipality_psgc_code":"050512000","municipality_name":"Oas"},"geometry":{"type":"Point","coordinates":[123.30688137500005,13.058209259000021]}},{"type":"Feature","properties":{"psgc_code":"050512015","name":"Calaguimit","level":"barangay-label","municipality_psgc_code":"050512000","municipality_name":"Oas"},"geometry":{"type":"Point","coordinates":[123.40364978300005,13.12986872150006]}},{"type":"Feature","properties":{"psgc_code":"050512016","name":"Calpi","level":"barangay-label","municipality_psgc_code":"050512000","municipality_name":"Oas"},"geometry":{"type":"Point","coordinates":[123.45649855850002,13.237643940500046]}},{"type":"Feature","properties":{"psgc_code":"050512017","name":"Calzada","level":"barangay-label","municipality_psgc_code":"050512000","municipality_name":"Oas"},"geometry":{"type":"Point","coordinates":[123.51272736800007,13.250207777500034]}},{"type":"Feature","properties":{"psgc_code":"050512018","name":"Camagong","level":"barangay-label","municipality_psgc_code":"050512000","municipality_name":"Oas"},"geometry":{"type":"Point","coordinates":[123.46481308850008,13.224357537500053]}},{"type":"Feature","properties":{"psgc_code":"050512019","name":"Casinagan","level":"barangay-label","municipality_psgc_code":"050512000","municipality_name":"Oas"},"geometry":{"type":"Point","coordinates":[123.42983505950002,13.153244242500051]}},{"type":"Feature","properties":{"psgc_code":"050512020","name":"Centro Poblacion","level":"barangay-label","municipality_psgc_code":"050512000","municipality_name":"Oas"},"geometry":{"type":"Point","coordinates":[123.50061158300002,13.255990118500051]}},{"type":"Feature","properties":{"psgc_code":"050512021","name":"Coliat","level":"barangay-label","municipality_psgc_code":"050512000","municipality_name":"Oas"},"geometry":{"type":"Point","coordinates":[123.45170273800007,13.210614408000055]}},{"type":"Feature","properties":{"psgc_code":"050512022","name":"Del Rosario","level":"barangay-label","municipality_psgc_code":"050512000","municipality_name":"Oas"},"geometry":{"type":"Point","coordinates":[123.43489907750006,13.223111941000038]}},{"type":"Feature","properties":{"psgc_code":"050512023","name":"Gumabao","level":"barangay-label","municipality_psgc_code":"050512000","municipality_name":"Oas"},"geometry":{"type":"Point","coordinates":[123.46731750400005,13.245514716500052]}},{"type":"Feature","properties":{"psgc_code":"050512024","name":"Ilaor Norte","level":"barangay-label","municipality_psgc_code":"050512000","municipality_name":"Oas"},"geometry":{"type":"Point","coordinates":[123.49296808550008,13.267199322000067]}},{"type":"Feature","properties":{"psgc_code":"050512025","name":"Ilaor Sur","level":"barangay-label","municipality_psgc_code":"050512000","municipality_name":"Oas"},"geometry":{"type":"Point","coordinates":[123.4960867800001,13.265911111500056]}},{"type":"Feature","properties":{"psgc_code":"050512026","name":"Iraya Norte","level":"barangay-label","municipality_psgc_code":"050512000","municipality_name":"Oas"},"geometry":{"type":"Point","coordinates":[123.50394055350006,13.258260421000042]}},{"type":"Feature","properties":{"psgc_code":"050512027","name":"Iraya Sur","level":"barangay-label","municipality_psgc_code":"050512000","municipality_name":"Oas"},"geometry":{"type":"Point","coordinates":[123.50294495050008,13.255478470500066]}},{"type":"Feature","properties":{"psgc_code":"050512028","name":"Manga","level":"barangay-label","municipality_psgc_code":"050512000","municipality_name":"Oas"},"geometry":{"type":"Point","coordinates":[123.4592358925,13.267205838000052]}},{"type":"Feature","properties":{"psgc_code":"050512029","name":"Maporong","level":"barangay-label","municipality_psgc_code":"050512000","municipality_name":"Oas"},"geometry":{"type":"Point","coordinates":[123.52364011100008,13.257636863000045]}},{"type":"Feature","properties":{"psgc_code":"050512030","name":"Maramba","level":"barangay-label","municipality_psgc_code":"050512000","municipality_name":"Oas"},"geometry":{"type":"Point","coordinates":[123.30790132250009,13.128199676000065]}},{"type":"Feature","properties":{"psgc_code":"050512031","name":"Moroponros","level":"barangay-label","municipality_psgc_code":"050512000","municipality_name":"Oas"},"geometry":{"type":"Point","coordinates":[123.3744523415001,13.165329557000062]}},{"type":"Feature","properties":{"psgc_code":"050512032","name":"Matambo","level":"barangay-label","municipality_psgc_code":"050512000","municipality_name":"Oas"},"geometry":{"type":"Point","coordinates":[123.52364011100008,13.266808578500045]}},{"type":"Feature","properties":{"psgc_code":"050512033","name":"Mayag","level":"barangay-label","municipality_psgc_code":"050512000","municipality_name":"Oas"},"geometry":{"type":"Point","coordinates":[123.39943071450006,13.162460981000038]}},{"type":"Feature","properties":{"psgc_code":"050512034","name":"Mayao","level":"barangay-label","municipality_psgc_code":"050512000","municipality_name":"Oas"},"geometry":{"type":"Point","coordinates":[123.48617788200005,13.26530690900006]}},{"type":"Feature","properties":{"psgc_code":"050512035","name":"Nagas","level":"barangay-label","municipality_psgc_code":"050512000","municipality_name":"Oas"},"geometry":{"type":"Point","coordinates":[123.3089269185001,13.103720336000066]}},{"type":"Feature","properties":{"psgc_code":"050512036","name":"San Pascual","level":"barangay-label","municipality_psgc_code":"050512000","municipality_name":"Oas"},"geometry":{"type":"Point","coordinates":[123.43691059300005,13.180876934500048]}},{"type":"Feature","properties":{"psgc_code":"050512037","name":"Obaliw-Rinas","level":"barangay-label","municipality_psgc_code":"050512000","municipality_name":"Oas"},"geometry":{"type":"Point","coordinates":[123.49536876400009,13.252888880000027]}},{"type":"Feature","properties":{"psgc_code":"050512038","name":"Pistola","level":"barangay-label","municipality_psgc_code":"050512000","municipality_name":"Oas"},"geometry":{"type":"Point","coordinates":[123.48181443550004,13.230952234500052]}},{"type":"Feature","properties":{"psgc_code":"050512039","name":"Ramay","level":"barangay-label","municipality_psgc_code":"050512000","municipality_name":"Oas"},"geometry":{"type":"Point","coordinates":[123.40893028150009,13.182968594000041]}},{"type":"Feature","properties":{"psgc_code":"050512040","name":"Rizal","level":"barangay-label","municipality_psgc_code":"050512000","municipality_name":"Oas"},"geometry":{"type":"Point","coordinates":[123.50632181350007,13.253676462000042]}},{"type":"Feature","properties":{"psgc_code":"050512041","name":"Saban","level":"barangay-label","municipality_psgc_code":"050512000","municipality_name":"Oas"},"geometry":{"type":"Point","coordinates":[123.47088742250008,13.256356036000055]}},{"type":"Feature","properties":{"psgc_code":"050512042","name":"San Agustin","level":"barangay-label","municipality_psgc_code":"050512000","municipality_name":"Oas"},"geometry":{"type":"Point","coordinates":[123.50682157000004,13.272764158500053]}},{"type":"Feature","properties":{"psgc_code":"050512043","name":"San Antonio","level":"barangay-label","municipality_psgc_code":"050512000","municipality_name":"Oas"},"geometry":{"type":"Point","coordinates":[123.35773312350005,13.109497297000047]}},{"type":"Feature","properties":{"psgc_code":"050512044","name":"San Isidro","level":"barangay-label","municipality_psgc_code":"050512000","municipality_name":"Oas"},"geometry":{"type":"Point","coordinates":[123.48359624100004,13.245535465500039]}},{"type":"Feature","properties":{"psgc_code":"050512045","name":"San Jose","level":"barangay-label","municipality_psgc_code":"050512000","municipality_name":"Oas"},"geometry":{"type":"Point","coordinates":[123.44806200900007,13.197758633000037]}},{"type":"Feature","properties":{"psgc_code":"050512046","name":"San Juan","level":"barangay-label","municipality_psgc_code":"050512000","municipality_name":"Oas"},"geometry":{"type":"Point","coordinates":[123.49187909700004,13.236324138500038]}},{"type":"Feature","properties":{"psgc_code":"050512047","name":"San Miguel","level":"barangay-label","municipality_psgc_code":"050512000","municipality_name":"Oas"},"geometry":{"type":"Point","coordinates":[123.41604175800006,13.166513576500051]}},{"type":"Feature","properties":{"psgc_code":"050512049","name":"San Ramon","level":"barangay-label","municipality_psgc_code":"050512000","municipality_name":"Oas"},"geometry":{"type":"Point","coordinates":[123.53989625500009,13.270827455500037]}},{"type":"Feature","properties":{"psgc_code":"050512050","name":"San Vicente","level":"barangay-label","municipality_psgc_code":"050512000","municipality_name":"Oas"},"geometry":{"type":"Point","coordinates":[123.50109769250008,13.234504285000043]}},{"type":"Feature","properties":{"psgc_code":"050512051","name":"Talisay","level":"barangay-label","municipality_psgc_code":"050512000","municipality_name":"Oas"},"geometry":{"type":"Point","coordinates":[123.41172809450008,13.155246017500048]}},{"type":"Feature","properties":{"psgc_code":"050512052","name":"Talongog","level":"barangay-label","municipality_psgc_code":"050512000","municipality_name":"Oas"},"geometry":{"type":"Point","coordinates":[123.49023435350007,13.254400288500053]}},{"type":"Feature","properties":{"psgc_code":"050512053","name":"Tapel","level":"barangay-label","municipality_psgc_code":"050512000","municipality_name":"Oas"},"geometry":{"type":"Point","coordinates":[123.31152301250006,13.083417535500047]}},{"type":"Feature","properties":{"psgc_code":"050512054","name":"Tobgon","level":"barangay-label","municipality_psgc_code":"050512000","municipality_name":"Oas"},"geometry":{"type":"Point","coordinates":[123.4243126935001,13.201156105000052]}},{"type":"Feature","properties":{"psgc_code":"050512055","name":"Tobog","level":"barangay-label","municipality_psgc_code":"050512000","municipality_name":"Oas"},"geometry":{"type":"Point","coordinates":[123.52367966650002,13.272680882500055]}},{"type":"Feature","properties":{"psgc_code":"050512056","name":"Tablon","level":"barangay-label","municipality_psgc_code":"050512000","municipality_name":"Oas"},"geometry":{"type":"Point","coordinates":[123.39092485950009,13.141998595000047]}}]}
