{"type":"FeatureCollection","features":[{"type":"Feature","properties":{"psgc_code":"050505003","name":"Bagacay","level":"barangay-label","municipality_psgc_code":"050505000","municipality_name":"Jovellar"},"geometry":{"type":"Point","coordinates":[123.59171530550003,13.063408069500042]}},{"type":"Feature","properties":{"psgc_code":"050505004","name":"Rizal Pob.","level":"barangay-label","municipality_psgc_code":"050505000","municipality_name":"Jovellar"},"geometry":{"type":"Point","coordinates":[123.59552698400006,13.074760419500052]}},{"type":"Feature","properties":{"psgc_code":"050505005","name":"Mabini Pob.","level":"barangay-label","municipality_psgc_code":"050505000","municipality_name":"Jovellar"},"geometry":{"type":"Point","coordinates":[123.59876440300002,13.068521276500062]}},{"type":"Feature","properties":{"psgc_code":"050505006","name":"Plaza Pob.","level":"barangay-label","municipality_psgc_code":"050505000","municipality_name":"Jovellar"},"geometry":{"type":"Point","coordinates":[123.60073337900002,13.071021661000056]}},{"type":"Feature","properties":{"psgc_code":"050505007","name":"Magsaysay Pob","level":"barangay-label","municipality_psgc_code":"050505000","municipality_name":"Jovellar"},"geometry":{"type":"Point","coordinates":[123.60110529750006,13.069333144000039]}},{"type":"Feature","properties":{"psgc_code":"050505008","name":"Calzada Pob.","level":"barangay-label","municipality_psgc_code":"050505000","municipality_name":"Jovellar"},"geometry":{"type":"Point","coordinates":[123.59961624800007,13.074256235000036]}},{"type":"Feature","properties":{"psgc_code":"050505009","name":"Quitinday Pob.","level":"barangay-label","municipality_psgc_code":"050505000","municipality_name":"Jovellar"},"geometry":{"type":"Point","coordinates":[123.60290880300005,13.078971877500036]}},{"type":"Feature","properties":{"psgc_code":"050505010","name":"White Deer Pob.","level":"barangay-label","municipality_psgc_code":"050505000","municipality_name":"Jovellar"},"geometry":{"type":"Point","coordinates":[123.61206700200006,13.06983114700003]}},{"type":"Feature","properties":{"psgc_code":"050505011","name":"Bautista","level":"barangay-label","municipality_psgc_code":"050505000","municipality_name":"Jovellar"},"geometry":{"type":"Point","coordinates":[123.57414761800004,13.037673345000028]}},{"type":"Feature","properties":{"psgc_code":"050505012","name":"Cabraran","level":"barangay-label","municipality_psgc_code":"050505000","municipality_name":"Jovellar"},"geometry":{"type":"Point","coordinates":[123.59038897200008,13.081335283500067]}},{"type":"Feature","properties":{"psgc_code":"050505013","name":"Del Rosario","level":"barangay-label","municipality_psgc_code":"050505000","municipality_name":"Jovellar"},"geometry":{"type":"Point","coordinates":[123.62355267850003,13.033095336000056]}},{"type":"Feature","properties":{"psgc_code":"050505014","name":"Estrella","level":"barangay-label","municipality_psgc_code":"050505000","municipality_name":"Jovellar"},"geometry":{"type":"Point","coordinates":[123.52975207950004,13.038335325500043]}},{"type":"Feature","properties":{"psgc_code":"050505015","name":"Florista","level":"barangay-label","municipality_psgc_code":"050505000","municipality_name":"Jovellar"},"geometry":{"type":"Point","coordinates":[123.64047839500006,13.051152612000038]}},{"type":"Feature","properties":{"psgc_code":"050505016","name":"Mamlad","level":"barangay-label","municipality_psgc_code":"050505000","municipality_name":"Jovellar"},"geometry":{"type":"Point","coordinates":[123.51087114050006,13.02010943050007]}},{"type":"Feature","properties":{"psgc_code":"050505017","name":"Maogog","level":"barangay-label","municipality_psgc_code":"050505000","municipality_name":"Jovellar"},"geometry":{"type":"Point","coordinates":[123.56548899100005,13.07548092850007]}},{"type":"Feature","properties":{"psgc_code":"050505018","name":"Mercado Pob.","level":"barangay-label","municipality_psgc_code":"050505000","municipality_name":"Jovellar"},"geometry":{"type":"Point","coordinates":[123.60141368450007,13.068075196000052]}},{"type":"Feature","properties":{"psgc_code":"050505019","name":"Salvacion","level":"barangay-label","municipality_psgc_code":"050505000","municipality_name":"Jovellar"},"geometry":{"type":"Point","coordinates":[123.62900183450006,13.066990645500054]}},{"type":"Feature","properties":{"psgc_code":"050505020","name":"San Isidro","level":"barangay-label","municipality_psgc_code":"050505000","municipality_name":"Jovellar"},"geometry":{"type":"Point","coordinates":[123.61933601400006,13.049032126000071]}},{"type":"Feature","properties":{"psgc_code":"050505021","name":"San Roque","level":"barangay-label","municipality_psgc_code":"050505000","municipality_name":"Jovellar"},"geometry":{"type":"Point","coordinates":[123.59772111550006,13.043016578000046]}},{"type":"Feature","properties":{"psgc_code":"050505022","name":"San Vicente","level":"barangay-label","municipality_psgc_code":"050505000","municipality_name":"Jovellar"},"geometry":{"type":"Point","coordinates":[123.56514636600008,13.046760460500053]}},{"type":"Feature","properties":{"psgc_code":"050505023","name":"Sinagaran","level":"barangay-label","municipality_psgc_code":"050505000","municipality_name":"Jovellar"},"geometry":{"type":"Point","coordinates":[123.5408729255001,13.026657817000029]}},{"type":"Feature","properties":{"psgc_code":"050505024","name":"Villa Paz","level":"barangay-label","municipality_psgc_code":"050505000","municipality_name":"Jovellar"},"geometry":{"type":"Point","coordinates":[123.54941800650005,13.050419926500041]}},{"type":"Feature","properties":{"psgc_code":"050505025","name":"Aurora Pob.","level":"barangay-label","municipality_psgc_code":"050505000","municipality_name":"Jovellar"},"geometry":{"type":"Point","coordinates":[123.60108485750004,13.06533992800007]}}]}
