{"type":"FeatureCollection","features":[{"type":"Feature","properties":{"psgc_code":"050507001","name":"Alongong","level":"barangay-label","municipality_psgc_code":"050507000","municipality_name":"Libon"},"geometry":{"type":"Point","coordinates":[123.33070148000007,13.28778067850004]}},{"type":"Feature","properties":{"psgc_code":"050507002","name":"Apud","level":"barangay-label","municipality_psgc_code":"050507000","municipality_name":"Libon"},"geometry":{"type":"Point","coordinates":[123.29801945850005,13.140207117000072]}},{"type":"Feature","properties":{"psgc_code":"050507003","name":"Bacolod","level":"barangay-label","municipality_psgc_code":"050507000","municipality_name":"Libon"},"geometry":{"type":"Point","coordinates":[123.43391033550006,13.272741440500024]}},{"type":"Feature","properties":{"psgc_code":"050507004","name":"Zone I (Pob.)","level":"barangay-label","municipality_psgc_code":"050507000","municipality_name":"Libon"},"geometry":{"type":"Point","coordinates":[123.43942482850008,13.291379712000037]}},{"type":"Feature","properties":{"psgc_code":"050507005","name":"Zone II (Pob.)","level":"barangay-label","municipality_psgc_code":"050507000","municipality_name":"Libon"},"geometry":{"type":"Point","coordinates":[123.43983014300011,13.297776330500056]}},{"type":"Feature","properties":{"psgc_code":"050507006","name":"Zone III (Pob.)","level":"barangay-label","municipality_psgc_code":"050507000","municipality_name":"Libon"},"geometry":{"type":"Point","coordinates":[123.43979705300006,13.299270568500047]}},{"type":"Feature","properties":{"psgc_code":"050507007","name":"Zone IV (Pob.)","level":"barangay-label","municipality_psgc_code":"050507000","municipality_name":"Libon"},"geometry":{"type":"Point","coordinates":[123.41771456200001,13.29747940650003]}},{"type":"Feature","properties":{"psgc_code":"050507008","name":"Zone V (Pob.)","level":"barangay-label","municipality_psgc_code":"050507000","municipality_name":"Libon"},"geometry":{"type":"Point","coordinates":[123.44391414900008,13.301189885000044]}},{"type":"Feature","properties":{"psgc_code":"050507009","name":"Zone VI (Pob.)","level":"barangay-label","municipality_psgc_code":"050507000","municipality_name":"Libon"},"geometry":{"type":"Point","coordinates":[123.43677596050003,13.301991122000029]}},{"type":"Feature","properties":{"psgc_code":"050507010","name":"Zone VII (Pob.)","level":"barangay-label","municipality_psgc_code":"050507000","municipality_name":"Libon"},"geometry":{"type":"Point","coordinates":[123.42199738200007,13.307099109500058]}},{"type":"Feature","properties":{"psgc_code":"050507011","name":"Bariw","level":"barangay-label","municipality_psgc_code":"050507000","municipality_name":"Libon"},"geometry":{"type":"Point","coordinates":[123.36279643050005,13.277336885500032]}},{"type":"Feature","properties":{"psgc_code":"050507012","name":"Bonbon","level":"barangay-label","municipality_psgc_code":"050507000","municipality_name":"Libon"},"geometry":{"type":"Point","coordinates":[123.39127576650004,13.291335886000041]}},{"type":"Feature","properties":{"psgc_code":"050507013","name":"Buga","level":"barangay-label","municipality_psgc_code":"050507000","municipality_name":"Libon"},"geometry":{"type":"Point","coordinates":[123.3543226970001,13.289435266500048]}},{"type":"Feature","properties":{"psgc_code":"050507014","name":"Bulusan","level":"barangay-label","municipality_psgc_code":"050507000","municipality_name":"Libon"},"geometry":{"type":"Point","coordinates":[123.41179368100006,13.287020489500039]}},{"type":"Feature","properties":{"psgc_code":"050507015","name":"Burabod","level":"barangay-label","municipality_psgc_code":"050507000","municipality_name":"Libon"},"geometry":{"type":"Point","coordinates":[123.41148210200004,13.268044282000062]}},{"type":"Feature","properties":{"psgc_code":"050507016","name":"Caguscos","level":"barangay-label","municipality_psgc_code":"050507000","municipality_name":"Libon"},"geometry":{"type":"Point","coordinates":[123.33236858850006,13.232521752500045]}},{"type":"Feature","properties":{"psgc_code":"050507017","name":"East Carisac","level":"barangay-label","municipality_psgc_code":"050507000","municipality_name":"Libon"},"geometry":{"type":"Point","coordinates":[123.45549843150008,13.297320543500035]}},{"type":"Feature","properties":{"psgc_code":"050507018","name":"West Carisac","level":"barangay-label","municipality_psgc_code":"050507000","municipality_name":"Libon"},"geometry":{"type":"Point","coordinates":[123.44611216800007,13.307738845500069]}},{"type":"Feature","properties":{"psgc_code":"050507019","name":"Harigue","level":"barangay-label","municipality_psgc_code":"050507000","municipality_name":"Libon"},"geometry":{"type":"Point","coordinates":[123.34607211800005,13.255270933000048]}},{"type":"Feature","properties":{"psgc_code":"050507020","name":"Libtong","level":"barangay-label","municipality_psgc_code":"050507000","municipality_name":"Libon"},"geometry":{"type":"Point","coordinates":[123.36901063850007,13.26174436100007]}},{"type":"Feature","properties":{"psgc_code":"050507021","name":"Linao","level":"barangay-label","municipality_psgc_code":"050507000","municipality_name":"Libon"},"geometry":{"type":"Point","coordinates":[123.44824672850007,13.254073763500031]}},{"type":"Feature","properties":{"psgc_code":"050507022","name":"Mabayawas","level":"barangay-label","municipality_psgc_code":"050507000","municipality_name":"Libon"},"geometry":{"type":"Point","coordinates":[123.42244484150001,13.226928410000056]}},{"type":"Feature","properties":{"psgc_code":"050507023","name":"Macabugos","level":"barangay-label","municipality_psgc_code":"050507000","municipality_name":"Libon"},"geometry":{"type":"Point","coordinates":[123.3102226640001,13.253539885000036]}},{"type":"Feature","properties":{"psgc_code":"050507024","name":"Magallang","level":"barangay-label","municipality_psgc_code":"050507000","municipality_name":"Libon"},"geometry":{"type":"Point","coordinates":[123.39933360850013,13.25905595200004]}},{"type":"Feature","properties":{"psgc_code":"050507025","name":"Malabiga","level":"barangay-label","municipality_psgc_code":"050507000","municipality_name":"Libon"},"geometry":{"type":"Point","coordinates":[123.36610422150005,13.214258340500036]}},{"type":"Feature","properties":{"psgc_code":"050507026","name":"Marayag","level":"barangay-label","municipality_psgc_code":"050507000","municipality_name":"Libon"},"geometry":{"type":"Point","coordinates":[123.45676353750008,13.280224009000051]}},{"type":"Feature","properties":{"psgc_code":"050507027","name":"Matara","level":"barangay-label","municipality_psgc_code":"050507000","municipality_name":"Libon"},"geometry":{"type":"Point","coordinates":[123.38928006550003,13.201130856500042]}},{"type":"Feature","properties":{"psgc_code":"050507028","name":"Molosbolos","level":"barangay-label","municipality_psgc_code":"050507000","municipality_name":"Libon"},"geometry":{"type":"Point","coordinates":[123.33491746300007,13.26799909500005]}},{"type":"Feature","properties":{"psgc_code":"050507029","name":"Natasan","level":"barangay-label","municipality_psgc_code":"050507000","municipality_name":"Libon"},"geometry":{"type":"Point","coordinates":[123.39187309950006,13.227631983500032]}},{"type":"Feature","properties":{"psgc_code":"050507030","name":"Nogpo","level":"barangay-label","municipality_psgc_code":"050507000","municipality_name":"Libon"},"geometry":{"type":"Point","coordinates":[123.37672592550007,13.296739710500077]}},{"type":"Feature","properties":{"psgc_code":"050507031","name":"Pantao","level":"barangay-label","municipality_psgc_code":"050507000","municipality_name":"Libon"},"geometry":{"type":"Point","coordinates":[123.33618234700009,13.19723863650006]}},{"type":"Feature","properties":{"psgc_code":"050507033","name":"Rawis","level":"barangay-label","municipality_psgc_code":"050507000","municipality_name":"Libon"},"geometry":{"type":"Point","coordinates":[123.30836202350002,13.14901099450006]}},{"type":"Feature","properties":{"psgc_code":"050507034","name":"Sagrada Familia","level":"barangay-label","municipality_psgc_code":"050507000","municipality_name":"Libon"},"geometry":{"type":"Point","coordinates":[123.38309251400005,13.269723378500059]}},{"type":"Feature","properties":{"psgc_code":"050507035","name":"Salvacion","level":"barangay-label","municipality_psgc_code":"050507000","municipality_name":"Libon"},"geometry":{"type":"Point","coordinates":[123.40715417050006,13.214290521000066]}},{"type":"Feature","properties":{"psgc_code":"050507036","name":"Sampongan","level":"barangay-label","municipality_psgc_code":"050507000","municipality_name":"Libon"},"geometry":{"type":"Point","coordinates":[123.36975886800008,13.192751440500047]}},{"type":"Feature","properties":{"psgc_code":"050507037","name":"San Agustin","level":"barangay-label","municipality_psgc_code":"050507000","municipality_name":"Libon"},"geometry":{"type":"Point","coordinates":[123.4258582055001,13.317867145000065]}},{"type":"Feature","properties":{"psgc_code":"050507038","name":"San Antonio","level":"barangay-label","municipality_psgc_code":"050507000","municipality_name":"Libon"},"geometry":{"type":"Point","coordinates":[123.40260920750006,13.246327444000059]}},{"type":"Feature","properties":{"psgc_code":"050507039","name":"San Isidro","level":"barangay-label","municipality_psgc_code":"050507000","municipality_name":"Libon"},"geometry":{"type":"Point","coordinates":[123.43815348300006,13.278659975500062]}},{"type":"Feature","properties":{"psgc_code":"050507040","name":"San Jose","level":"barangay-label","municipality_psgc_code":"050507000","municipality_name":"Libon"},"geometry":{"type":"Point","coordinates":[123.3572590920001,13.235821471500032]}},{"type":"Feature","properties":{"psgc_code":"050507041","name":"San Pascual","level":"barangay-label","municipality_psgc_code":"050507000","municipality_name":"Libon"},"geometry":{"type":"Point","coordinates":[123.40044202450008,13.221428736000036]}},{"type":"Feature","properties":{"psgc_code":"050507042","name":"San Ramon","level":"barangay-label","municipality_psgc_code":"050507000","municipality_name":"Libon"},"geometry":{"type":"Point","coordinates":[123.43050784700006,13.237972875000054]}},{"type":"Feature","properties":{"psgc_code":"050507043","name":"San Vicente","level":"barangay-label","municipality_psgc_code":"050507000","municipality_name":"Libon"},"geometry":{"type":"Point","coordinates":[123.43322062750008,13.260017352500057]}},{"type":"Feature","properties":{"psgc_code":"050507044","name":"Santa Cruz","level":"barangay-label","municipality_psgc_code":"050507000","municipality_name":"Libon"},"geometry":{"type":"Point","coordinates":[123.39753917400009,13.324202581500032]}},{"type":"Feature","properties":{"psgc_code":"050507045","name":"Ni\u00f1o Jesus","level":"barangay-label","municipality_psgc_code":"050507000","municipality_name":"Libon"},"geometry":{"type":"Point","coordinates":[123.42168943450008,13.251656045000033]}},{"type":"Feature","properties":{"psgc_code":"050507046","name":"Talin-talin","level":"barangay-label","municipality_psgc_code":"050507000","municipality_name":"Libon"},"geometry":{"type":"Point","coordinates":[123.32508964100009,13.166004699000041]}},{"type":"Feature","properties":{"psgc_code":"050507047","name":"Tambo","level":"barangay-label","municipality_psgc_code":"050507000","municipality_name":"Libon"},"geometry":{"type":"Point","coordinates":[123.29267588650009,13.257622175000048]}},{"type":"Feature","properties":{"psgc_code":"050507049","name":"Villa Petrona","level":"barangay-label","municipality_psgc_code":"050507000","municipality_name":"Libon"},"geometry":{"type":"Point","coordinates":[123.38246674050004,13.254255197000049]}}]}
