{"type":"FeatureCollection","features":[{"type":"Feature","properties":{"psgc_code":"050516001","name":"Alimsog","level":"barangay-label","municipality_psgc_code":"050516000","municipality_name":"Santo Domingo"},"geometry":{"type":"Point","coordinates":[123.85211912350007,13.232287433000039]}},{"type":"Feature","properties":{"psgc_code":"050516002","name":"Buhatan","level":"barangay-label","municipality_psgc_code":"050516000","municipality_name":"Santo Domingo"},"geometry":{"type":"Point","coordinates":[123.83410024950007,13.231726967000071]}},{"type":"Feature","properties":{"psgc_code":"050516003","name":"Calayucay","level":"barangay-label","municipality_psgc_code":"050516000","municipality_name":"Santo Domingo"},"geometry":{"type":"Point","coordinates":[123.79010710400001,13.243810891000036]}},{"type":"Feature","properties":{"psgc_code":"050516004","name":"Fidel Surtida","level":"barangay-label","municipality_psgc_code":"050516000","municipality_name":"Santo Domingo"},"geometry":{"type":"Point","coordinates":[123.72605601350004,13.245015576500037]}},{"type":"Feature","properties":{"psgc_code":"050516005","name":"Lidong","level":"barangay-label","municipality_psgc_code":"050516000","municipality_name":"Santo Domingo"},"geometry":{"type":"Point","coordinates":[123.72766081550009,13.230950090500045]}},{"type":"Feature","properties":{"psgc_code":"050516006","name":"Bagong San Roque","level":"barangay-label","municipality_psgc_code":"050516000","municipality_name":"Santo Domingo"},"geometry":{"type":"Point","coordinates":[123.77004987900006,13.251724558500056]}},{"type":"Feature","properties":{"psgc_code":"050516008","name":"San Juan Pob.","level":"barangay-label","municipality_psgc_code":"050516000","municipality_name":"Santo Domingo"},"geometry":{"type":"Point","coordinates":[123.77687334750004,13.234115884500028]}},{"type":"Feature","properties":{"psgc_code":"050516009","name":"Santo Domingo Pob.","level":"barangay-label","municipality_psgc_code":"050516000","municipality_name":"Santo Domingo"},"geometry":{"type":"Point","coordinates":[123.77831023300007,13.234541922500053]}},{"type":"Feature","properties":{"psgc_code":"050516010","name":"San Pedro Pob.","level":"barangay-label","municipality_psgc_code":"050516000","municipality_name":"Santo Domingo"},"geometry":{"type":"Point","coordinates":[123.77827997300005,13.23559843250004]}},{"type":"Feature","properties":{"psgc_code":"050516011","name":"San Vicente Pob.","level":"barangay-label","municipality_psgc_code":"050516000","municipality_name":"Santo Domingo"},"geometry":{"type":"Point","coordinates":[123.77933587750005,13.235470100500038]}},{"type":"Feature","properties":{"psgc_code":"050516012","name":"San Rafael Pob.","level":"barangay-label","municipality_psgc_code":"050516000","municipality_name":"Santo Domingo"},"geometry":{"type":"Point","coordinates":[123.78027003850008,13.236000452000042]}},{"type":"Feature","properties":{"psgc_code":"050516013","name":"Del Rosario Pob.","level":"barangay-label","municipality_psgc_code":"050516000","municipality_name":"Santo Domingo"},"geometry":{"type":"Point","coordinates":[123.77780539650001,13.234275508000053]}},{"type":"Feature","properties":{"psgc_code":"050516015","name":"San Francisco Pob.","level":"barangay-label","municipality_psgc_code":"050516000","municipality_name":"Santo Domingo"},"geometry":{"type":"Point","coordinates":[123.77527895350005,13.234804301000056]}},{"type":"Feature","properties":{"psgc_code":"050516017","name":"Nagsiya Pob.","level":"barangay-label","municipality_psgc_code":"050516000","municipality_name":"Santo Domingo"},"geometry":{"type":"Point","coordinates":[123.77759671950008,13.239169461000042]}},{"type":"Feature","properties":{"psgc_code":"050516018","name":"Salvacion","level":"barangay-label","municipality_psgc_code":"050516000","municipality_name":"Santo Domingo"},"geometry":{"type":"Point","coordinates":[123.81272698750007,13.240406755500032]}},{"type":"Feature","properties":{"psgc_code":"050516019","name":"San Andres","level":"barangay-label","municipality_psgc_code":"050516000","municipality_name":"Santo Domingo"},"geometry":{"type":"Point","coordinates":[123.77981133750006,13.259146254500024]}},{"type":"Feature","properties":{"psgc_code":"050516020","name":"San Fernando","level":"barangay-label","municipality_psgc_code":"050516000","municipality_name":"Santo Domingo"},"geometry":{"type":"Point","coordinates":[123.72642381100007,13.261329984500065]}},{"type":"Feature","properties":{"psgc_code":"050516021","name":"San Isidro","level":"barangay-label","municipality_psgc_code":"050516000","municipality_name":"Santo Domingo"},"geometry":{"type":"Point","coordinates":[123.76697761500009,13.229382421500048]}},{"type":"Feature","properties":{"psgc_code":"050516022","name":"San Roque","level":"barangay-label","municipality_psgc_code":"050516000","municipality_name":"Santo Domingo"},"geometry":{"type":"Point","coordinates":[123.77715067300005,13.245637658500044]}},{"type":"Feature","properties":{"psgc_code":"050516023","name":"Santa Misericordia","level":"barangay-label","municipality_psgc_code":"050516000","municipality_name":"Santo Domingo"},"geometry":{"type":"Point","coordinates":[123.72498279900009,13.25555377650005]}},{"type":"Feature","properties":{"psgc_code":"050516024","name":"Santo Ni\u00f1o","level":"barangay-label","municipality_psgc_code":"050516000","municipality_name":"Santo Domingo"},"geometry":{"type":"Point","coordinates":[123.77110025750005,13.24165572000004]}},{"type":"Feature","properties":{"psgc_code":"050516025","name":"Market Site Pob.","level":"barangay-label","municipality_psgc_code":"050516000","municipality_name":"Santo Domingo"},"geometry":{"type":"Point","coordinates":[123.77620021800004,13.236582165000044]}},{"type":"Feature","properties":{"psgc_code":"050516026","name":"Pandayan Pob.","level":"barangay-label","municipality_psgc_code":"050516000","municipality_name":"Santo Domingo"},"geometry":{"type":"Point","coordinates":[123.77999858650003,13.233425981000035]}}]}
