{"type":"FeatureCollection","features":[{"type":"Feature","properties":{"psgc_code":"050517001","name":"Agnas","level":"barangay-label","municipality_psgc_code":"050517000","municipality_name":"City of Tabaco"},"geometry":{"type":"Point","coordinates":[123.78686926950002,13.386702157500052]}},{"type":"Feature","properties":{"psgc_code":"050517002","name":"Bacolod","level":"barangay-label","municipality_psgc_code":"050517000","municipality_name":"City of Tabaco"},"geometry":{"type":"Point","coordinates":[123.73405902250005,13.363174227500053]}},{"type":"Feature","properties":{"psgc_code":"050517003","name":"Bangkilingan","level":"barangay-label","municipality_psgc_code":"050517000","municipality_name":"City of Tabaco"},"geometry":{"type":"Point","coordinates":[123.71739960050007,13.358861590000032]}},{"type":"Feature","properties":{"psgc_code":"050517004","name":"Bantayan","level":"barangay-label","municipality_psgc_code":"050517000","municipality_name":"City of Tabaco"},"geometry":{"type":"Point","coordinates":[123.65604182100009,13.334916046500041]}},{"type":"Feature","properties":{"psgc_code":"050517005","name":"Baranghawon","level":"barangay-label","municipality_psgc_code":"050517000","municipality_name":"City of Tabaco"},"geometry":{"type":"Point","coordinates":[123.72096620800005,13.351138484500067]}},{"type":"Feature","properties":{"psgc_code":"050517006","name":"Basagan","level":"barangay-label","municipality_psgc_code":"050517000","municipality_name":"City of Tabaco"},"geometry":{"type":"Point","coordinates":[123.67124500800003,13.335946616000028]}},{"type":"Feature","properties":{"psgc_code":"050517007","name":"Basud (Pob.)","level":"barangay-label","municipality_psgc_code":"050517000","municipality_name":"City of Tabaco"},"geometry":{"type":"Point","coordinates":[123.72873798100007,13.355463414500061]}},{"type":"Feature","properties":{"psgc_code":"050517008","name":"Bog\u00f1abong","level":"barangay-label","municipality_psgc_code":"050517000","municipality_name":"City of Tabaco"},"geometry":{"type":"Point","coordinates":[123.71472682700005,13.337892389000043]}},{"type":"Feature","properties":{"psgc_code":"050517009","name":"Bombon (Pob.)","level":"barangay-label","municipality_psgc_code":"050517000","municipality_name":"City of Tabaco"},"geometry":{"type":"Point","coordinates":[123.72599055050006,13.361577426500048]}},{"type":"Feature","properties":{"psgc_code":"050517010","name":"Bonot","level":"barangay-label","municipality_psgc_code":"050517000","municipality_name":"City of Tabaco"},"geometry":{"type":"Point","coordinates":[123.66187250550003,13.314427369000043]}},{"type":"Feature","properties":{"psgc_code":"050517011","name":"San Isidro","level":"barangay-label","municipality_psgc_code":"050517000","municipality_name":"City of Tabaco"},"geometry":{"type":"Point","coordinates":[123.67803346100004,13.32780900450004]}},{"type":"Feature","properties":{"psgc_code":"050517012","name":"Buang","level":"barangay-label","municipality_psgc_code":"050517000","municipality_name":"City of Tabaco"},"geometry":{"type":"Point","coordinates":[123.66243228800006,13.284618407500062]}},{"type":"Feature","properties":{"psgc_code":"050517013","name":"Buhian","level":"barangay-label","municipality_psgc_code":"050517000","municipality_name":"City of Tabaco"},"geometry":{"type":"Point","coordinates":[123.65835906300009,13.324675266000044]}},{"type":"Feature","properties":{"psgc_code":"050517014","name":"Cabag\u00f1an","level":"barangay-label","municipality_psgc_code":"050517000","municipality_name":"City of Tabaco"},"geometry":{"type":"Point","coordinates":[123.72335724600009,13.339939274500066]}},{"type":"Feature","properties":{"psgc_code":"050517015","name":"Cobo","level":"barangay-label","municipality_psgc_code":"050517000","municipality_name":"City of Tabaco"},"geometry":{"type":"Point","coordinates":[123.72926866700004,13.351289782000038]}},{"type":"Feature","properties":{"psgc_code":"050517016","name":"Comon","level":"barangay-label","municipality_psgc_code":"050517000","municipality_name":"City of Tabaco"},"geometry":{"type":"Point","coordinates":[123.69779878250006,13.304169985500039]}},{"type":"Feature","properties":{"psgc_code":"050517017","name":"Cormidal","level":"barangay-label","municipality_psgc_code":"050517000","municipality_name":"City of Tabaco"},"geometry":{"type":"Point","coordinates":[123.7344506340001,13.36138162900005]}},{"type":"Feature","properties":{"psgc_code":"050517018","name":"Divino Rostro (Pob.)","level":"barangay-label","municipality_psgc_code":"050517000","municipality_name":"City of Tabaco"},"geometry":{"type":"Point","coordinates":[123.73151038950004,13.356007282500034]}},{"type":"Feature","properties":{"psgc_code":"050517019","name":"Fatima","level":"barangay-label","municipality_psgc_code":"050517000","municipality_name":"City of Tabaco"},"geometry":{"type":"Point","coordinates":[123.73602367650005,13.350894473500063]}},{"type":"Feature","properties":{"psgc_code":"050517020","name":"Guinobat","level":"barangay-label","municipality_psgc_code":"050517000","municipality_name":"City of Tabaco"},"geometry":{"type":"Point","coordinates":[123.71453868900011,13.351231303000045]}},{"type":"Feature","properties":{"psgc_code":"050517021","name":"Hacienda","level":"barangay-label","municipality_psgc_code":"050517000","municipality_name":"City of Tabaco"},"geometry":{"type":"Point","coordinates":[123.81969571450009,13.36987396500004]}},{"type":"Feature","properties":{"psgc_code":"050517022","name":"Magapo","level":"barangay-label","municipality_psgc_code":"050517000","municipality_name":"City of Tabaco"},"geometry":{"type":"Point","coordinates":[123.67435541350011,13.298037582500058]}},{"type":"Feature","properties":{"psgc_code":"050517023","name":"Mariroc","level":"barangay-label","municipality_psgc_code":"050517000","municipality_name":"City of Tabaco"},"geometry":{"type":"Point","coordinates":[123.70007473500004,13.323413110000045]}},{"type":"Feature","properties":{"psgc_code":"050517024","name":"Matagbac","level":"barangay-label","municipality_psgc_code":"050517000","municipality_name":"City of Tabaco"},"geometry":{"type":"Point","coordinates":[123.70842931650003,13.355237538500063]}},{"type":"Feature","properties":{"psgc_code":"050517025","name":"Oras","level":"barangay-label","municipality_psgc_code":"050517000","municipality_name":"City of Tabaco"},"geometry":{"type":"Point","coordinates":[123.62480373300008,13.317119952500061]}},{"type":"Feature","properties":{"psgc_code":"050517026","name":"Oson","level":"barangay-label","municipality_psgc_code":"050517000","municipality_name":"City of Tabaco"},"geometry":{"type":"Point","coordinates":[123.6774137000001,13.316916813500054]}},{"type":"Feature","properties":{"psgc_code":"050517027","name":"Panal","level":"barangay-label","municipality_psgc_code":"050517000","municipality_name":"City of Tabaco"},"geometry":{"type":"Point","coordinates":[123.72201769100008,13.355856865500073]}},{"type":"Feature","properties":{"psgc_code":"050517029","name":"Pawa","level":"barangay-label","municipality_psgc_code":"050517000","municipality_name":"City of Tabaco"},"geometry":{"type":"Point","coordinates":[123.72838186500007,13.370946165000047]}},{"type":"Feature","properties":{"psgc_code":"050517030","name":"Pinagbobong","level":"barangay-label","municipality_psgc_code":"050517000","municipality_name":"City of Tabaco"},"geometry":{"type":"Point","coordinates":[123.69582493050007,13.33834562250007]}},{"type":"Feature","properties":{"psgc_code":"050517031","name":"Quinale Cabasan (Pob.)","level":"barangay-label","municipality_psgc_code":"050517000","municipality_name":"City of Tabaco"},"geometry":{"type":"Point","coordinates":[123.73356283800007,13.359165032500044]}},{"type":"Feature","properties":{"psgc_code":"050517032","name":"Quinastillojan","level":"barangay-label","municipality_psgc_code":"050517000","municipality_name":"City of Tabaco"},"geometry":{"type":"Point","coordinates":[123.6676055750001,13.342687081500058]}},{"type":"Feature","properties":{"psgc_code":"050517033","name":"Rawis","level":"barangay-label","municipality_psgc_code":"050517000","municipality_name":"City of Tabaco"},"geometry":{"type":"Point","coordinates":[123.76744434300002,13.401282872500047]}},{"type":"Feature","properties":{"psgc_code":"050517034","name":"Sagurong","level":"barangay-label","municipality_psgc_code":"050517000","municipality_name":"City of Tabaco"},"geometry":{"type":"Point","coordinates":[123.78415904100007,13.397148473500039]}},{"type":"Feature","properties":{"psgc_code":"050517035","name":"Salvacion","level":"barangay-label","municipality_psgc_code":"050517000","municipality_name":"City of Tabaco"},"geometry":{"type":"Point","coordinates":[123.73658225900006,13.346151612500051]}},{"type":"Feature","properties":{"psgc_code":"050517036","name":"San Antonio","level":"barangay-label","municipality_psgc_code":"050517000","municipality_name":"City of Tabaco"},"geometry":{"type":"Point","coordinates":[123.68375265850005,13.34637753550004]}},{"type":"Feature","properties":{"psgc_code":"050517037","name":"San Carlos","level":"barangay-label","municipality_psgc_code":"050517000","municipality_name":"City of Tabaco"},"geometry":{"type":"Point","coordinates":[123.71710309600007,13.372881556500031]}},{"type":"Feature","properties":{"psgc_code":"050517038","name":"San Juan (Pob.)","level":"barangay-label","municipality_psgc_code":"050517000","municipality_name":"City of Tabaco"},"geometry":{"type":"Point","coordinates":[123.72785025400009,13.358657496000033]}},{"type":"Feature","properties":{"psgc_code":"050517039","name":"San Lorenzo","level":"barangay-label","municipality_psgc_code":"050517000","municipality_name":"City of Tabaco"},"geometry":{"type":"Point","coordinates":[123.73442698450003,13.34016763300005]}},{"type":"Feature","properties":{"psgc_code":"050517040","name":"San Ramon","level":"barangay-label","municipality_psgc_code":"050517000","municipality_name":"City of Tabaco"},"geometry":{"type":"Point","coordinates":[123.72632895300006,13.34642283650004]}},{"type":"Feature","properties":{"psgc_code":"050517041","name":"San Roque","level":"barangay-label","municipality_psgc_code":"050517000","municipality_name":"City of Tabaco"},"geometry":{"type":"Point","coordinates":[123.73588216600007,13.355241481500059]}},{"type":"Feature","properties":{"psgc_code":"050517042","name":"San Vicente","level":"barangay-label","municipality_psgc_code":"050517000","municipality_name":"City of Tabaco"},"geometry":{"type":"Point","coordinates":[123.69666773050005,13.358186638000063]}},{"type":"Feature","properties":{"psgc_code":"050517044","name":"Santo Cristo (Pob.)","level":"barangay-label","municipality_psgc_code":"050517000","municipality_name":"City of Tabaco"},"geometry":{"type":"Point","coordinates":[123.73567540850007,13.356763204500055]}},{"type":"Feature","properties":{"psgc_code":"050517045","name":"Sua-Igot","level":"barangay-label","municipality_psgc_code":"050517000","municipality_name":"City of Tabaco"},"geometry":{"type":"Point","coordinates":[123.61415498200007,13.334061884500047]}},{"type":"Feature","properties":{"psgc_code":"050517046","name":"Tabiguian","level":"barangay-label","municipality_psgc_code":"050517000","municipality_name":"City of Tabaco"},"geometry":{"type":"Point","coordinates":[123.64440312700009,13.32090064150006]}},{"type":"Feature","properties":{"psgc_code":"050517048","name":"Tagas","level":"barangay-label","municipality_psgc_code":"050517000","municipality_name":"City of Tabaco"},"geometry":{"type":"Point","coordinates":[123.7309628805001,13.35221721000005]}},{"type":"Feature","properties":{"psgc_code":"050517049","name":"Tayhi (Pob.)","level":"barangay-label","municipality_psgc_code":"050517000","municipality_name":"City of Tabaco"},"geometry":{"type":"Point","coordinates":[123.73224254600007,13.363733135500041]}},{"type":"Feature","properties":{"psgc_code":"050517050","name":"Visita","level":"barangay-label","municipality_psgc_code":"050517000","municipality_name":"City of Tabaco"},"geometry":{"type":"Point","coordinates":[123.77739601500008,13.393010128000071]}}]}
