{"type":"FeatureCollection","features":[{"type":"Feature","properties":{"psgc_code":"050503001","name":"Alcala","level":"barangay-label","municipality_psgc_code":"050503000","municipality_name":"Daraga"},"geometry":{"type":"Point","coordinates":[123.71467347350011,13.17524142800005]}},{"type":"Feature","properties":{"psgc_code":"050503002","name":"Alobo","level":"barangay-label","municipality_psgc_code":"050503000","municipality_name":"Daraga"},"geometry":{"type":"Point","coordinates":[123.67497259400005,13.11639223450004]}},{"type":"Feature","properties":{"psgc_code":"050503003","name":"Anislag","level":"barangay-label","municipality_psgc_code":"050503000","municipality_name":"Daraga"},"geometry":{"type":"Point","coordinates":[123.70256290350007,13.070290081500076]}},{"type":"Feature","properties":{"psgc_code":"050503004","name":"Bagumbayan","level":"barangay-label","municipality_psgc_code":"050503000","municipality_name":"Daraga"},"geometry":{"type":"Point","coordinates":[123.71689165850006,13.142195945500045]}},{"type":"Feature","properties":{"psgc_code":"050503005","name":"Balinad","level":"barangay-label","municipality_psgc_code":"050503000","municipality_name":"Daraga"},"geometry":{"type":"Point","coordinates":[123.69968283400006,13.142518190000061]}},{"type":"Feature","properties":{"psgc_code":"050503006","name":"Ba\u00f1adero","level":"barangay-label","municipality_psgc_code":"050503000","municipality_name":"Daraga"},"geometry":{"type":"Point","coordinates":[123.70299924850008,13.17662435100007]}},{"type":"Feature","properties":{"psgc_code":"050503007","name":"Ba\u00f1ag","level":"barangay-label","municipality_psgc_code":"050503000","municipality_name":"Daraga"},"geometry":{"type":"Point","coordinates":[123.71023941950006,13.154902217500052]}},{"type":"Feature","properties":{"psgc_code":"050503008","name":"Bascaran","level":"barangay-label","municipality_psgc_code":"050503000","municipality_name":"Daraga"},"geometry":{"type":"Point","coordinates":[123.69879830450003,13.105241008000036]}},{"type":"Feature","properties":{"psgc_code":"050503009","name":"Bigao","level":"barangay-label","municipality_psgc_code":"050503000","municipality_name":"Daraga"},"geometry":{"type":"Point","coordinates":[123.68037251850006,13.033279046000047]}},{"type":"Feature","properties":{"psgc_code":"050503010","name":"Binitayan","level":"barangay-label","municipality_psgc_code":"050503000","municipality_name":"Daraga"},"geometry":{"type":"Point","coordinates":[123.71603110050005,13.156385783000076]}},{"type":"Feature","properties":{"psgc_code":"050503011","name":"Bongalon","level":"barangay-label","municipality_psgc_code":"050503000","municipality_name":"Daraga"},"geometry":{"type":"Point","coordinates":[123.69732809350008,13.156310316000031]}},{"type":"Feature","properties":{"psgc_code":"050503012","name":"Budiao","level":"barangay-label","municipality_psgc_code":"050503000","municipality_name":"Daraga"},"geometry":{"type":"Point","coordinates":[123.69298831550003,13.178540345000073]}},{"type":"Feature","properties":{"psgc_code":"050503013","name":"Burgos","level":"barangay-label","municipality_psgc_code":"050503000","municipality_name":"Daraga"},"geometry":{"type":"Point","coordinates":[123.68567583350006,13.101635870000052]}},{"type":"Feature","properties":{"psgc_code":"050503014","name":"Busay","level":"barangay-label","municipality_psgc_code":"050503000","municipality_name":"Daraga"},"geometry":{"type":"Point","coordinates":[123.69779982700003,13.164823499500073]}},{"type":"Feature","properties":{"psgc_code":"050503015","name":"Cullat","level":"barangay-label","municipality_psgc_code":"050503000","municipality_name":"Daraga"},"geometry":{"type":"Point","coordinates":[123.7046235165,13.157879016000066]}},{"type":"Feature","properties":{"psgc_code":"050503016","name":"Canarom","level":"barangay-label","municipality_psgc_code":"050503000","municipality_name":"Daraga"},"geometry":{"type":"Point","coordinates":[123.66153865900003,13.050894488500035]}},{"type":"Feature","properties":{"psgc_code":"050503017","name":"Dela Paz","level":"barangay-label","municipality_psgc_code":"050503000","municipality_name":"Daraga"},"geometry":{"type":"Point","coordinates":[123.69256259700006,13.133234784000052]}},{"type":"Feature","properties":{"psgc_code":"050503018","name":"Dinoronan","level":"barangay-label","municipality_psgc_code":"050503000","municipality_name":"Daraga"},"geometry":{"type":"Point","coordinates":[123.69661864450006,13.131840606500047]}},{"type":"Feature","properties":{"psgc_code":"050503019","name":"Gabawan","level":"barangay-label","municipality_psgc_code":"050503000","municipality_name":"Daraga"},"geometry":{"type":"Point","coordinates":[123.71141000900008,13.120062869000037]}},{"type":"Feature","properties":{"psgc_code":"050503020","name":"Gapo","level":"barangay-label","municipality_psgc_code":"050503000","municipality_name":"Daraga"},"geometry":{"type":"Point","coordinates":[123.6867877740001,13.130057470500049]}},{"type":"Feature","properties":{"psgc_code":"050503021","name":"Ibaugan","level":"barangay-label","municipality_psgc_code":"050503000","municipality_name":"Daraga"},"geometry":{"type":"Point","coordinates":[123.63514889250007,13.020148921000043]}},{"type":"Feature","properties":{"psgc_code":"050503022","name":"Ilawod Area Pob.","level":"barangay-label","municipality_psgc_code":"050503000","municipality_name":"Daraga"},"geometry":{"type":"Point","coordinates":[123.71483437400008,13.147178963000044]}},{"type":"Feature","properties":{"psgc_code":"050503023","name":"Inarado","level":"barangay-label","municipality_psgc_code":"050503000","municipality_name":"Daraga"},"geometry":{"type":"Point","coordinates":[123.67686066700008,13.13474933650005]}},{"type":"Feature","properties":{"psgc_code":"050503024","name":"Kidaco","level":"barangay-label","municipality_psgc_code":"050503000","municipality_name":"Daraga"},"geometry":{"type":"Point","coordinates":[123.70086163250011,13.150351003000054]}},{"type":"Feature","properties":{"psgc_code":"050503025","name":"Kilicao","level":"barangay-label","municipality_psgc_code":"050503000","municipality_name":"Daraga"},"geometry":{"type":"Point","coordinates":[123.71949877700007,13.166406347000049]}},{"type":"Feature","properties":{"psgc_code":"050503026","name":"Kimantong","level":"barangay-label","municipality_psgc_code":"050503000","municipality_name":"Daraga"},"geometry":{"type":"Point","coordinates":[123.71000772550008,13.143478897500046]}},{"type":"Feature","properties":{"psgc_code":"050503027","name":"Kinawitan","level":"barangay-label","municipality_psgc_code":"050503000","municipality_name":"Daraga"},"geometry":{"type":"Point","coordinates":[123.67359971950003,13.089180441000053]}},{"type":"Feature","properties":{"psgc_code":"050503028","name":"Kiwalo","level":"barangay-label","municipality_psgc_code":"050503000","municipality_name":"Daraga"},"geometry":{"type":"Point","coordinates":[123.71597207650007,13.131758768000054]}},{"type":"Feature","properties":{"psgc_code":"050503029","name":"Lacag","level":"barangay-label","municipality_psgc_code":"050503000","municipality_name":"Daraga"},"geometry":{"type":"Point","coordinates":[123.68016034900006,13.15398087850005]}},{"type":"Feature","properties":{"psgc_code":"050503030","name":"Mabini","level":"barangay-label","municipality_psgc_code":"050503000","municipality_name":"Daraga"},"geometry":{"type":"Point","coordinates":[123.67556836000006,13.095519341000054]}},{"type":"Feature","properties":{"psgc_code":"050503031","name":"Malabog","level":"barangay-label","municipality_psgc_code":"050503000","municipality_name":"Daraga"},"geometry":{"type":"Point","coordinates":[123.68404698950002,13.17006573400005]}},{"type":"Feature","properties":{"psgc_code":"050503032","name":"Malobago","level":"barangay-label","municipality_psgc_code":"050503000","municipality_name":"Daraga"},"geometry":{"type":"Point","coordinates":[123.70905411700005,13.164146062500063]}},{"type":"Feature","properties":{"psgc_code":"050503033","name":"Maopi","level":"barangay-label","municipality_psgc_code":"050503000","municipality_name":"Daraga"},"geometry":{"type":"Point","coordinates":[123.68508773150006,13.071533043000073]}},{"type":"Feature","properties":{"psgc_code":"050503034","name":"Market Area Pob.","level":"barangay-label","municipality_psgc_code":"050503000","municipality_name":"Daraga"},"geometry":{"type":"Point","coordinates":[123.71469315050007,13.150410441000044]}},{"type":"Feature","properties":{"psgc_code":"050503035","name":"Maroroy","level":"barangay-label","municipality_psgc_code":"050503000","municipality_name":"Daraga"},"geometry":{"type":"Point","coordinates":[123.72075780400007,13.151820647500074]}},{"type":"Feature","properties":{"psgc_code":"050503036","name":"Matnog","level":"barangay-label","municipality_psgc_code":"050503000","municipality_name":"Daraga"},"geometry":{"type":"Point","coordinates":[123.7092065335001,13.18525297000005]}},{"type":"Feature","properties":{"psgc_code":"050503037","name":"Mayon","level":"barangay-label","municipality_psgc_code":"050503000","municipality_name":"Daraga"},"geometry":{"type":"Point","coordinates":[123.70735043100007,13.056270504000054]}},{"type":"Feature","properties":{"psgc_code":"050503038","name":"Mi-isi","level":"barangay-label","municipality_psgc_code":"050503000","municipality_name":"Daraga"},"geometry":{"type":"Point","coordinates":[123.69407316550007,13.217701382500053]}},{"type":"Feature","properties":{"psgc_code":"050503039","name":"Nabasan","level":"barangay-label","municipality_psgc_code":"050503000","municipality_name":"Daraga"},"geometry":{"type":"Point","coordinates":[123.64527841800009,13.036351278500035]}},{"type":"Feature","properties":{"psgc_code":"050503040","name":"Namantao","level":"barangay-label","municipality_psgc_code":"050503000","municipality_name":"Daraga"},"geometry":{"type":"Point","coordinates":[123.69980240150011,13.088029303000067]}},{"type":"Feature","properties":{"psgc_code":"050503041","name":"Pandan","level":"barangay-label","municipality_psgc_code":"050503000","municipality_name":"Daraga"},"geometry":{"type":"Point","coordinates":[123.68844994850008,13.153807615000064]}},{"type":"Feature","properties":{"psgc_code":"050503042","name":"Pe\u00f1afrancia","level":"barangay-label","municipality_psgc_code":"050503000","municipality_name":"Daraga"},"geometry":{"type":"Point","coordinates":[123.70571612150007,13.131537317500033]}},{"type":"Feature","properties":{"psgc_code":"050503044","name":"Sagpon","level":"barangay-label","municipality_psgc_code":"050503000","municipality_name":"Daraga"},"geometry":{"type":"Point","coordinates":[123.72202784500007,13.146399667000054]}},{"type":"Feature","properties":{"psgc_code":"050503045","name":"Salvacion","level":"barangay-label","municipality_psgc_code":"050503000","municipality_name":"Daraga"},"geometry":{"type":"Point","coordinates":[123.67709076200003,13.176689465500061]}},{"type":"Feature","properties":{"psgc_code":"050503046","name":"San Rafael","level":"barangay-label","municipality_psgc_code":"050503000","municipality_name":"Daraga"},"geometry":{"type":"Point","coordinates":[123.66563202850006,13.041620471500037]}},{"type":"Feature","properties":{"psgc_code":"050503047","name":"San Ramon","level":"barangay-label","municipality_psgc_code":"050503000","municipality_name":"Daraga"},"geometry":{"type":"Point","coordinates":[123.68424517950007,13.05110112850005]}},{"type":"Feature","properties":{"psgc_code":"050503048","name":"San Roque","level":"barangay-label","municipality_psgc_code":"050503000","municipality_name":"Daraga"},"geometry":{"type":"Point","coordinates":[123.710301876,13.14967706750005]}},{"type":"Feature","properties":{"psgc_code":"050503049","name":"San Vicente Grande","level":"barangay-label","municipality_psgc_code":"050503000","municipality_name":"Daraga"},"geometry":{"type":"Point","coordinates":[123.65622378350002,13.025970311000066]}},{"type":"Feature","properties":{"psgc_code":"050503050","name":"San Vicente Peque\u00f1o","level":"barangay-label","municipality_psgc_code":"050503000","municipality_name":"Daraga"},"geometry":{"type":"Point","coordinates":[123.67370071950006,13.075199398000052]}},{"type":"Feature","properties":{"psgc_code":"050503051","name":"Sipi","level":"barangay-label","municipality_psgc_code":"050503000","municipality_name":"Daraga"},"geometry":{"type":"Point","coordinates":[123.7130123980001,13.142641295500056]}},{"type":"Feature","properties":{"psgc_code":"050503052","name":"Tabon-tabon","level":"barangay-label","municipality_psgc_code":"050503000","municipality_name":"Daraga"},"geometry":{"type":"Point","coordinates":[123.70047201050005,13.11986945250004]}},{"type":"Feature","properties":{"psgc_code":"050503053","name":"Tagas","level":"barangay-label","municipality_psgc_code":"050503000","municipality_name":"Daraga"},"geometry":{"type":"Point","coordinates":[123.72295265600007,13.157889023500047]}},{"type":"Feature","properties":{"psgc_code":"050503054","name":"Talahib","level":"barangay-label","municipality_psgc_code":"050503000","municipality_name":"Daraga"},"geometry":{"type":"Point","coordinates":[123.71066949500005,13.093378543000059]}},{"type":"Feature","properties":{"psgc_code":"050503055","name":"Villahermosa","level":"barangay-label","municipality_psgc_code":"050503000","municipality_name":"Daraga"},"geometry":{"type":"Point","coordinates":[123.70955896400005,13.044422027000053]}}]}
