{"type":"FeatureCollection","features":[{"type":"Feature","properties":{"psgc_code":"050511001","name":"Balabagon","level":"barangay-label","municipality_psgc_code":"050511000","municipality_name":"Manito"},"geometry":{"type":"Point","coordinates":[123.91115223500009,13.119632387000053]}},{"type":"Feature","properties":{"psgc_code":"050511002","name":"Balasbas","level":"barangay-label","municipality_psgc_code":"050511000","municipality_name":"Manito"},"geometry":{"type":"Point","coordinates":[123.8934385555001,13.078365044000067]}},{"type":"Feature","properties":{"psgc_code":"050511003","name":"Bamban","level":"barangay-label","municipality_psgc_code":"050511000","municipality_name":"Manito"},"geometry":{"type":"Point","coordinates":[123.88048728800004,13.077533269500066]}},{"type":"Feature","properties":{"psgc_code":"050511004","name":"Buyo","level":"barangay-label","municipality_psgc_code":"050511000","municipality_name":"Manito"},"geometry":{"type":"Point","coordinates":[123.87017234050006,13.07917588850006]}},{"type":"Feature","properties":{"psgc_code":"050511005","name":"Cabacongan","level":"barangay-label","municipality_psgc_code":"050511000","municipality_name":"Manito"},"geometry":{"type":"Point","coordinates":[123.83417804050009,13.050728364500031]}},{"type":"Feature","properties":{"psgc_code":"050511006","name":"Cabit","level":"barangay-label","municipality_psgc_code":"050511000","municipality_name":"Manito"},"geometry":{"type":"Point","coordinates":[123.92081213650005,13.102994352000024]}},{"type":"Feature","properties":{"psgc_code":"050511007","name":"Cawayan","level":"barangay-label","municipality_psgc_code":"050511000","municipality_name":"Manito"},"geometry":{"type":"Point","coordinates":[123.8346404890001,13.05808925000005]}},{"type":"Feature","properties":{"psgc_code":"050511008","name":"Cawit","level":"barangay-label","municipality_psgc_code":"050511000","municipality_name":"Manito"},"geometry":{"type":"Point","coordinates":[123.8678722835001,13.133510529500025]}},{"type":"Feature","properties":{"psgc_code":"050511009","name":"Holugan","level":"barangay-label","municipality_psgc_code":"050511000","municipality_name":"Manito"},"geometry":{"type":"Point","coordinates":[123.90237005900008,13.130118604000046]}},{"type":"Feature","properties":{"psgc_code":"050511010","name":"It-Ba (Pob.)","level":"barangay-label","municipality_psgc_code":"050511000","municipality_name":"Manito"},"geometry":{"type":"Point","coordinates":[123.86919059950009,13.123161899500047]}},{"type":"Feature","properties":{"psgc_code":"050511011","name":"Malobago","level":"barangay-label","municipality_psgc_code":"050511000","municipality_name":"Manito"},"geometry":{"type":"Point","coordinates":[123.83922714750008,13.07676140500004]}},{"type":"Feature","properties":{"psgc_code":"050511012","name":"Manumbalay","level":"barangay-label","municipality_psgc_code":"050511000","municipality_name":"Manito"},"geometry":{"type":"Point","coordinates":[123.84821836350005,13.099899407000066]}},{"type":"Feature","properties":{"psgc_code":"050511013","name":"Nagotgot","level":"barangay-label","municipality_psgc_code":"050511000","municipality_name":"Manito"},"geometry":{"type":"Point","coordinates":[123.9090260485001,13.078676996000041]}},{"type":"Feature","properties":{"psgc_code":"050511015","name":"Pawa","level":"barangay-label","municipality_psgc_code":"050511000","municipality_name":"Manito"},"geometry":{"type":"Point","coordinates":[123.88820812800007,13.127152717500055]}},{"type":"Feature","properties":{"psgc_code":"050511018","name":"Tinapian","level":"barangay-label","municipality_psgc_code":"050511000","municipality_name":"Manito"},"geometry":{"type":"Point","coordinates":[123.84634824500006,13.092222419500047]}}]}
