{"type":"FeatureCollection","features":[{"type":"Feature","properties":{"psgc_code":"050501001","name":"Baclayon","level":"barangay-label","municipality_psgc_code":"050501000","municipality_name":"Bacacay"},"geometry":{"type":"Point","coordinates":[123.79158584500004,13.281658772500037]}},{"type":"Feature","properties":{"psgc_code":"050501002","name":"Banao","level":"barangay-label","municipality_psgc_code":"050501000","municipality_name":"Bacacay"},"geometry":{"type":"Point","coordinates":[123.80860662550009,13.253008836000049]}},{"type":"Feature","properties":{"psgc_code":"050501003","name":"Bariw","level":"barangay-label","municipality_psgc_code":"050501000","municipality_name":"Bacacay"},"geometry":{"type":"Point","coordinates":[123.84570975550008,13.252864963000036]}},{"type":"Feature","properties":{"psgc_code":"050501004","name":"Basud","level":"barangay-label","municipality_psgc_code":"050501000","municipality_name":"Bacacay"},"geometry":{"type":"Point","coordinates":[123.79801019100006,13.270360917500057]}},{"type":"Feature","properties":{"psgc_code":"050501005","name":"Bayandong","level":"barangay-label","municipality_psgc_code":"050501000","municipality_name":"Bacacay"},"geometry":{"type":"Point","coordinates":[123.78315393700007,13.267180340000037]}},{"type":"Feature","properties":{"psgc_code":"050501006","name":"Bonga","level":"barangay-label","municipality_psgc_code":"050501000","municipality_name":"Bacacay"},"geometry":{"type":"Point","coordinates":[123.7318443220001,13.277051672000027]}},{"type":"Feature","properties":{"psgc_code":"050501008","name":"Buang","level":"barangay-label","municipality_psgc_code":"050501000","municipality_name":"Bacacay"},"geometry":{"type":"Point","coordinates":[123.86714906850005,13.344519186000042]}},{"type":"Feature","properties":{"psgc_code":"050501009","name":"Cabasan","level":"barangay-label","municipality_psgc_code":"050501000","municipality_name":"Bacacay"},"geometry":{"type":"Point","coordinates":[123.87971300000004,13.317720724500049]}},{"type":"Feature","properties":{"psgc_code":"050501010","name":"Cagbulacao","level":"barangay-label","municipality_psgc_code":"050501000","municipality_name":"Bacacay"},"geometry":{"type":"Point","coordinates":[123.87927826200001,13.280373698500057]}},{"type":"Feature","properties":{"psgc_code":"050501011","name":"Cagraray","level":"barangay-label","municipality_psgc_code":"050501000","municipality_name":"Bacacay"},"geometry":{"type":"Point","coordinates":[123.88662258100004,13.295172868000034]}},{"type":"Feature","properties":{"psgc_code":"050501012","name":"Cajogutan","level":"barangay-label","municipality_psgc_code":"050501000","municipality_name":"Bacacay"},"geometry":{"type":"Point","coordinates":[123.81057880650008,13.282597439000057]}},{"type":"Feature","properties":{"psgc_code":"050501013","name":"Cawayan","level":"barangay-label","municipality_psgc_code":"050501000","municipality_name":"Bacacay"},"geometry":{"type":"Point","coordinates":[123.89496521350003,13.30004725650005]}},{"type":"Feature","properties":{"psgc_code":"050501014","name":"Damacan","level":"barangay-label","municipality_psgc_code":"050501000","municipality_name":"Bacacay"},"geometry":{"type":"Point","coordinates":[123.87307426900009,13.257311190000053]}},{"type":"Feature","properties":{"psgc_code":"050501015","name":"Gubat Ilawod","level":"barangay-label","municipality_psgc_code":"050501000","municipality_name":"Bacacay"},"geometry":{"type":"Point","coordinates":[123.78220405950009,13.28649597300003]}},{"type":"Feature","properties":{"psgc_code":"050501016","name":"Gubat Iraya","level":"barangay-label","municipality_psgc_code":"050501000","municipality_name":"Bacacay"},"geometry":{"type":"Point","coordinates":[123.77197001200005,13.285088642000062]}},{"type":"Feature","properties":{"psgc_code":"050501017","name":"Hindi","level":"barangay-label","municipality_psgc_code":"050501000","municipality_name":"Bacacay"},"geometry":{"type":"Point","coordinates":[123.77423855100004,13.295735947500049]}},{"type":"Feature","properties":{"psgc_code":"050501018","name":"Igang","level":"barangay-label","municipality_psgc_code":"050501000","municipality_name":"Bacacay"},"geometry":{"type":"Point","coordinates":[123.80426988200009,13.290575505500042]}},{"type":"Feature","properties":{"psgc_code":"050501019","name":"Langaton","level":"barangay-label","municipality_psgc_code":"050501000","municipality_name":"Bacacay"},"geometry":{"type":"Point","coordinates":[123.90410149700006,13.321862118500036]}},{"type":"Feature","properties":{"psgc_code":"050501020","name":"Manaet","level":"barangay-label","municipality_psgc_code":"050501000","municipality_name":"Bacacay"},"geometry":{"type":"Point","coordinates":[123.85739815800008,13.287030382500031]}},{"type":"Feature","properties":{"psgc_code":"050501021","name":"Mapulang Daga","level":"barangay-label","municipality_psgc_code":"050501000","municipality_name":"Bacacay"},"geometry":{"type":"Point","coordinates":[123.85646676100004,13.254907260500062]}},{"type":"Feature","properties":{"psgc_code":"050501022","name":"Mataas","level":"barangay-label","municipality_psgc_code":"050501000","municipality_name":"Bacacay"},"geometry":{"type":"Point","coordinates":[123.88572300050009,13.24066034800006]}},{"type":"Feature","properties":{"psgc_code":"050501023","name":"Misibis","level":"barangay-label","municipality_psgc_code":"050501000","municipality_name":"Bacacay"},"geometry":{"type":"Point","coordinates":[123.89623180700005,13.24847387500003]}},{"type":"Feature","properties":{"psgc_code":"050501024","name":"Nahapunan","level":"barangay-label","municipality_psgc_code":"050501000","municipality_name":"Bacacay"},"geometry":{"type":"Point","coordinates":[123.83553822400006,13.263987114500054]}},{"type":"Feature","properties":{"psgc_code":"050501025","name":"Namanday","level":"barangay-label","municipality_psgc_code":"050501000","municipality_name":"Bacacay"},"geometry":{"type":"Point","coordinates":[123.9379464650001,13.314508464000026]}},{"type":"Feature","properties":{"psgc_code":"050501026","name":"Namantao","level":"barangay-label","municipality_psgc_code":"050501000","municipality_name":"Bacacay"},"geometry":{"type":"Point","coordinates":[123.85710214750009,13.268869793500045]}},{"type":"Feature","properties":{"psgc_code":"050501027","name":"Napao","level":"barangay-label","municipality_psgc_code":"050501000","municipality_name":"Bacacay"},"geometry":{"type":"Point","coordinates":[123.85502002600009,13.332566580500043]}},{"type":"Feature","properties":{"psgc_code":"050501028","name":"Panarayon","level":"barangay-label","municipality_psgc_code":"050501000","municipality_name":"Bacacay"},"geometry":{"type":"Point","coordinates":[123.77707471000008,13.305472293000037]}},{"type":"Feature","properties":{"psgc_code":"050501029","name":"Pigcobohan","level":"barangay-label","municipality_psgc_code":"050501000","municipality_name":"Bacacay"},"geometry":{"type":"Point","coordinates":[123.90234637800006,13.302945431500035]}},{"type":"Feature","properties":{"psgc_code":"050501030","name":"Pili Ilawod","level":"barangay-label","municipality_psgc_code":"050501000","municipality_name":"Bacacay"},"geometry":{"type":"Point","coordinates":[123.82199333650004,13.26153522900006]}},{"type":"Feature","properties":{"psgc_code":"050501031","name":"Pili Iraya","level":"barangay-label","municipality_psgc_code":"050501000","municipality_name":"Bacacay"},"geometry":{"type":"Point","coordinates":[123.8136948725001,13.269193180000027]}},{"type":"Feature","properties":{"psgc_code":"050501032","name":"Barangay 1 (Pob.)","level":"barangay-label","municipality_psgc_code":"050501000","municipality_name":"Bacacay"},"geometry":{"type":"Point","coordinates":[123.79656096150006,13.296330966500049]}},{"type":"Feature","properties":{"psgc_code":"050501033","name":"Barangay 10 (Pob.)","level":"barangay-label","municipality_psgc_code":"050501000","municipality_name":"Bacacay"},"geometry":{"type":"Point","coordinates":[123.78803183550008,13.293424531000026]}},{"type":"Feature","properties":{"psgc_code":"050501034","name":"Barangay 11 (Pob.)","level":"barangay-label","municipality_psgc_code":"050501000","municipality_name":"Bacacay"},"geometry":{"type":"Point","coordinates":[123.79042795100003,13.291624265500047]}},{"type":"Feature","properties":{"psgc_code":"050501035","name":"Barangay 12 (Pob.)","level":"barangay-label","municipality_psgc_code":"050501000","municipality_name":"Bacacay"},"geometry":{"type":"Point","coordinates":[123.79112257800006,13.291034103500035]}},{"type":"Feature","properties":{"psgc_code":"050501036","name":"Barangay 13 (Pob.)","level":"barangay-label","municipality_psgc_code":"050501000","municipality_name":"Bacacay"},"geometry":{"type":"Point","coordinates":[123.79434448150005,13.29002262250006]}},{"type":"Feature","properties":{"psgc_code":"050501037","name":"Barangay 14 (Pob.)","level":"barangay-label","municipality_psgc_code":"050501000","municipality_name":"Bacacay"},"geometry":{"type":"Point","coordinates":[123.78947732300003,13.290169467000055]}},{"type":"Feature","properties":{"psgc_code":"050501038","name":"Barangay 2 (Pob.)","level":"barangay-label","municipality_psgc_code":"050501000","municipality_name":"Bacacay"},"geometry":{"type":"Point","coordinates":[123.79505841500003,13.294621085000042]}},{"type":"Feature","properties":{"psgc_code":"050501039","name":"Barangay 3 (Pob.)","level":"barangay-label","municipality_psgc_code":"050501000","municipality_name":"Bacacay"},"geometry":{"type":"Point","coordinates":[123.79033345500005,13.297137340000035]}},{"type":"Feature","properties":{"psgc_code":"050501040","name":"Barangay 4 (Pob.)","level":"barangay-label","municipality_psgc_code":"050501000","municipality_name":"Bacacay"},"geometry":{"type":"Point","coordinates":[123.7901020275001,13.296022662500064]}},{"type":"Feature","properties":{"psgc_code":"050501041","name":"Barangay 5 (Pob.)","level":"barangay-label","municipality_psgc_code":"050501000","municipality_name":"Bacacay"},"geometry":{"type":"Point","coordinates":[123.78945155700006,13.29540954150005]}},{"type":"Feature","properties":{"psgc_code":"050501042","name":"Barangay 6 (Pob.)","level":"barangay-label","municipality_psgc_code":"050501000","municipality_name":"Bacacay"},"geometry":{"type":"Point","coordinates":[123.79587245400006,13.293330794500065]}},{"type":"Feature","properties":{"psgc_code":"050501043","name":"Barangay 7 (Pob.)","level":"barangay-label","municipality_psgc_code":"050501000","municipality_name":"Bacacay"},"geometry":{"type":"Point","coordinates":[123.79133534350007,13.293513488500054]}},{"type":"Feature","properties":{"psgc_code":"050501044","name":"Barangay 8 (Pob.)","level":"barangay-label","municipality_psgc_code":"050501000","municipality_name":"Bacacay"},"geometry":{"type":"Point","coordinates":[123.79186642200006,13.292836947500035]}},{"type":"Feature","properties":{"psgc_code":"050501045","name":"Barangay 9 (Pob.)","level":"barangay-label","municipality_psgc_code":"050501000","municipality_name":"Bacacay"},"geometry":{"type":"Point","coordinates":[123.79535877600006,13.291200738000043]}},{"type":"Feature","properties":{"psgc_code":"050501046","name":"Pongco","level":"barangay-label","municipality_psgc_code":"050501000","municipality_name":"Bacacay"},"geometry":{"type":"Point","coordinates":[123.89195416350009,13.333316641000039]}},{"type":"Feature","properties":{"psgc_code":"050501048","name":"Busdac","level":"barangay-label","municipality_psgc_code":"050501000","municipality_name":"Bacacay"},"geometry":{"type":"Point","coordinates":[123.92189812250007,13.323387849500051]}},{"type":"Feature","properties":{"psgc_code":"050501049","name":"San Pablo","level":"barangay-label","municipality_psgc_code":"050501000","municipality_name":"Bacacay"},"geometry":{"type":"Point","coordinates":[123.90137163550003,13.331189116000045]}},{"type":"Feature","properties":{"psgc_code":"050501050","name":"San Pedro","level":"barangay-label","municipality_psgc_code":"050501000","municipality_name":"Bacacay"},"geometry":{"type":"Point","coordinates":[123.80774206150005,13.274607105500051]}},{"type":"Feature","properties":{"psgc_code":"050501051","name":"Sogod","level":"barangay-label","municipality_psgc_code":"050501000","municipality_name":"Bacacay"},"geometry":{"type":"Point","coordinates":[123.76972892750007,13.307756455500051]}},{"type":"Feature","properties":{"psgc_code":"050501052","name":"Sula","level":"barangay-label","municipality_psgc_code":"050501000","municipality_name":"Bacacay"},"geometry":{"type":"Point","coordinates":[123.86339224100004,13.237638385000055]}},{"type":"Feature","properties":{"psgc_code":"050501053","name":"Tambilagao","level":"barangay-label","municipality_psgc_code":"050501000","municipality_name":"Bacacay"},"geometry":{"type":"Point","coordinates":[123.91810954550004,13.312717700000034]}},{"type":"Feature","properties":{"psgc_code":"050501054","name":"Tambongon","level":"barangay-label","municipality_psgc_code":"050501000","municipality_name":"Bacacay"},"geometry":{"type":"Point","coordinates":[123.83376841250004,13.246839290500047]}},{"type":"Feature","properties":{"psgc_code":"050501055","name":"Tanagan","level":"barangay-label","municipality_psgc_code":"050501000","municipality_name":"Bacacay"},"geometry":{"type":"Point","coordinates":[123.86444113550004,13.309624013000047]}},{"type":"Feature","properties":{"psgc_code":"050501056","name":"Uson","level":"barangay-label","municipality_psgc_code":"050501000","municipality_name":"Bacacay"},"geometry":{"type":"Point","coordinates":[123.8812046270001,13.339734043500071]}},{"type":"Feature","properties":{"psgc_code":"050501057","name":"Vinisitahan-Basud","level":"barangay-label","municipality_psgc_code":"050501000","municipality_name":"Bacacay"},"geometry":{"type":"Point","coordinates":[123.79887024100009,13.280581552000056]}},{"type":"Feature","properties":{"psgc_code":"050501058","name":"Vinisitahan-Napao","level":"barangay-label","municipality_psgc_code":"050501000","municipality_name":"Bacacay"},"geometry":{"type":"Point","coordinates":[123.86829048100005,13.332713498000063]}}]}
