{"type":"FeatureCollection","features":[{"type":"Feature","properties":{"psgc_code":"051604001","name":"Daculang Bolo","level":"barangay-label","municipality_psgc_code":"051604000","municipality_name":"San Lorenzo Ruiz"},"geometry":{"type":"Point","coordinates":[122.91400439400002,14.077095041000064]}},{"type":"Feature","properties":{"psgc_code":"051604002","name":"Dagotdotan","level":"barangay-label","municipality_psgc_code":"051604000","municipality_name":"San Lorenzo Ruiz"},"geometry":{"type":"Point","coordinates":[122.89935249300004,14.06207671200005]}},{"type":"Feature","properties":{"psgc_code":"051604003","name":"Langga","level":"barangay-label","municipality_psgc_code":"051604000","municipality_name":"San Lorenzo Ruiz"},"geometry":{"type":"Point","coordinates":[122.90687053150009,14.045327567500067]}},{"type":"Feature","properties":{"psgc_code":"051604004","name":"Laniton","level":"barangay-label","municipality_psgc_code":"051604000","municipality_name":"San Lorenzo Ruiz"},"geometry":{"type":"Point","coordinates":[122.91893057150003,14.061558192500057]}},{"type":"Feature","properties":{"psgc_code":"051604005","name":"Maisog","level":"barangay-label","municipality_psgc_code":"051604000","municipality_name":"San Lorenzo Ruiz"},"geometry":{"type":"Point","coordinates":[122.8460678580001,14.047652768000034]}},{"type":"Feature","properties":{"psgc_code":"051604006","name":"Mampurog","level":"barangay-label","municipality_psgc_code":"051604000","municipality_name":"San Lorenzo Ruiz"},"geometry":{"type":"Point","coordinates":[122.88116763600004,14.043495837000052]}},{"type":"Feature","properties":{"psgc_code":"051604007","name":"Manlimonsito","level":"barangay-label","municipality_psgc_code":"051604000","municipality_name":"San Lorenzo Ruiz"},"geometry":{"type":"Point","coordinates":[122.92790872900002,13.965535570000041]}},{"type":"Feature","properties":{"psgc_code":"051604008","name":"Matacong (Pob.)","level":"barangay-label","municipality_psgc_code":"051604000","municipality_name":"San Lorenzo Ruiz"},"geometry":{"type":"Point","coordinates":[122.84316398950011,14.01056871700004]}},{"type":"Feature","properties":{"psgc_code":"051604009","name":"Salvacion","level":"barangay-label","municipality_psgc_code":"051604000","municipality_name":"San Lorenzo Ruiz"},"geometry":{"type":"Point","coordinates":[122.91438890950008,13.948777256500051]}},{"type":"Feature","properties":{"psgc_code":"051604010","name":"San Antonio","level":"barangay-label","municipality_psgc_code":"051604000","municipality_name":"San Lorenzo Ruiz"},"geometry":{"type":"Point","coordinates":[122.90884076800006,13.94416241600004]}},{"type":"Feature","properties":{"psgc_code":"051604011","name":"San Isidro","level":"barangay-label","municipality_psgc_code":"051604000","municipality_name":"San Lorenzo Ruiz"},"geometry":{"type":"Point","coordinates":[122.86798190200001,13.984238332500041]}},{"type":"Feature","properties":{"psgc_code":"051604012","name":"San Ramon","level":"barangay-label","municipality_psgc_code":"051604000","municipality_name":"San Lorenzo Ruiz"},"geometry":{"type":"Point","coordinates":[122.89646402450006,13.968251742000064]}}]}
