{"type":"FeatureCollection","features":[{"type":"Feature","properties":{"psgc_code":"051609001","name":"Asdum","level":"barangay-label","municipality_psgc_code":"051609000","municipality_name":"San Vicente"},"geometry":{"type":"Point","coordinates":[122.85254222000003,14.091734281500067]}},{"type":"Feature","properties":{"psgc_code":"051609002","name":"Cabanbanan","level":"barangay-label","municipality_psgc_code":"051609000","municipality_name":"San Vicente"},"geometry":{"type":"Point","coordinates":[122.88471392800005,14.120773731000043]}},{"type":"Feature","properties":{"psgc_code":"051609003","name":"Calabagas","level":"barangay-label","municipality_psgc_code":"051609000","municipality_name":"San Vicente"},"geometry":{"type":"Point","coordinates":[122.86893907700005,14.122517977500053]}},{"type":"Feature","properties":{"psgc_code":"051609004","name":"Fabrica","level":"barangay-label","municipality_psgc_code":"051609000","municipality_name":"San Vicente"},"geometry":{"type":"Point","coordinates":[122.84535441700007,14.075862314500055]}},{"type":"Feature","properties":{"psgc_code":"051609005","name":"Iraya Sur","level":"barangay-label","municipality_psgc_code":"051609000","municipality_name":"San Vicente"},"geometry":{"type":"Point","coordinates":[122.84418985950009,14.048434322000046]}},{"type":"Feature","properties":{"psgc_code":"051609006","name":"Man-Ogob","level":"barangay-label","municipality_psgc_code":"051609000","municipality_name":"San Vicente"},"geometry":{"type":"Point","coordinates":[122.88478158300006,14.088790137500066]}},{"type":"Feature","properties":{"psgc_code":"051609007","name":"Poblacion District I","level":"barangay-label","municipality_psgc_code":"051609000","municipality_name":"San Vicente"},"geometry":{"type":"Point","coordinates":[122.87268824350002,14.105165587000043]}},{"type":"Feature","properties":{"psgc_code":"051609008","name":"Poblacion District II","level":"barangay-label","municipality_psgc_code":"051609000","municipality_name":"San Vicente"},"geometry":{"type":"Point","coordinates":[122.86983612600005,14.107984874000033]}},{"type":"Feature","properties":{"psgc_code":"051609009","name":"San Jose","level":"barangay-label","municipality_psgc_code":"051609000","municipality_name":"San Vicente"},"geometry":{"type":"Point","coordinates":[122.85613747100007,14.081929904500042]}}]}
