{"type":"FeatureCollection","features":[{"type":"Feature","properties":{"psgc_code":"051611001","name":"Binanuaan","level":"barangay-label","municipality_psgc_code":"051611000","municipality_name":"Talisay"},"geometry":{"type":"Point","coordinates":[122.93912197850011,14.134505260500047]}},{"type":"Feature","properties":{"psgc_code":"051611002","name":"Caawigan","level":"barangay-label","municipality_psgc_code":"051611000","municipality_name":"Talisay"},"geometry":{"type":"Point","coordinates":[122.89647823600006,14.130334861500048]}},{"type":"Feature","properties":{"psgc_code":"051611003","name":"Cahabaan","level":"barangay-label","municipality_psgc_code":"051611000","municipality_name":"Talisay"},"geometry":{"type":"Point","coordinates":[122.91411844350006,14.117843528000066]}},{"type":"Feature","properties":{"psgc_code":"051611004","name":"Calintaan","level":"barangay-label","municipality_psgc_code":"051611000","municipality_name":"Talisay"},"geometry":{"type":"Point","coordinates":[122.92300239950009,14.12522292950004]}},{"type":"Feature","properties":{"psgc_code":"051611005","name":"Del Carmen","level":"barangay-label","municipality_psgc_code":"051611000","municipality_name":"Talisay"},"geometry":{"type":"Point","coordinates":[122.94014397050007,14.164415477000063]}},{"type":"Feature","properties":{"psgc_code":"051611006","name":"Gabon","level":"barangay-label","municipality_psgc_code":"051611000","municipality_name":"Talisay"},"geometry":{"type":"Point","coordinates":[122.91196075700003,14.12756535750006]}},{"type":"Feature","properties":{"psgc_code":"051611007","name":"Itomang","level":"barangay-label","municipality_psgc_code":"051611000","municipality_name":"Talisay"},"geometry":{"type":"Point","coordinates":[122.93325876750009,14.125421033000036]}},{"type":"Feature","properties":{"psgc_code":"051611008","name":"Poblacion","level":"barangay-label","municipality_psgc_code":"051611000","municipality_name":"Talisay"},"geometry":{"type":"Point","coordinates":[122.9222850055001,14.134754478500042]}},{"type":"Feature","properties":{"psgc_code":"051611009","name":"San Francisco","level":"barangay-label","municipality_psgc_code":"051611000","municipality_name":"Talisay"},"geometry":{"type":"Point","coordinates":[122.93568366200009,14.145076440500048]}},{"type":"Feature","properties":{"psgc_code":"051611010","name":"San Isidro","level":"barangay-label","municipality_psgc_code":"051611000","municipality_name":"Talisay"},"geometry":{"type":"Point","coordinates":[122.9053211475001,14.142541638500035]}},{"type":"Feature","properties":{"psgc_code":"051611011","name":"San Jose","level":"barangay-label","municipality_psgc_code":"051611000","municipality_name":"Talisay"},"geometry":{"type":"Point","coordinates":[122.95409502050006,14.154297698500045]}},{"type":"Feature","properties":{"psgc_code":"051611012","name":"San Nicolas","level":"barangay-label","municipality_psgc_code":"051611000","municipality_name":"Talisay"},"geometry":{"type":"Point","coordinates":[122.95892510200008,14.142960753500063]}},{"type":"Feature","properties":{"psgc_code":"051611013","name":"Santa Cruz","level":"barangay-label","municipality_psgc_code":"051611000","municipality_name":"Talisay"},"geometry":{"type":"Point","coordinates":[122.89840436650007,14.120758324000034]}},{"type":"Feature","properties":{"psgc_code":"051611014","name":"Santa Elena","level":"barangay-label","municipality_psgc_code":"051611000","municipality_name":"Talisay"},"geometry":{"type":"Point","coordinates":[122.92835466500003,14.15402547450003]}},{"type":"Feature","properties":{"psgc_code":"051611015","name":"Santo Ni\u00f1o","level":"barangay-label","municipality_psgc_code":"051611000","municipality_name":"Talisay"},"geometry":{"type":"Point","coordinates":[122.91603595550009,14.142548834000022]}}]}
