{"type":"FeatureCollection","features":[{"type":"Feature","properties":{"psgc_code":"051601001","name":"Angas","level":"barangay-label","municipality_psgc_code":"051601000","municipality_name":"Basud"},"geometry":{"type":"Point","coordinates":[123.01635616800007,14.05918230150004]}},{"type":"Feature","properties":{"psgc_code":"051601002","name":"Bactas","level":"barangay-label","municipality_psgc_code":"051601000","municipality_name":"Basud"},"geometry":{"type":"Point","coordinates":[122.9686296650001,14.080141611500066]}},{"type":"Feature","properties":{"psgc_code":"051601003","name":"Binatagan","level":"barangay-label","municipality_psgc_code":"051601000","municipality_name":"Basud"},"geometry":{"type":"Point","coordinates":[122.91096446650005,14.027112638000062]}},{"type":"Feature","properties":{"psgc_code":"051601004","name":"Caayunan","level":"barangay-label","municipality_psgc_code":"051601000","municipality_name":"Basud"},"geometry":{"type":"Point","coordinates":[122.9532132115001,13.991682372000072]}},{"type":"Feature","properties":{"psgc_code":"051601005","name":"Guinatungan","level":"barangay-label","municipality_psgc_code":"051601000","municipality_name":"Basud"},"geometry":{"type":"Point","coordinates":[122.89522612800005,14.006876017500048]}},{"type":"Feature","properties":{"psgc_code":"051601006","name":"Hinampacan","level":"barangay-label","municipality_psgc_code":"051601000","municipality_name":"Basud"},"geometry":{"type":"Point","coordinates":[122.99709386050006,14.072583962000067]}},{"type":"Feature","properties":{"psgc_code":"051601007","name":"Langa","level":"barangay-label","municipality_psgc_code":"051601000","municipality_name":"Basud"},"geometry":{"type":"Point","coordinates":[122.92538861150008,14.043170947500041]}},{"type":"Feature","properties":{"psgc_code":"051601008","name":"Laniton","level":"barangay-label","municipality_psgc_code":"051601000","municipality_name":"Basud"},"geometry":{"type":"Point","coordinates":[122.93615434550003,14.055562650500036]}},{"type":"Feature","properties":{"psgc_code":"051601009","name":"Lidong","level":"barangay-label","municipality_psgc_code":"051601000","municipality_name":"Basud"},"geometry":{"type":"Point","coordinates":[123.01201116500005,14.011534102500036]}},{"type":"Feature","properties":{"psgc_code":"051601010","name":"Mampili","level":"barangay-label","municipality_psgc_code":"051601000","municipality_name":"Basud"},"geometry":{"type":"Point","coordinates":[122.98241132700002,14.076997638000051]}},{"type":"Feature","properties":{"psgc_code":"051601011","name":"Mandazo","level":"barangay-label","municipality_psgc_code":"051601000","municipality_name":"Basud"},"geometry":{"type":"Point","coordinates":[123.01099708200002,14.033383709000049]}},{"type":"Feature","properties":{"psgc_code":"051601012","name":"Mangcamagong","level":"barangay-label","municipality_psgc_code":"051601000","municipality_name":"Basud"},"geometry":{"type":"Point","coordinates":[123.02483016800005,14.034821779500048]}},{"type":"Feature","properties":{"psgc_code":"051601014","name":"Manmuntay","level":"barangay-label","municipality_psgc_code":"051601000","municipality_name":"Basud"},"geometry":{"type":"Point","coordinates":[122.97287791700006,14.047173666500044]}},{"type":"Feature","properties":{"psgc_code":"051601015","name":"Mantugawe","level":"barangay-label","municipality_psgc_code":"051601000","municipality_name":"Basud"},"geometry":{"type":"Point","coordinates":[122.93235716250007,14.022469821000042]}},{"type":"Feature","properties":{"psgc_code":"051601016","name":"Matnog","level":"barangay-label","municipality_psgc_code":"051601000","municipality_name":"Basud"},"geometry":{"type":"Point","coordinates":[122.94469997650003,14.073794282500046]}},{"type":"Feature","properties":{"psgc_code":"051601017","name":"Mocong","level":"barangay-label","municipality_psgc_code":"051601000","municipality_name":"Basud"},"geometry":{"type":"Point","coordinates":[122.9752097810001,14.061525161000047]}},{"type":"Feature","properties":{"psgc_code":"051601018","name":"Oliva","level":"barangay-label","municipality_psgc_code":"051601000","municipality_name":"Basud"},"geometry":{"type":"Point","coordinates":[122.98751165150009,14.017981535500038]}},{"type":"Feature","properties":{"psgc_code":"051601019","name":"Pagsangahan","level":"barangay-label","municipality_psgc_code":"051601000","municipality_name":"Basud"},"geometry":{"type":"Point","coordinates":[122.9450401955001,14.030448882500016]}},{"type":"Feature","properties":{"psgc_code":"051601020","name":"Pinagwarasan","level":"barangay-label","municipality_psgc_code":"051601000","municipality_name":"Basud"},"geometry":{"type":"Point","coordinates":[122.98343051250004,14.051921933000045]}},{"type":"Feature","properties":{"psgc_code":"051601021","name":"Plaridel","level":"barangay-label","municipality_psgc_code":"051601000","municipality_name":"Basud"},"geometry":{"type":"Point","coordinates":[122.92193834950007,13.983197293000046]}},{"type":"Feature","properties":{"psgc_code":"051601022","name":"Poblacion 1","level":"barangay-label","municipality_psgc_code":"051601000","municipality_name":"Basud"},"geometry":{"type":"Point","coordinates":[122.96783099900006,14.064528781500059]}},{"type":"Feature","properties":{"psgc_code":"051601025","name":"San Felipe","level":"barangay-label","municipality_psgc_code":"051601000","municipality_name":"Basud"},"geometry":{"type":"Point","coordinates":[122.94313267250004,14.007726651500066]}},{"type":"Feature","properties":{"psgc_code":"051601027","name":"San Jose","level":"barangay-label","municipality_psgc_code":"051601000","municipality_name":"Basud"},"geometry":{"type":"Point","coordinates":[122.95822470650006,14.040920905000036]}},{"type":"Feature","properties":{"psgc_code":"051601028","name":"San Pascual","level":"barangay-label","municipality_psgc_code":"051601000","municipality_name":"Basud"},"geometry":{"type":"Point","coordinates":[123.01337419850006,13.942262726000052]}},{"type":"Feature","properties":{"psgc_code":"051601030","name":"Taba-taba","level":"barangay-label","municipality_psgc_code":"051601000","municipality_name":"Basud"},"geometry":{"type":"Point","coordinates":[123.02473984850009,14.056697623000048]}},{"type":"Feature","properties":{"psgc_code":"051601031","name":"Tacad","level":"barangay-label","municipality_psgc_code":"051601000","municipality_name":"Basud"},"geometry":{"type":"Point","coordinates":[122.99588381700005,14.063293539000057]}},{"type":"Feature","properties":{"psgc_code":"051601032","name":"Taisan","level":"barangay-label","municipality_psgc_code":"051601000","municipality_name":"Basud"},"geometry":{"type":"Point","coordinates":[122.99790905150007,14.046987660000038]}},{"type":"Feature","properties":{"psgc_code":"051601033","name":"Tuaca","level":"barangay-label","municipality_psgc_code":"051601000","municipality_name":"Basud"},"geometry":{"type":"Point","coordinates":[122.95661842700008,13.935873293500066]}},{"type":"Feature","properties":{"psgc_code":"051601034","name":"Poblacion 2","level":"barangay-label","municipality_psgc_code":"051601000","municipality_name":"Basud"},"geometry":{"type":"Point","coordinates":[122.9614063625001,14.066120991500071]}}]}
