{"type":"FeatureCollection","features":[{"type":"Feature","properties":{"psgc_code":"051603001","name":"Alawihao","level":"barangay-label","municipality_psgc_code":"051603000","municipality_name":"Daet"},"geometry":{"type":"Point","coordinates":[122.92447796750008,14.110174273500062]}},{"type":"Feature","properties":{"psgc_code":"051603002","name":"Awitan","level":"barangay-label","municipality_psgc_code":"051603000","municipality_name":"Daet"},"geometry":{"type":"Point","coordinates":[122.96334329650011,14.139145817500035]}},{"type":"Feature","properties":{"psgc_code":"051603003","name":"Bagasbas","level":"barangay-label","municipality_psgc_code":"051603000","municipality_name":"Daet"},"geometry":{"type":"Point","coordinates":[122.9797338135001,14.136080016500042]}},{"type":"Feature","properties":{"psgc_code":"051603004","name":"Bibirao","level":"barangay-label","municipality_psgc_code":"051603000","municipality_name":"Daet"},"geometry":{"type":"Point","coordinates":[122.92816074400008,14.09609410200005]}},{"type":"Feature","properties":{"psgc_code":"051603005","name":"Borabod","level":"barangay-label","municipality_psgc_code":"051603000","municipality_name":"Daet"},"geometry":{"type":"Point","coordinates":[122.96674762700007,14.127096787000058]}},{"type":"Feature","properties":{"psgc_code":"051603006","name":"Calasgasan","level":"barangay-label","municipality_psgc_code":"051603000","municipality_name":"Daet"},"geometry":{"type":"Point","coordinates":[122.93209617550008,14.079575125000046]}},{"type":"Feature","properties":{"psgc_code":"051603007","name":"Camambugan","level":"barangay-label","municipality_psgc_code":"051603000","municipality_name":"Daet"},"geometry":{"type":"Point","coordinates":[122.94527997600011,14.108674200000053]}},{"type":"Feature","properties":{"psgc_code":"051603008","name":"Cobangbang","level":"barangay-label","municipality_psgc_code":"051603000","municipality_name":"Daet"},"geometry":{"type":"Point","coordinates":[122.96437682200008,14.102225172000033]}},{"type":"Feature","properties":{"psgc_code":"051603012","name":"Dogongan","level":"barangay-label","municipality_psgc_code":"051603000","municipality_name":"Daet"},"geometry":{"type":"Point","coordinates":[122.9041980555001,14.10001011850005]}},{"type":"Feature","properties":{"psgc_code":"051603013","name":"Gahonon","level":"barangay-label","municipality_psgc_code":"051603000","municipality_name":"Daet"},"geometry":{"type":"Point","coordinates":[122.95027324050011,14.127938542000068]}},{"type":"Feature","properties":{"psgc_code":"051603014","name":"Gubat","level":"barangay-label","municipality_psgc_code":"051603000","municipality_name":"Daet"},"geometry":{"type":"Point","coordinates":[122.97466720700002,14.117119779000063]}},{"type":"Feature","properties":{"psgc_code":"051603015","name":"Lag-On","level":"barangay-label","municipality_psgc_code":"051603000","municipality_name":"Daet"},"geometry":{"type":"Point","coordinates":[122.94016465350006,14.115013739000059]}},{"type":"Feature","properties":{"psgc_code":"051603018","name":"Magang","level":"barangay-label","municipality_psgc_code":"051603000","municipality_name":"Daet"},"geometry":{"type":"Point","coordinates":[122.94789844200011,14.095393247500054]}},{"type":"Feature","properties":{"psgc_code":"051603019","name":"Mambalite","level":"barangay-label","municipality_psgc_code":"051603000","municipality_name":"Daet"},"geometry":{"type":"Point","coordinates":[122.98381730250004,14.09454252650005]}},{"type":"Feature","properties":{"psgc_code":"051603021","name":"Mancruz","level":"barangay-label","municipality_psgc_code":"051603000","municipality_name":"Daet"},"geometry":{"type":"Point","coordinates":[122.95171131350008,14.089040195000052]}},{"type":"Feature","properties":{"psgc_code":"051603023","name":"Pamorangon","level":"barangay-label","municipality_psgc_code":"051603000","municipality_name":"Daet"},"geometry":{"type":"Point","coordinates":[122.96533638950007,14.09385438250004]}},{"type":"Feature","properties":{"psgc_code":"051603024","name":"Barangay I (Pob.)","level":"barangay-label","municipality_psgc_code":"051603000","municipality_name":"Daet"},"geometry":{"type":"Point","coordinates":[122.95978195100008,14.11169007050006]}},{"type":"Feature","properties":{"psgc_code":"051603025","name":"Barangay II (Pob.)","level":"barangay-label","municipality_psgc_code":"051603000","municipality_name":"Daet"},"geometry":{"type":"Point","coordinates":[122.95548879450007,14.106953088000067]}},{"type":"Feature","properties":{"psgc_code":"051603026","name":"Barangay III (Pob.)","level":"barangay-label","municipality_psgc_code":"051603000","municipality_name":"Daet"},"geometry":{"type":"Point","coordinates":[122.95407007550006,14.111251823500027]}},{"type":"Feature","properties":{"psgc_code":"051603027","name":"Barangay IV (Pob.)","level":"barangay-label","municipality_psgc_code":"051603000","municipality_name":"Daet"},"geometry":{"type":"Point","coordinates":[122.94992090000005,14.116452678000059]}},{"type":"Feature","properties":{"psgc_code":"051603028","name":"Barangay V (Pob.)","level":"barangay-label","municipality_psgc_code":"051603000","municipality_name":"Daet"},"geometry":{"type":"Point","coordinates":[122.95290982300008,14.119709748500041]}},{"type":"Feature","properties":{"psgc_code":"051603029","name":"Barangay VI (Pob.)","level":"barangay-label","municipality_psgc_code":"051603000","municipality_name":"Daet"},"geometry":{"type":"Point","coordinates":[122.95691263000003,14.117788715500067]}},{"type":"Feature","properties":{"psgc_code":"051603030","name":"Barangay VII (Pob.)","level":"barangay-label","municipality_psgc_code":"051603000","municipality_name":"Daet"},"geometry":{"type":"Point","coordinates":[122.96050891250007,14.117477193000042]}},{"type":"Feature","properties":{"psgc_code":"051603031","name":"Barangay VIII (Pob.)","level":"barangay-label","municipality_psgc_code":"051603000","municipality_name":"Daet"},"geometry":{"type":"Point","coordinates":[122.96007656600005,14.114165698500045]}},{"type":"Feature","properties":{"psgc_code":"051603032","name":"San Isidro","level":"barangay-label","municipality_psgc_code":"051603000","municipality_name":"Daet"},"geometry":{"type":"Point","coordinates":[122.97891681200008,14.104857447000057]}}]}
