{"type":"FeatureCollection","features":[{"type":"Feature","properties":{"psgc_code":"051612001","name":"Aguit-It","level":"barangay-label","municipality_psgc_code":"051612000","municipality_name":"Vinzons"},"geometry":{"type":"Point","coordinates":[122.88266889900007,14.241617717500048]}},{"type":"Feature","properties":{"psgc_code":"051612002","name":"Banocboc","level":"barangay-label","municipality_psgc_code":"051612000","municipality_name":"Vinzons"},"geometry":{"type":"Point","coordinates":[122.97064972300007,14.410970933000048]}},{"type":"Feature","properties":{"psgc_code":"051612004","name":"Cagbalogo","level":"barangay-label","municipality_psgc_code":"051612000","municipality_name":"Vinzons"},"geometry":{"type":"Point","coordinates":[122.89298390100004,14.206332076000049]}},{"type":"Feature","properties":{"psgc_code":"051612005","name":"Calangcawan Norte","level":"barangay-label","municipality_psgc_code":"051612000","municipality_name":"Vinzons"},"geometry":{"type":"Point","coordinates":[122.92062197500007,14.183271111500062]}},{"type":"Feature","properties":{"psgc_code":"051612006","name":"Calangcawan Sur","level":"barangay-label","municipality_psgc_code":"051612000","municipality_name":"Vinzons"},"geometry":{"type":"Point","coordinates":[122.92326636700011,14.173039954500041]}},{"type":"Feature","properties":{"psgc_code":"051612007","name":"Guinacutan","level":"barangay-label","municipality_psgc_code":"051612000","municipality_name":"Vinzons"},"geometry":{"type":"Point","coordinates":[122.88457358250002,14.164875390000045]}},{"type":"Feature","properties":{"psgc_code":"051612008","name":"Mangcayo","level":"barangay-label","municipality_psgc_code":"051612000","municipality_name":"Vinzons"},"geometry":{"type":"Point","coordinates":[122.90187170200005,14.188927396000054]}},{"type":"Feature","properties":{"psgc_code":"051612009","name":"Mangcawayan","level":"barangay-label","municipality_psgc_code":"051612000","municipality_name":"Vinzons"},"geometry":{"type":"Point","coordinates":[122.94425768400009,14.480096387000035]}},{"type":"Feature","properties":{"psgc_code":"051612010","name":"Manlucugan","level":"barangay-label","municipality_psgc_code":"051612000","municipality_name":"Vinzons"},"geometry":{"type":"Point","coordinates":[122.86017005050009,14.25173495450005]}},{"type":"Feature","properties":{"psgc_code":"051612011","name":"Matango","level":"barangay-label","municipality_psgc_code":"051612000","municipality_name":"Vinzons"},"geometry":{"type":"Point","coordinates":[122.87228135900006,14.224104075000042]}},{"type":"Feature","properties":{"psgc_code":"051612012","name":"Napilihan","level":"barangay-label","municipality_psgc_code":"051612000","municipality_name":"Vinzons"},"geometry":{"type":"Point","coordinates":[122.87491771300006,14.18182230000005]}},{"type":"Feature","properties":{"psgc_code":"051612013","name":"Pinagtigasan","level":"barangay-label","municipality_psgc_code":"051612000","municipality_name":"Vinzons"},"geometry":{"type":"Point","coordinates":[122.92197294950006,14.471941704000045]}},{"type":"Feature","properties":{"psgc_code":"051612014","name":"Barangay I (Pob.)","level":"barangay-label","municipality_psgc_code":"051612000","municipality_name":"Vinzons"},"geometry":{"type":"Point","coordinates":[122.91005875100008,14.174297864000039]}},{"type":"Feature","properties":{"psgc_code":"051612015","name":"Barangay II (Pob.)","level":"barangay-label","municipality_psgc_code":"051612000","municipality_name":"Vinzons"},"geometry":{"type":"Point","coordinates":[122.90736459700003,14.173346434000024]}},{"type":"Feature","properties":{"psgc_code":"051612016","name":"Barangay III (Pob.)","level":"barangay-label","municipality_psgc_code":"051612000","municipality_name":"Vinzons"},"geometry":{"type":"Point","coordinates":[122.90512915500005,14.173424126500036]}},{"type":"Feature","properties":{"psgc_code":"051612017","name":"Sabang","level":"barangay-label","municipality_psgc_code":"051612000","municipality_name":"Vinzons"},"geometry":{"type":"Point","coordinates":[122.90845505450005,14.219629865500053]}},{"type":"Feature","properties":{"psgc_code":"051612018","name":"Santo Domingo","level":"barangay-label","municipality_psgc_code":"051612000","municipality_name":"Vinzons"},"geometry":{"type":"Point","coordinates":[122.88748132700005,14.145977179000056]}},{"type":"Feature","properties":{"psgc_code":"051612019","name":"Singi","level":"barangay-label","municipality_psgc_code":"051612000","municipality_name":"Vinzons"},"geometry":{"type":"Point","coordinates":[122.87057926450007,14.204624828000023]}},{"type":"Feature","properties":{"psgc_code":"051612020","name":"Sula","level":"barangay-label","municipality_psgc_code":"051612000","municipality_name":"Vinzons"},"geometry":{"type":"Point","coordinates":[122.93437829450005,14.207785398500052]}}]}
