{"type":"FeatureCollection","features":[{"type":"Feature","properties":{"psgc_code":"051610001","name":"Basiad","level":"barangay-label","municipality_psgc_code":"051610000","municipality_name":"Santa Elena"},"geometry":{"type":"Point","coordinates":[122.34913638400008,14.178716768500038]}},{"type":"Feature","properties":{"psgc_code":"051610002","name":"Bulala","level":"barangay-label","municipality_psgc_code":"051610000","municipality_name":"Santa Elena"},"geometry":{"type":"Point","coordinates":[122.44206686850009,14.207606365000032]}},{"type":"Feature","properties":{"psgc_code":"051610003","name":"Polungguitguit","level":"barangay-label","municipality_psgc_code":"051610000","municipality_name":"Santa Elena"},"geometry":{"type":"Point","coordinates":[122.36782835150007,14.208047276500054]}},{"type":"Feature","properties":{"psgc_code":"051610004","name":"Rizal","level":"barangay-label","municipality_psgc_code":"051610000","municipality_name":"Santa Elena"},"geometry":{"type":"Point","coordinates":[122.40887373900006,14.203273826000043]}},{"type":"Feature","properties":{"psgc_code":"051610005","name":"Salvacion","level":"barangay-label","municipality_psgc_code":"051610000","municipality_name":"Santa Elena"},"geometry":{"type":"Point","coordinates":[122.37959102450003,14.234195436500045]}},{"type":"Feature","properties":{"psgc_code":"051610006","name":"San Lorenzo","level":"barangay-label","municipality_psgc_code":"051610000","municipality_name":"Santa Elena"},"geometry":{"type":"Point","coordinates":[122.39211370700008,14.22209572400007]}},{"type":"Feature","properties":{"psgc_code":"051610007","name":"San Pedro","level":"barangay-label","municipality_psgc_code":"051610000","municipality_name":"Santa Elena"},"geometry":{"type":"Point","coordinates":[122.41164932950011,14.149723667000048]}},{"type":"Feature","properties":{"psgc_code":"051610008","name":"San Vicente","level":"barangay-label","municipality_psgc_code":"051610000","municipality_name":"Santa Elena"},"geometry":{"type":"Point","coordinates":[122.37748135800008,14.174589001500065]}},{"type":"Feature","properties":{"psgc_code":"051610009","name":"Santa Elena (Pob.)","level":"barangay-label","municipality_psgc_code":"051610000","municipality_name":"Santa Elena"},"geometry":{"type":"Point","coordinates":[122.37894287200004,14.186709498500049]}},{"type":"Feature","properties":{"psgc_code":"051610010","name":"Villa San Isidro","level":"barangay-label","municipality_psgc_code":"051610000","municipality_name":"Santa Elena"},"geometry":{"type":"Point","coordinates":[122.42101570300004,14.164596092500034]}},{"type":"Feature","properties":{"psgc_code":"051610011","name":"Don Tomas","level":"barangay-label","municipality_psgc_code":"051610000","municipality_name":"Santa Elena"},"geometry":{"type":"Point","coordinates":[122.37912114000005,14.09360038400007]}},{"type":"Feature","properties":{"psgc_code":"051610012","name":"Guitol","level":"barangay-label","municipality_psgc_code":"051610000","municipality_name":"Santa Elena"},"geometry":{"type":"Point","coordinates":[122.42055236800007,14.122656666500035]}},{"type":"Feature","properties":{"psgc_code":"051610013","name":"Kabuluan","level":"barangay-label","municipality_psgc_code":"051610000","municipality_name":"Santa Elena"},"geometry":{"type":"Point","coordinates":[122.36664665100005,14.113725201000053]}},{"type":"Feature","properties":{"psgc_code":"051610014","name":"Kagtalaba","level":"barangay-label","municipality_psgc_code":"051610000","municipality_name":"Santa Elena"},"geometry":{"type":"Point","coordinates":[122.36126249450007,14.153498452500031]}},{"type":"Feature","properties":{"psgc_code":"051610015","name":"Maulawin","level":"barangay-label","municipality_psgc_code":"051610000","municipality_name":"Santa Elena"},"geometry":{"type":"Point","coordinates":[122.34156442650004,14.090929350500033]}},{"type":"Feature","properties":{"psgc_code":"051610016","name":"Patag Ibaba","level":"barangay-label","municipality_psgc_code":"051610000","municipality_name":"Santa Elena"},"geometry":{"type":"Point","coordinates":[122.31334755050005,14.08687053950004]}},{"type":"Feature","properties":{"psgc_code":"051610017","name":"Patag Iraya","level":"barangay-label","municipality_psgc_code":"051610000","municipality_name":"Santa Elena"},"geometry":{"type":"Point","coordinates":[122.33446990100009,14.077454351000053]}},{"type":"Feature","properties":{"psgc_code":"051610018","name":"Plaridel","level":"barangay-label","municipality_psgc_code":"051610000","municipality_name":"Santa Elena"},"geometry":{"type":"Point","coordinates":[122.4015507045001,14.133000025500024]}},{"type":"Feature","properties":{"psgc_code":"051610019","name":"Tabugon","level":"barangay-label","municipality_psgc_code":"051610000","municipality_name":"Santa Elena"},"geometry":{"type":"Point","coordinates":[122.37565587900002,14.07546306900005]}}]}
