{"type":"FeatureCollection","features":[{"type":"Feature","properties":{"psgc_code":"051608001","name":"Awitan","level":"barangay-label","municipality_psgc_code":"051608000","municipality_name":"Paracale"},"geometry":{"type":"Point","coordinates":[122.84977275100005,14.22066847800005]}},{"type":"Feature","properties":{"psgc_code":"051608002","name":"Bagumbayan","level":"barangay-label","municipality_psgc_code":"051608000","municipality_name":"Paracale"},"geometry":{"type":"Point","coordinates":[122.78008057250008,14.300478269000052]}},{"type":"Feature","properties":{"psgc_code":"051608003","name":"Bakal","level":"barangay-label","municipality_psgc_code":"051608000","municipality_name":"Paracale"},"geometry":{"type":"Point","coordinates":[122.84269761300004,14.274725499000054]}},{"type":"Feature","properties":{"psgc_code":"051608004","name":"Batobalani","level":"barangay-label","municipality_psgc_code":"051608000","municipality_name":"Paracale"},"geometry":{"type":"Point","coordinates":[122.71319095800004,14.214996754000055]}},{"type":"Feature","properties":{"psgc_code":"051608005","name":"Calaburnay","level":"barangay-label","municipality_psgc_code":"051608000","municipality_name":"Paracale"},"geometry":{"type":"Point","coordinates":[122.81092149400006,14.242378872000044]}},{"type":"Feature","properties":{"psgc_code":"051608006","name":"Capacuan","level":"barangay-label","municipality_psgc_code":"051608000","municipality_name":"Paracale"},"geometry":{"type":"Point","coordinates":[122.73485424400008,14.248981552000032]}},{"type":"Feature","properties":{"psgc_code":"051608007","name":"Casalugan","level":"barangay-label","municipality_psgc_code":"051608000","municipality_name":"Paracale"},"geometry":{"type":"Point","coordinates":[122.76295285350011,14.300147414000069]}},{"type":"Feature","properties":{"psgc_code":"051608008","name":"Dagang","level":"barangay-label","municipality_psgc_code":"051608000","municipality_name":"Paracale"},"geometry":{"type":"Point","coordinates":[122.75810536250009,14.237994963000032]}},{"type":"Feature","properties":{"psgc_code":"051608009","name":"Dalnac","level":"barangay-label","municipality_psgc_code":"051608000","municipality_name":"Paracale"},"geometry":{"type":"Point","coordinates":[122.76737965850005,14.211572313500056]}},{"type":"Feature","properties":{"psgc_code":"051608010","name":"Dancalan","level":"barangay-label","municipality_psgc_code":"051608000","municipality_name":"Paracale"},"geometry":{"type":"Point","coordinates":[122.84583863850008,14.227702453000031]}},{"type":"Feature","properties":{"psgc_code":"051608011","name":"Gumaus","level":"barangay-label","municipality_psgc_code":"051608000","municipality_name":"Paracale"},"geometry":{"type":"Point","coordinates":[122.74174493100003,14.294096563000037]}},{"type":"Feature","properties":{"psgc_code":"051608012","name":"Labnig","level":"barangay-label","municipality_psgc_code":"051608000","municipality_name":"Paracale"},"geometry":{"type":"Point","coordinates":[122.81616666150006,14.273511695500048]}},{"type":"Feature","properties":{"psgc_code":"051608013","name":"Macolabo Island","level":"barangay-label","municipality_psgc_code":"051608000","municipality_name":"Paracale"},"geometry":{"type":"Point","coordinates":[122.81134002100003,14.402109076000045]}},{"type":"Feature","properties":{"psgc_code":"051608014","name":"Malacbang","level":"barangay-label","municipality_psgc_code":"051608000","municipality_name":"Paracale"},"geometry":{"type":"Point","coordinates":[122.80509986600003,14.216923377000057]}},{"type":"Feature","properties":{"psgc_code":"051608015","name":"Malaguit","level":"barangay-label","municipality_psgc_code":"051608000","municipality_name":"Paracale"},"geometry":{"type":"Point","coordinates":[122.79630758200005,14.270297080500029]}},{"type":"Feature","properties":{"psgc_code":"051608016","name":"Mampungo","level":"barangay-label","municipality_psgc_code":"051608000","municipality_name":"Paracale"},"geometry":{"type":"Point","coordinates":[122.84423273100009,14.241875022500038]}},{"type":"Feature","properties":{"psgc_code":"051608017","name":"Mangkasay","level":"barangay-label","municipality_psgc_code":"051608000","municipality_name":"Paracale"},"geometry":{"type":"Point","coordinates":[122.81950647050006,14.253694695000032]}},{"type":"Feature","properties":{"psgc_code":"051608018","name":"Maybato","level":"barangay-label","municipality_psgc_code":"051608000","municipality_name":"Paracale"},"geometry":{"type":"Point","coordinates":[122.74010258500005,14.218203444000068]}},{"type":"Feature","properties":{"psgc_code":"051608019","name":"Palanas","level":"barangay-label","municipality_psgc_code":"051608000","municipality_name":"Paracale"},"geometry":{"type":"Point","coordinates":[122.79281175200009,14.281322273500049]}},{"type":"Feature","properties":{"psgc_code":"051608020","name":"Pinagbirayan Malaki","level":"barangay-label","municipality_psgc_code":"051608000","municipality_name":"Paracale"},"geometry":{"type":"Point","coordinates":[122.78992606500003,14.242847896500052]}},{"type":"Feature","properties":{"psgc_code":"051608021","name":"Pinagbirayan Munti","level":"barangay-label","municipality_psgc_code":"051608000","municipality_name":"Paracale"},"geometry":{"type":"Point","coordinates":[122.76823914350008,14.229571241500054]}},{"type":"Feature","properties":{"psgc_code":"051608022","name":"Poblacion Norte","level":"barangay-label","municipality_psgc_code":"051608000","municipality_name":"Paracale"},"geometry":{"type":"Point","coordinates":[122.78803097200006,14.28208102350004]}},{"type":"Feature","properties":{"psgc_code":"051608023","name":"Poblacion Sur","level":"barangay-label","municipality_psgc_code":"051608000","municipality_name":"Paracale"},"geometry":{"type":"Point","coordinates":[122.78607037950009,14.278919099500058]}},{"type":"Feature","properties":{"psgc_code":"051608024","name":"Tabas","level":"barangay-label","municipality_psgc_code":"051608000","municipality_name":"Paracale"},"geometry":{"type":"Point","coordinates":[122.84000541200004,14.256736015500053]}},{"type":"Feature","properties":{"psgc_code":"051608025","name":"Talusan","level":"barangay-label","municipality_psgc_code":"051608000","municipality_name":"Paracale"},"geometry":{"type":"Point","coordinates":[122.77306070600002,14.245286927500047]}},{"type":"Feature","properties":{"psgc_code":"051608026","name":"Tawig","level":"barangay-label","municipality_psgc_code":"051608000","municipality_name":"Paracale"},"geometry":{"type":"Point","coordinates":[122.75565425000002,14.258714270000041]}},{"type":"Feature","properties":{"psgc_code":"051608027","name":"Tugos","level":"barangay-label","municipality_psgc_code":"051608000","municipality_name":"Paracale"},"geometry":{"type":"Point","coordinates":[122.77885692050006,14.268041337500051]}}]}
