{"type":"FeatureCollection","features":[{"type":"Feature","properties":{"psgc_code":"051602001","name":"Alayao","level":"barangay-label","municipality_psgc_code":"051602000","municipality_name":"Capalonga"},"geometry":{"type":"Point","coordinates":[122.55583666100006,14.287570781000056]}},{"type":"Feature","properties":{"psgc_code":"051602002","name":"Binawangan","level":"barangay-label","municipality_psgc_code":"051602000","municipality_name":"Capalonga"},"geometry":{"type":"Point","coordinates":[122.41511585300003,14.287587868000031]}},{"type":"Feature","properties":{"psgc_code":"051602003","name":"Calabaca","level":"barangay-label","municipality_psgc_code":"051602000","municipality_name":"Capalonga"},"geometry":{"type":"Point","coordinates":[122.43480529450007,14.29669799450005]}},{"type":"Feature","properties":{"psgc_code":"051602004","name":"Camagsaan","level":"barangay-label","municipality_psgc_code":"051602000","municipality_name":"Capalonga"},"geometry":{"type":"Point","coordinates":[122.47203042150005,14.319116545500064]}},{"type":"Feature","properties":{"psgc_code":"051602005","name":"Catabaguangan","level":"barangay-label","municipality_psgc_code":"051602000","municipality_name":"Capalonga"},"geometry":{"type":"Point","coordinates":[122.53804686100007,14.29420897750003]}},{"type":"Feature","properties":{"psgc_code":"051602006","name":"Catioan","level":"barangay-label","municipality_psgc_code":"051602000","municipality_name":"Capalonga"},"geometry":{"type":"Point","coordinates":[122.5027234100001,14.319152592500044]}},{"type":"Feature","properties":{"psgc_code":"051602007","name":"Del Pilar","level":"barangay-label","municipality_psgc_code":"051602000","municipality_name":"Capalonga"},"geometry":{"type":"Point","coordinates":[122.38486856550008,14.262290130500077]}},{"type":"Feature","properties":{"psgc_code":"051602008","name":"Itok","level":"barangay-label","municipality_psgc_code":"051602000","municipality_name":"Capalonga"},"geometry":{"type":"Point","coordinates":[122.47764997700006,14.291651187500037]}},{"type":"Feature","properties":{"psgc_code":"051602009","name":"Lucbanan","level":"barangay-label","municipality_psgc_code":"051602000","municipality_name":"Capalonga"},"geometry":{"type":"Point","coordinates":[122.49725264700004,14.254108025000049]}},{"type":"Feature","properties":{"psgc_code":"051602010","name":"Mabini","level":"barangay-label","municipality_psgc_code":"051602000","municipality_name":"Capalonga"},"geometry":{"type":"Point","coordinates":[122.44950486100004,14.276015662000047]}},{"type":"Feature","properties":{"psgc_code":"051602011","name":"Mactang","level":"barangay-label","municipality_psgc_code":"051602000","municipality_name":"Capalonga"},"geometry":{"type":"Point","coordinates":[122.44805323800011,14.30649916450005]}},{"type":"Feature","properties":{"psgc_code":"051602012","name":"Mataque","level":"barangay-label","municipality_psgc_code":"051602000","municipality_name":"Capalonga"},"geometry":{"type":"Point","coordinates":[122.51020694400006,14.284034319500023]}},{"type":"Feature","properties":{"psgc_code":"051602013","name":"Old Camp","level":"barangay-label","municipality_psgc_code":"051602000","municipality_name":"Capalonga"},"geometry":{"type":"Point","coordinates":[122.55716892950011,14.25826489700006]}},{"type":"Feature","properties":{"psgc_code":"051602014","name":"Poblacion","level":"barangay-label","municipality_psgc_code":"051602000","municipality_name":"Capalonga"},"geometry":{"type":"Point","coordinates":[122.49537189350008,14.332851506500049]}},{"type":"Feature","properties":{"psgc_code":"051602015","name":"Magsaysay","level":"barangay-label","municipality_psgc_code":"051602000","municipality_name":"Capalonga"},"geometry":{"type":"Point","coordinates":[122.55643572900004,14.230404721000042]}},{"type":"Feature","properties":{"psgc_code":"051602016","name":"San Antonio","level":"barangay-label","municipality_psgc_code":"051602000","municipality_name":"Capalonga"},"geometry":{"type":"Point","coordinates":[122.45231866900008,14.250507105500047]}},{"type":"Feature","properties":{"psgc_code":"051602017","name":"San Isidro","level":"barangay-label","municipality_psgc_code":"051602000","municipality_name":"Capalonga"},"geometry":{"type":"Point","coordinates":[122.52760041550005,14.329929736000054]}},{"type":"Feature","properties":{"psgc_code":"051602018","name":"San Roque","level":"barangay-label","municipality_psgc_code":"051602000","municipality_name":"Capalonga"},"geometry":{"type":"Point","coordinates":[122.55743771250002,14.317549300000055]}},{"type":"Feature","properties":{"psgc_code":"051602019","name":"Tanawan","level":"barangay-label","municipality_psgc_code":"051602000","municipality_name":"Capalonga"},"geometry":{"type":"Point","coordinates":[122.55305750950004,14.216326492000064]}},{"type":"Feature","properties":{"psgc_code":"051602020","name":"Ubang","level":"barangay-label","municipality_psgc_code":"051602000","municipality_name":"Capalonga"},"geometry":{"type":"Point","coordinates":[122.49236137800007,14.315508869500064]}},{"type":"Feature","properties":{"psgc_code":"051602021","name":"Villa Aurora","level":"barangay-label","municipality_psgc_code":"051602000","municipality_name":"Capalonga"},"geometry":{"type":"Point","coordinates":[122.47813358200005,14.224255964000037]}},{"type":"Feature","properties":{"psgc_code":"051602022","name":"Villa Belen","level":"barangay-label","municipality_psgc_code":"051602000","municipality_name":"Capalonga"},"geometry":{"type":"Point","coordinates":[122.42202828150005,14.246919340500057]}}]}
