{"type":"FeatureCollection","features":[{"type":"Feature","properties":{"psgc_code":"051607001","name":"Apuao","level":"barangay-label","municipality_psgc_code":"051607000","municipality_name":"Mercedes"},"geometry":{"type":"Point","coordinates":[123.09927027250006,14.083190647000066]}},{"type":"Feature","properties":{"psgc_code":"051607002","name":"Barangay I (Pob.)","level":"barangay-label","municipality_psgc_code":"051607000","municipality_name":"Mercedes"},"geometry":{"type":"Point","coordinates":[123.00410210450008,14.112055526000063]}},{"type":"Feature","properties":{"psgc_code":"051607003","name":"Barangay II (Pob.)","level":"barangay-label","municipality_psgc_code":"051607000","municipality_name":"Mercedes"},"geometry":{"type":"Point","coordinates":[123.00231978900007,14.108146698000041]}},{"type":"Feature","properties":{"psgc_code":"051607004","name":"Barangay III (Pob.)","level":"barangay-label","municipality_psgc_code":"051607000","municipality_name":"Mercedes"},"geometry":{"type":"Point","coordinates":[123.00707688050005,14.109923841000038]}},{"type":"Feature","properties":{"psgc_code":"051607005","name":"Barangay IV (Pob.)","level":"barangay-label","municipality_psgc_code":"051607000","municipality_name":"Mercedes"},"geometry":{"type":"Point","coordinates":[123.00880767400008,14.108277582000056]}},{"type":"Feature","properties":{"psgc_code":"051607006","name":"Barangay V (Pob.)","level":"barangay-label","municipality_psgc_code":"051607000","municipality_name":"Mercedes"},"geometry":{"type":"Point","coordinates":[123.01054196000007,14.10943789850006]}},{"type":"Feature","properties":{"psgc_code":"051607007","name":"Barangay VI (Pob.)","level":"barangay-label","municipality_psgc_code":"051607000","municipality_name":"Mercedes"},"geometry":{"type":"Point","coordinates":[123.01128755100007,14.110220014000049]}},{"type":"Feature","properties":{"psgc_code":"051607008","name":"Barangay VII (Pob.)","level":"barangay-label","municipality_psgc_code":"051607000","municipality_name":"Mercedes"},"geometry":{"type":"Point","coordinates":[123.01219380150009,14.109976543000045]}},{"type":"Feature","properties":{"psgc_code":"051607009","name":"Caringo","level":"barangay-label","municipality_psgc_code":"051607000","municipality_name":"Mercedes"},"geometry":{"type":"Point","coordinates":[123.10386485100008,14.038537490000063]}},{"type":"Feature","properties":{"psgc_code":"051607010","name":"Catandunganon","level":"barangay-label","municipality_psgc_code":"051607000","municipality_name":"Mercedes"},"geometry":{"type":"Point","coordinates":[123.00309175400008,14.093886995000046]}},{"type":"Feature","properties":{"psgc_code":"051607011","name":"Cayucyucan","level":"barangay-label","municipality_psgc_code":"051607000","municipality_name":"Mercedes"},"geometry":{"type":"Point","coordinates":[123.03744726100007,14.075430424000047]}},{"type":"Feature","properties":{"psgc_code":"051607012","name":"Colasi","level":"barangay-label","municipality_psgc_code":"051607000","municipality_name":"Mercedes"},"geometry":{"type":"Point","coordinates":[123.0718055700001,13.91493009900006]}},{"type":"Feature","properties":{"psgc_code":"051607013","name":"Del Rosario","level":"barangay-label","municipality_psgc_code":"051607000","municipality_name":"Mercedes"},"geometry":{"type":"Point","coordinates":[122.98578367950006,14.115777731500032]}},{"type":"Feature","properties":{"psgc_code":"051607014","name":"Gaboc","level":"barangay-label","municipality_psgc_code":"051607000","municipality_name":"Mercedes"},"geometry":{"type":"Point","coordinates":[123.01970756400004,14.08173433050004]}},{"type":"Feature","properties":{"psgc_code":"051607015","name":"Hamoraon","level":"barangay-label","municipality_psgc_code":"051607000","municipality_name":"Mercedes"},"geometry":{"type":"Point","coordinates":[123.08342618200004,13.889880274500056]}},{"type":"Feature","properties":{"psgc_code":"051607016","name":"Hinipaan","level":"barangay-label","municipality_psgc_code":"051607000","municipality_name":"Mercedes"},"geometry":{"type":"Point","coordinates":[123.04776625750003,13.992212902000063]}},{"type":"Feature","properties":{"psgc_code":"051607017","name":"Lalawigan","level":"barangay-label","municipality_psgc_code":"051607000","municipality_name":"Mercedes"},"geometry":{"type":"Point","coordinates":[123.04983861300008,13.886228290000048]}},{"type":"Feature","properties":{"psgc_code":"051607018","name":"Lanot","level":"barangay-label","municipality_psgc_code":"051607000","municipality_name":"Mercedes"},"geometry":{"type":"Point","coordinates":[123.03557534600003,13.865557159000048]}},{"type":"Feature","properties":{"psgc_code":"051607019","name":"Mambungalon","level":"barangay-label","municipality_psgc_code":"051607000","municipality_name":"Mercedes"},"geometry":{"type":"Point","coordinates":[123.04755105950011,14.105954512500034]}},{"type":"Feature","properties":{"psgc_code":"051607020","name":"Manguisoc","level":"barangay-label","municipality_psgc_code":"051607000","municipality_name":"Mercedes"},"geometry":{"type":"Point","coordinates":[123.02298341850008,14.101818739500033]}},{"type":"Feature","properties":{"psgc_code":"051607021","name":"Masalongsalong","level":"barangay-label","municipality_psgc_code":"051607000","municipality_name":"Mercedes"},"geometry":{"type":"Point","coordinates":[123.05841903750009,13.978257136500048]}},{"type":"Feature","properties":{"psgc_code":"051607022","name":"Matoogtoog","level":"barangay-label","municipality_psgc_code":"051607000","municipality_name":"Mercedes"},"geometry":{"type":"Point","coordinates":[123.03028013000005,14.001765837000049]}},{"type":"Feature","properties":{"psgc_code":"051607023","name":"Pambuhan","level":"barangay-label","municipality_psgc_code":"051607000","municipality_name":"Mercedes"},"geometry":{"type":"Point","coordinates":[123.07400810200005,13.970360024500053]}},{"type":"Feature","properties":{"psgc_code":"051607024","name":"Quinapaguian","level":"barangay-label","municipality_psgc_code":"051607000","municipality_name":"Mercedes"},"geometry":{"type":"Point","coordinates":[123.07247962100007,14.068989721000035]}},{"type":"Feature","properties":{"psgc_code":"051607025","name":"San Roque","level":"barangay-label","municipality_psgc_code":"051607000","municipality_name":"Mercedes"},"geometry":{"type":"Point","coordinates":[122.99694134750007,14.115286006000044]}},{"type":"Feature","properties":{"psgc_code":"051607026","name":"Tarum","level":"barangay-label","municipality_psgc_code":"051607000","municipality_name":"Mercedes"},"geometry":{"type":"Point","coordinates":[123.06552994000009,13.944081916000073]}}]}
