{"type":"FeatureCollection","features":[{"type":"Feature","properties":{"psgc_code":"051605001","name":"Bagong Bayan","level":"barangay-label","municipality_psgc_code":"051605000","municipality_name":"Jose Panganiban"},"geometry":{"type":"Point","coordinates":[122.68727499450006,14.303773031000048]}},{"type":"Feature","properties":{"psgc_code":"051605002","name":"Calero","level":"barangay-label","municipality_psgc_code":"051605000","municipality_name":"Jose Panganiban"},"geometry":{"type":"Point","coordinates":[122.67885862550008,14.284559811000065]}},{"type":"Feature","properties":{"psgc_code":"051605003","name":"Dahican","level":"barangay-label","municipality_psgc_code":"051605000","municipality_name":"Jose Panganiban"},"geometry":{"type":"Point","coordinates":[122.59426070450007,14.316275068500062]}},{"type":"Feature","properties":{"psgc_code":"051605004","name":"Dayhagan","level":"barangay-label","municipality_psgc_code":"051605000","municipality_name":"Jose Panganiban"},"geometry":{"type":"Point","coordinates":[122.63210181850008,14.291554915000034]}},{"type":"Feature","properties":{"psgc_code":"051605005","name":"Larap","level":"barangay-label","municipality_psgc_code":"051605000","municipality_name":"Jose Panganiban"},"geometry":{"type":"Point","coordinates":[122.65054586900004,14.298019379000067]}},{"type":"Feature","properties":{"psgc_code":"051605006","name":"Luklukan Norte","level":"barangay-label","municipality_psgc_code":"051605000","municipality_name":"Jose Panganiban"},"geometry":{"type":"Point","coordinates":[122.6998008870001,14.298851160000057]}},{"type":"Feature","properties":{"psgc_code":"051605007","name":"Luklukan Sur","level":"barangay-label","municipality_psgc_code":"051605000","municipality_name":"Jose Panganiban"},"geometry":{"type":"Point","coordinates":[122.70913194350004,14.319214520500053]}},{"type":"Feature","properties":{"psgc_code":"051605008","name":"Motherlode","level":"barangay-label","municipality_psgc_code":"051605000","municipality_name":"Jose Panganiban"},"geometry":{"type":"Point","coordinates":[122.69888155150011,14.283819772500038]}},{"type":"Feature","properties":{"psgc_code":"051605009","name":"Nakalaya","level":"barangay-label","municipality_psgc_code":"051605000","municipality_name":"Jose Panganiban"},"geometry":{"type":"Point","coordinates":[122.67827240050008,14.275122241500041]}},{"type":"Feature","properties":{"psgc_code":"051605010","name":"Osme\u00f1a","level":"barangay-label","municipality_psgc_code":"051605000","municipality_name":"Jose Panganiban"},"geometry":{"type":"Point","coordinates":[122.68092523300004,14.32648129650005]}},{"type":"Feature","properties":{"psgc_code":"051605011","name":"Pag-Asa","level":"barangay-label","municipality_psgc_code":"051605000","municipality_name":"Jose Panganiban"},"geometry":{"type":"Point","coordinates":[122.66665744500006,14.295605938000051]}},{"type":"Feature","properties":{"psgc_code":"051605012","name":"Parang","level":"barangay-label","municipality_psgc_code":"051605000","municipality_name":"Jose Panganiban"},"geometry":{"type":"Point","coordinates":[122.69219286450004,14.280933390000058]}},{"type":"Feature","properties":{"psgc_code":"051605013","name":"Plaridel","level":"barangay-label","municipality_psgc_code":"051605000","municipality_name":"Jose Panganiban"},"geometry":{"type":"Point","coordinates":[122.69596973600005,14.283358256000039]}},{"type":"Feature","properties":{"psgc_code":"051605014","name":"North Poblacion","level":"barangay-label","municipality_psgc_code":"051605000","municipality_name":"Jose Panganiban"},"geometry":{"type":"Point","coordinates":[122.69275049150006,14.290019675500048]}},{"type":"Feature","properties":{"psgc_code":"051605015","name":"South Poblacion","level":"barangay-label","municipality_psgc_code":"051605000","municipality_name":"Jose Panganiban"},"geometry":{"type":"Point","coordinates":[122.6948177590001,14.287676306500032]}},{"type":"Feature","properties":{"psgc_code":"051605016","name":"Salvacion","level":"barangay-label","municipality_psgc_code":"051605000","municipality_name":"Jose Panganiban"},"geometry":{"type":"Point","coordinates":[122.63289872000007,14.311155445000054]}},{"type":"Feature","properties":{"psgc_code":"051605017","name":"San Isidro","level":"barangay-label","municipality_psgc_code":"051605000","municipality_name":"Jose Panganiban"},"geometry":{"type":"Point","coordinates":[122.65583780000009,14.251100275000054]}},{"type":"Feature","properties":{"psgc_code":"051605018","name":"San Jose","level":"barangay-label","municipality_psgc_code":"051605000","municipality_name":"Jose Panganiban"},"geometry":{"type":"Point","coordinates":[122.60516828450005,14.274752306000039]}},{"type":"Feature","properties":{"psgc_code":"051605019","name":"San Martin","level":"barangay-label","municipality_psgc_code":"051605000","municipality_name":"Jose Panganiban"},"geometry":{"type":"Point","coordinates":[122.5911815935001,14.234395942500043]}},{"type":"Feature","properties":{"psgc_code":"051605020","name":"San Pedro","level":"barangay-label","municipality_psgc_code":"051605000","municipality_name":"Jose Panganiban"},"geometry":{"type":"Point","coordinates":[122.6137872385001,14.220794103000031]}},{"type":"Feature","properties":{"psgc_code":"051605021","name":"San Rafael","level":"barangay-label","municipality_psgc_code":"051605000","municipality_name":"Jose Panganiban"},"geometry":{"type":"Point","coordinates":[122.69298544250006,14.252766613000034]}},{"type":"Feature","properties":{"psgc_code":"051605022","name":"Santa Cruz","level":"barangay-label","municipality_psgc_code":"051605000","municipality_name":"Jose Panganiban"},"geometry":{"type":"Point","coordinates":[122.63290681900008,14.246629449500032]}},{"type":"Feature","properties":{"psgc_code":"051605023","name":"Santa Elena","level":"barangay-label","municipality_psgc_code":"051605000","municipality_name":"Jose Panganiban"},"geometry":{"type":"Point","coordinates":[122.64719904550009,14.275300620500047]}},{"type":"Feature","properties":{"psgc_code":"051605024","name":"Santa Milagrosa","level":"barangay-label","municipality_psgc_code":"051605000","municipality_name":"Jose Panganiban"},"geometry":{"type":"Point","coordinates":[122.66618628000003,14.286844683000027]}},{"type":"Feature","properties":{"psgc_code":"051605025","name":"Santa Rosa Norte","level":"barangay-label","municipality_psgc_code":"051605000","municipality_name":"Jose Panganiban"},"geometry":{"type":"Point","coordinates":[122.71098033900006,14.28402016100003]}},{"type":"Feature","properties":{"psgc_code":"051605026","name":"Santa Rosa Sur","level":"barangay-label","municipality_psgc_code":"051605000","municipality_name":"Jose Panganiban"},"geometry":{"type":"Point","coordinates":[122.71268327800004,14.254090518000053]}},{"type":"Feature","properties":{"psgc_code":"051605027","name":"Tamisan","level":"barangay-label","municipality_psgc_code":"051605000","municipality_name":"Jose Panganiban"},"geometry":{"type":"Point","coordinates":[122.66769143150009,14.215807066000053]}}]}
