{"type":"FeatureCollection","features":[{"type":"Feature","properties":{"psgc_code":"051606001","name":"Anameam","level":"barangay-label","municipality_psgc_code":"051606000","municipality_name":"Labo"},"geometry":{"type":"Point","coordinates":[122.59105466900007,14.164139390500054]}},{"type":"Feature","properties":{"psgc_code":"051606002","name":"Awitan","level":"barangay-label","municipality_psgc_code":"051606000","municipality_name":"Labo"},"geometry":{"type":"Point","coordinates":[122.82984165300007,14.215816424000051]}},{"type":"Feature","properties":{"psgc_code":"051606003","name":"Baay","level":"barangay-label","municipality_psgc_code":"051606000","municipality_name":"Labo"},"geometry":{"type":"Point","coordinates":[122.74047056150005,14.083645588500044]}},{"type":"Feature","properties":{"psgc_code":"051606004","name":"Bagacay","level":"barangay-label","municipality_psgc_code":"051606000","municipality_name":"Labo"},"geometry":{"type":"Point","coordinates":[122.83134592650009,14.201920690500057]}},{"type":"Feature","properties":{"psgc_code":"051606005","name":"Bagong Silang I","level":"barangay-label","municipality_psgc_code":"051606000","municipality_name":"Labo"},"geometry":{"type":"Point","coordinates":[122.62667649550006,14.176418444000035]}},{"type":"Feature","properties":{"psgc_code":"051606006","name":"Bagong Silang II","level":"barangay-label","municipality_psgc_code":"051606000","municipality_name":"Labo"},"geometry":{"type":"Point","coordinates":[122.59278282100007,14.198852161000046]}},{"type":"Feature","properties":{"psgc_code":"051606007","name":"Bakiad","level":"barangay-label","municipality_psgc_code":"051606000","municipality_name":"Labo"},"geometry":{"type":"Point","coordinates":[122.84971020950007,14.168646397500025]}},{"type":"Feature","properties":{"psgc_code":"051606008","name":"Bautista","level":"barangay-label","municipality_psgc_code":"051606000","municipality_name":"Labo"},"geometry":{"type":"Point","coordinates":[122.84578102400008,14.136410781000052]}},{"type":"Feature","properties":{"psgc_code":"051606009","name":"Bayabas","level":"barangay-label","municipality_psgc_code":"051606000","municipality_name":"Labo"},"geometry":{"type":"Point","coordinates":[122.4666055935001,14.175168288500059]}},{"type":"Feature","properties":{"psgc_code":"051606010","name":"Bayan-bayan","level":"barangay-label","municipality_psgc_code":"051606000","municipality_name":"Labo"},"geometry":{"type":"Point","coordinates":[122.76129714300009,14.106313290500054]}},{"type":"Feature","properties":{"psgc_code":"051606011","name":"Benit","level":"barangay-label","municipality_psgc_code":"051606000","municipality_name":"Labo"},"geometry":{"type":"Point","coordinates":[122.7936455645001,14.140316167500034]}},{"type":"Feature","properties":{"psgc_code":"051606012","name":"Anahaw (Pob.)","level":"barangay-label","municipality_psgc_code":"051606000","municipality_name":"Labo"},"geometry":{"type":"Point","coordinates":[122.8358656910001,14.152505591500073]}},{"type":"Feature","properties":{"psgc_code":"051606013","name":"Gumamela (Pob.)","level":"barangay-label","municipality_psgc_code":"051606000","municipality_name":"Labo"},"geometry":{"type":"Point","coordinates":[122.83249993000004,14.15734170050007]}},{"type":"Feature","properties":{"psgc_code":"051606014","name":"San Francisco (Pob.)","level":"barangay-label","municipality_psgc_code":"051606000","municipality_name":"Labo"},"geometry":{"type":"Point","coordinates":[122.83042079700004,14.15212176500006]}},{"type":"Feature","properties":{"psgc_code":"051606015","name":"Kalamunding (Pob.)","level":"barangay-label","municipality_psgc_code":"051606000","municipality_name":"Labo"},"geometry":{"type":"Point","coordinates":[122.82635073800003,14.156910253500056]}},{"type":"Feature","properties":{"psgc_code":"051606016","name":"Bulhao","level":"barangay-label","municipality_psgc_code":"051606000","municipality_name":"Labo"},"geometry":{"type":"Point","coordinates":[122.82846473650011,14.169333918500058]}},{"type":"Feature","properties":{"psgc_code":"051606017","name":"Cabatuhan","level":"barangay-label","municipality_psgc_code":"051606000","municipality_name":"Labo"},"geometry":{"type":"Point","coordinates":[122.53276825500006,14.146636970000058]}},{"type":"Feature","properties":{"psgc_code":"051606018","name":"Cabusay","level":"barangay-label","municipality_psgc_code":"051606000","municipality_name":"Labo"},"geometry":{"type":"Point","coordinates":[122.82694626750009,14.183124176500028]}},{"type":"Feature","properties":{"psgc_code":"051606019","name":"Calabasa","level":"barangay-label","municipality_psgc_code":"051606000","municipality_name":"Labo"},"geometry":{"type":"Point","coordinates":[122.75184234850009,14.152644532000036]}},{"type":"Feature","properties":{"psgc_code":"051606020","name":"Canapawan","level":"barangay-label","municipality_psgc_code":"051606000","municipality_name":"Labo"},"geometry":{"type":"Point","coordinates":[122.56099338650007,14.184265252000044]}},{"type":"Feature","properties":{"psgc_code":"051606021","name":"Daguit","level":"barangay-label","municipality_psgc_code":"051606000","municipality_name":"Labo"},"geometry":{"type":"Point","coordinates":[122.71194555400007,14.193604786000066]}},{"type":"Feature","properties":{"psgc_code":"051606022","name":"Dalas","level":"barangay-label","municipality_psgc_code":"051606000","municipality_name":"Labo"},"geometry":{"type":"Point","coordinates":[122.81384969550004,14.151993099000066]}},{"type":"Feature","properties":{"psgc_code":"051606023","name":"Dumagmang","level":"barangay-label","municipality_psgc_code":"051606000","municipality_name":"Labo"},"geometry":{"type":"Point","coordinates":[122.62862379150005,14.107331287500045]}},{"type":"Feature","properties":{"psgc_code":"051606024","name":"Exciban","level":"barangay-label","municipality_psgc_code":"051606000","municipality_name":"Labo"},"geometry":{"type":"Point","coordinates":[122.64708740150007,14.154026363000042]}},{"type":"Feature","properties":{"psgc_code":"051606025","name":"Fundado","level":"barangay-label","municipality_psgc_code":"051606000","municipality_name":"Labo"},"geometry":{"type":"Point","coordinates":[122.83060189150007,14.193245762000029]}},{"type":"Feature","properties":{"psgc_code":"051606026","name":"Guinacutan","level":"barangay-label","municipality_psgc_code":"051606000","municipality_name":"Labo"},"geometry":{"type":"Point","coordinates":[122.8630423375,14.156904061500057]}},{"type":"Feature","properties":{"psgc_code":"051606027","name":"Guisican","level":"barangay-label","municipality_psgc_code":"051606000","municipality_name":"Labo"},"geometry":{"type":"Point","coordinates":[122.49059309450007,14.170426768000056]}},{"type":"Feature","properties":{"psgc_code":"051606028","name":"Iberica","level":"barangay-label","municipality_psgc_code":"051606000","municipality_name":"Labo"},"geometry":{"type":"Point","coordinates":[122.85685404650008,14.125539581000055]}},{"type":"Feature","properties":{"psgc_code":"051606030","name":"Lugui","level":"barangay-label","municipality_psgc_code":"051606000","municipality_name":"Labo"},"geometry":{"type":"Point","coordinates":[122.79536260350005,14.061184367000038]}},{"type":"Feature","properties":{"psgc_code":"051606031","name":"Mabilo I","level":"barangay-label","municipality_psgc_code":"051606000","municipality_name":"Labo"},"geometry":{"type":"Point","coordinates":[122.81266318600007,14.120324597500055]}},{"type":"Feature","properties":{"psgc_code":"051606032","name":"Mabilo II","level":"barangay-label","municipality_psgc_code":"051606000","municipality_name":"Labo"},"geometry":{"type":"Point","coordinates":[122.82118434900008,14.137124264000049]}},{"type":"Feature","properties":{"psgc_code":"051606033","name":"Macogon","level":"barangay-label","municipality_psgc_code":"051606000","municipality_name":"Labo"},"geometry":{"type":"Point","coordinates":[122.66828260900009,14.17223952200004]}},{"type":"Feature","properties":{"psgc_code":"051606034","name":"Mahawan-hawan","level":"barangay-label","municipality_psgc_code":"051606000","municipality_name":"Labo"},"geometry":{"type":"Point","coordinates":[122.80333895950002,14.19762044950005]}},{"type":"Feature","properties":{"psgc_code":"051606035","name":"Malangcao-Basud","level":"barangay-label","municipality_psgc_code":"051606000","municipality_name":"Labo"},"geometry":{"type":"Point","coordinates":[122.76079232900008,14.183276578000033]}},{"type":"Feature","properties":{"psgc_code":"051606036","name":"Malasugui","level":"barangay-label","municipality_psgc_code":"051606000","municipality_name":"Labo"},"geometry":{"type":"Point","coordinates":[122.84702762650005,14.154241717000048]}},{"type":"Feature","properties":{"psgc_code":"051606037","name":"Malatap","level":"barangay-label","municipality_psgc_code":"051606000","municipality_name":"Labo"},"geometry":{"type":"Point","coordinates":[122.62652079750006,14.158032716000065]}},{"type":"Feature","properties":{"psgc_code":"051606038","name":"Malaya","level":"barangay-label","municipality_psgc_code":"051606000","municipality_name":"Labo"},"geometry":{"type":"Point","coordinates":[122.57097376550001,14.10989330800004]}},{"type":"Feature","properties":{"psgc_code":"051606039","name":"Malibago","level":"barangay-label","municipality_psgc_code":"051606000","municipality_name":"Labo"},"geometry":{"type":"Point","coordinates":[122.58095143400004,14.141660731000059]}},{"type":"Feature","properties":{"psgc_code":"051606040","name":"Maot","level":"barangay-label","municipality_psgc_code":"051606000","municipality_name":"Labo"},"geometry":{"type":"Point","coordinates":[122.72763563400002,14.161129510500043]}},{"type":"Feature","properties":{"psgc_code":"051606041","name":"Masalong","level":"barangay-label","municipality_psgc_code":"051606000","municipality_name":"Labo"},"geometry":{"type":"Point","coordinates":[122.81182119800002,14.172729151500048]}},{"type":"Feature","properties":{"psgc_code":"051606042","name":"Matanlang","level":"barangay-label","municipality_psgc_code":"051606000","municipality_name":"Labo"},"geometry":{"type":"Point","coordinates":[122.76384922950007,14.138860076500066]}},{"type":"Feature","properties":{"psgc_code":"051606043","name":"Napaod","level":"barangay-label","municipality_psgc_code":"051606000","municipality_name":"Labo"},"geometry":{"type":"Point","coordinates":[122.78488344650003,14.112913708500058]}},{"type":"Feature","properties":{"psgc_code":"051606044","name":"Pag-Asa","level":"barangay-label","municipality_psgc_code":"051606000","municipality_name":"Labo"},"geometry":{"type":"Point","coordinates":[122.68732854700005,14.099794727000045]}},{"type":"Feature","properties":{"psgc_code":"051606045","name":"Pangpang","level":"barangay-label","municipality_psgc_code":"051606000","municipality_name":"Labo"},"geometry":{"type":"Point","coordinates":[122.78345250900003,14.162938473000054]}},{"type":"Feature","properties":{"psgc_code":"051606046","name":"Pinya (Pob.)","level":"barangay-label","municipality_psgc_code":"051606000","municipality_name":"Labo"},"geometry":{"type":"Point","coordinates":[122.82838940650004,14.153628805000036]}},{"type":"Feature","properties":{"psgc_code":"051606047","name":"San Antonio","level":"barangay-label","municipality_psgc_code":"051606000","municipality_name":"Labo"},"geometry":{"type":"Point","coordinates":[122.83333364850006,14.107566422000048]}},{"type":"Feature","properties":{"psgc_code":"051606048","name":"Santa Cruz","level":"barangay-label","municipality_psgc_code":"051606000","municipality_name":"Labo"},"geometry":{"type":"Point","coordinates":[122.85228936850007,14.184868826500063]}},{"type":"Feature","properties":{"psgc_code":"051606049","name":"Bagong Silang III","level":"barangay-label","municipality_psgc_code":"051606000","municipality_name":"Labo"},"geometry":{"type":"Point","coordinates":[122.6262585450001,14.189545555500043]}},{"type":"Feature","properties":{"psgc_code":"051606050","name":"Submakin","level":"barangay-label","municipality_psgc_code":"051606000","municipality_name":"Labo"},"geometry":{"type":"Point","coordinates":[122.68479684650005,14.162999193500042]}},{"type":"Feature","properties":{"psgc_code":"051606051","name":"Talobatib","level":"barangay-label","municipality_psgc_code":"051606000","municipality_name":"Labo"},"geometry":{"type":"Point","coordinates":[122.78699052800005,14.186302242500062]}},{"type":"Feature","properties":{"psgc_code":"051606052","name":"Tigbinan","level":"barangay-label","municipality_psgc_code":"051606000","municipality_name":"Labo"},"geometry":{"type":"Point","coordinates":[122.52101725350008,14.189443871500032]}},{"type":"Feature","properties":{"psgc_code":"051606053","name":"Tulay Na Lupa","level":"barangay-label","municipality_psgc_code":"051606000","municipality_name":"Labo"},"geometry":{"type":"Point","coordinates":[122.78122920400006,14.077693688500062]}}]}
