{"type":"FeatureCollection","features":[{"type":"Feature","properties":{"psgc_code":"051704001","name":"San Antonio","level":"barangay-label","municipality_psgc_code":"051704000","municipality_name":"Bombon"},"geometry":{"type":"Point","coordinates":[123.22722369400005,13.685869926000063]}},{"type":"Feature","properties":{"psgc_code":"051704002","name":"San Francisco","level":"barangay-label","municipality_psgc_code":"051704000","municipality_name":"Bombon"},"geometry":{"type":"Point","coordinates":[123.22396361850004,13.674769553000061]}},{"type":"Feature","properties":{"psgc_code":"051704003","name":"San Isidro (Pob.)","level":"barangay-label","municipality_psgc_code":"051704000","municipality_name":"Bombon"},"geometry":{"type":"Point","coordinates":[123.20483274450004,13.68806988600005]}},{"type":"Feature","properties":{"psgc_code":"051704004","name":"San Jose (Pob.)","level":"barangay-label","municipality_psgc_code":"051704000","municipality_name":"Bombon"},"geometry":{"type":"Point","coordinates":[123.19695756450011,13.688065649000036]}},{"type":"Feature","properties":{"psgc_code":"051704005","name":"Pagao","level":"barangay-label","municipality_psgc_code":"051704000","municipality_name":"Bombon"},"geometry":{"type":"Point","coordinates":[123.15439056000008,13.69396594200003]}},{"type":"Feature","properties":{"psgc_code":"051704006","name":"San Roque (Pob.)","level":"barangay-label","municipality_psgc_code":"051704000","municipality_name":"Bombon"},"geometry":{"type":"Point","coordinates":[123.20141248800007,13.679380991000073]}},{"type":"Feature","properties":{"psgc_code":"051704007","name":"Siembre","level":"barangay-label","municipality_psgc_code":"051704000","municipality_name":"Bombon"},"geometry":{"type":"Point","coordinates":[123.25695065500008,13.674531093000041]}},{"type":"Feature","properties":{"psgc_code":"051704008","name":"Santo Domingo","level":"barangay-label","municipality_psgc_code":"051704000","municipality_name":"Bombon"},"geometry":{"type":"Point","coordinates":[123.18735688750007,13.684314168500034]}}]}
