{"type":"FeatureCollection","features":[{"type":"Feature","properties":{"psgc_code":"051707001","name":"Barcelonita","level":"barangay-label","municipality_psgc_code":"051707000","municipality_name":"Cabusao"},"geometry":{"type":"Point","coordinates":[123.04302489300005,13.771223784000057]}},{"type":"Feature","properties":{"psgc_code":"051707002","name":"Biong","level":"barangay-label","municipality_psgc_code":"051707000","municipality_name":"Cabusao"},"geometry":{"type":"Point","coordinates":[123.04846535700005,13.75381080950002]}},{"type":"Feature","properties":{"psgc_code":"051707004","name":"Camagong","level":"barangay-label","municipality_psgc_code":"051707000","municipality_name":"Cabusao"},"geometry":{"type":"Point","coordinates":[123.1039248505001,13.71905188550005]}},{"type":"Feature","properties":{"psgc_code":"051707005","name":"Castillo","level":"barangay-label","municipality_psgc_code":"051707000","municipality_name":"Cabusao"},"geometry":{"type":"Point","coordinates":[123.10553984950008,13.736966876500075]}},{"type":"Feature","properties":{"psgc_code":"051707006","name":"New Poblacion","level":"barangay-label","municipality_psgc_code":"051707000","municipality_name":"Cabusao"},"geometry":{"type":"Point","coordinates":[123.10338482500009,13.73093312900005]}},{"type":"Feature","properties":{"psgc_code":"051707007","name":"Pandan","level":"barangay-label","municipality_psgc_code":"051707000","municipality_name":"Cabusao"},"geometry":{"type":"Point","coordinates":[123.0734629270001,13.73950387800005]}},{"type":"Feature","properties":{"psgc_code":"051707008","name":"San Pedro","level":"barangay-label","municipality_psgc_code":"051707000","municipality_name":"Cabusao"},"geometry":{"type":"Point","coordinates":[123.02742387850003,13.76550523950004]}},{"type":"Feature","properties":{"psgc_code":"051707009","name":"Santa Cruz","level":"barangay-label","municipality_psgc_code":"051707000","municipality_name":"Cabusao"},"geometry":{"type":"Point","coordinates":[123.12042025800008,13.717677091500036]}},{"type":"Feature","properties":{"psgc_code":"051707010","name":"Santa Lutgarda (Pob.)","level":"barangay-label","municipality_psgc_code":"051707000","municipality_name":"Cabusao"},"geometry":{"type":"Point","coordinates":[123.11514887350005,13.721882676000064]}}]}
