{"type":"FeatureCollection","features":[{"type":"Feature","properties":{"psgc_code":"051733001","name":"Adiangao","level":"barangay-label","municipality_psgc_code":"051733000","municipality_name":"San Jose"},"geometry":{"type":"Point","coordinates":[123.69472679550006,13.734916060000074]}},{"type":"Feature","properties":{"psgc_code":"051733002","name":"Bagacay","level":"barangay-label","municipality_psgc_code":"051733000","municipality_name":"San Jose"},"geometry":{"type":"Point","coordinates":[123.51075513600007,13.67545030100004]}},{"type":"Feature","properties":{"psgc_code":"051733003","name":"Bahay","level":"barangay-label","municipality_psgc_code":"051733000","municipality_name":"San Jose"},"geometry":{"type":"Point","coordinates":[123.50833091700008,13.70619559800005]}},{"type":"Feature","properties":{"psgc_code":"051733004","name":"Boclod","level":"barangay-label","municipality_psgc_code":"051733000","municipality_name":"San Jose"},"geometry":{"type":"Point","coordinates":[123.50978885750004,13.698992087500045]}},{"type":"Feature","properties":{"psgc_code":"051733005","name":"Calalahan","level":"barangay-label","municipality_psgc_code":"051733000","municipality_name":"San Jose"},"geometry":{"type":"Point","coordinates":[123.54023633200006,13.666990910000067]}},{"type":"Feature","properties":{"psgc_code":"051733006","name":"Calawit","level":"barangay-label","municipality_psgc_code":"051733000","municipality_name":"San Jose"},"geometry":{"type":"Point","coordinates":[123.5269936250001,13.664654405500073]}},{"type":"Feature","properties":{"psgc_code":"051733007","name":"Camagong","level":"barangay-label","municipality_psgc_code":"051733000","municipality_name":"San Jose"},"geometry":{"type":"Point","coordinates":[123.51709843500004,13.714090116500046]}},{"type":"Feature","properties":{"psgc_code":"051733008","name":"Catalotoan","level":"barangay-label","municipality_psgc_code":"051733000","municipality_name":"San Jose"},"geometry":{"type":"Point","coordinates":[123.5133306730001,13.665402680000057]}},{"type":"Feature","properties":{"psgc_code":"051733009","name":"Danlog","level":"barangay-label","municipality_psgc_code":"051733000","municipality_name":"San Jose"},"geometry":{"type":"Point","coordinates":[123.52515879950012,13.697473080500028]}},{"type":"Feature","properties":{"psgc_code":"051733010","name":"Del Carmen (Pob.)","level":"barangay-label","municipality_psgc_code":"051733000","municipality_name":"San Jose"},"geometry":{"type":"Point","coordinates":[123.52149982400006,13.702020497000063]}},{"type":"Feature","properties":{"psgc_code":"051733011","name":"Dolo","level":"barangay-label","municipality_psgc_code":"051733000","municipality_name":"San Jose"},"geometry":{"type":"Point","coordinates":[123.56621712850006,13.710438467500069]}},{"type":"Feature","properties":{"psgc_code":"051733012","name":"Kinalansan","level":"barangay-label","municipality_psgc_code":"051733000","municipality_name":"San Jose"},"geometry":{"type":"Point","coordinates":[123.54989722900008,13.70310924100005]}},{"type":"Feature","properties":{"psgc_code":"051733013","name":"Mampirao","level":"barangay-label","municipality_psgc_code":"051733000","municipality_name":"San Jose"},"geometry":{"type":"Point","coordinates":[123.52296314750009,13.674054999000049]}},{"type":"Feature","properties":{"psgc_code":"051733014","name":"Manzana","level":"barangay-label","municipality_psgc_code":"051733000","municipality_name":"San Jose"},"geometry":{"type":"Point","coordinates":[123.54891169800004,13.694801982500024]}},{"type":"Feature","properties":{"psgc_code":"051733015","name":"Minoro","level":"barangay-label","municipality_psgc_code":"051733000","municipality_name":"San Jose"},"geometry":{"type":"Point","coordinates":[123.55230398950005,13.711009021500043]}},{"type":"Feature","properties":{"psgc_code":"051733016","name":"Palale","level":"barangay-label","municipality_psgc_code":"051733000","municipality_name":"San Jose"},"geometry":{"type":"Point","coordinates":[123.53460766900008,13.70639535500004]}},{"type":"Feature","properties":{"psgc_code":"051733017","name":"Ponglon","level":"barangay-label","municipality_psgc_code":"051733000","municipality_name":"San Jose"},"geometry":{"type":"Point","coordinates":[123.53000573750006,13.646006909500043]}},{"type":"Feature","properties":{"psgc_code":"051733018","name":"Pugay","level":"barangay-label","municipality_psgc_code":"051733000","municipality_name":"San Jose"},"geometry":{"type":"Point","coordinates":[123.51949073850012,13.685880140500046]}},{"type":"Feature","properties":{"psgc_code":"051733020","name":"Salogon","level":"barangay-label","municipality_psgc_code":"051733000","municipality_name":"San Jose"},"geometry":{"type":"Point","coordinates":[123.52055011100003,13.654483052000046]}},{"type":"Feature","properties":{"psgc_code":"051733021","name":"San Antonio (Pob.)","level":"barangay-label","municipality_psgc_code":"051733000","municipality_name":"San Jose"},"geometry":{"type":"Point","coordinates":[123.51494569800008,13.697305994500027]}},{"type":"Feature","properties":{"psgc_code":"051733023","name":"San Juan (Pob.)","level":"barangay-label","municipality_psgc_code":"051733000","municipality_name":"San Jose"},"geometry":{"type":"Point","coordinates":[123.52034234150005,13.69848684300004]}},{"type":"Feature","properties":{"psgc_code":"051733024","name":"San Vicente (Pob.)","level":"barangay-label","municipality_psgc_code":"051733000","municipality_name":"San Jose"},"geometry":{"type":"Point","coordinates":[123.51793559500003,13.702020497000063]}},{"type":"Feature","properties":{"psgc_code":"051733025","name":"Santa Cruz (Pob.)","level":"barangay-label","municipality_psgc_code":"051733000","municipality_name":"San Jose"},"geometry":{"type":"Point","coordinates":[123.51964166500005,13.705828209500055]}},{"type":"Feature","properties":{"psgc_code":"051733026","name":"Soledad (Pob.)","level":"barangay-label","municipality_psgc_code":"051733000","municipality_name":"San Jose"},"geometry":{"type":"Point","coordinates":[123.5146467935001,13.700803705000054]}},{"type":"Feature","properties":{"psgc_code":"051733027","name":"Tagas","level":"barangay-label","municipality_psgc_code":"051733000","municipality_name":"San Jose"},"geometry":{"type":"Point","coordinates":[123.53784127150004,13.649817644000052]}},{"type":"Feature","properties":{"psgc_code":"051733028","name":"Tambangan","level":"barangay-label","municipality_psgc_code":"051733000","municipality_name":"San Jose"},"geometry":{"type":"Point","coordinates":[123.54230669900011,13.686540454500033]}},{"type":"Feature","properties":{"psgc_code":"051733029","name":"Telegrafo","level":"barangay-label","municipality_psgc_code":"051733000","municipality_name":"San Jose"},"geometry":{"type":"Point","coordinates":[123.55120577650007,13.683864909500045]}},{"type":"Feature","properties":{"psgc_code":"051733030","name":"Tominawog","level":"barangay-label","municipality_psgc_code":"051733000","municipality_name":"San Jose"},"geometry":{"type":"Point","coordinates":[123.53618399700008,13.714986090500048]}}]}
