{"type":"FeatureCollection","features":[{"type":"Feature","properties":{"psgc_code":"051717001","name":"Agosais","level":"barangay-label","municipality_psgc_code":"051717000","municipality_name":"Lagonoy"},"geometry":{"type":"Point","coordinates":[123.51201707700011,13.775916453000034]}},{"type":"Feature","properties":{"psgc_code":"051717002","name":"Agpo-Camagong-Tabog","level":"barangay-label","municipality_psgc_code":"051717000","municipality_name":"Lagonoy"},"geometry":{"type":"Point","coordinates":[123.52148512600007,13.72491259450004]}},{"type":"Feature","properties":{"psgc_code":"051717003","name":"Amoguis","level":"barangay-label","municipality_psgc_code":"051717000","municipality_name":"Lagonoy"},"geometry":{"type":"Point","coordinates":[123.50442672550008,13.720770279500044]}},{"type":"Feature","properties":{"psgc_code":"051717004","name":"Bocogan","level":"barangay-label","municipality_psgc_code":"051717000","municipality_name":"Lagonoy"},"geometry":{"type":"Point","coordinates":[123.43279251850004,13.90482735100005]}},{"type":"Feature","properties":{"psgc_code":"051717005","name":"Balaton","level":"barangay-label","municipality_psgc_code":"051717000","municipality_name":"Lagonoy"},"geometry":{"type":"Point","coordinates":[123.54930366300005,13.916383538000048]}},{"type":"Feature","properties":{"psgc_code":"051717006","name":"Binanuahan","level":"barangay-label","municipality_psgc_code":"051717000","municipality_name":"Lagonoy"},"geometry":{"type":"Point","coordinates":[123.5326422925001,13.734135553500039]}},{"type":"Feature","properties":{"psgc_code":"051717007","name":"Burabod","level":"barangay-label","municipality_psgc_code":"051717000","municipality_name":"Lagonoy"},"geometry":{"type":"Point","coordinates":[123.56641067650008,13.76134748000004]}},{"type":"Feature","properties":{"psgc_code":"051717008","name":"Cabotonan","level":"barangay-label","municipality_psgc_code":"051717000","municipality_name":"Lagonoy"},"geometry":{"type":"Point","coordinates":[123.62981690600003,13.752741605000068]}},{"type":"Feature","properties":{"psgc_code":"051717009","name":"Dahat","level":"barangay-label","municipality_psgc_code":"051717000","municipality_name":"Lagonoy"},"geometry":{"type":"Point","coordinates":[123.50567133150008,13.737339020000064]}},{"type":"Feature","properties":{"psgc_code":"051717010","name":"Del Carmen","level":"barangay-label","municipality_psgc_code":"051717000","municipality_name":"Lagonoy"},"geometry":{"type":"Point","coordinates":[123.45146904000006,13.85464213250006]}},{"type":"Feature","properties":{"psgc_code":"051717011","name":"Ginorangan","level":"barangay-label","municipality_psgc_code":"051717000","municipality_name":"Lagonoy"},"geometry":{"type":"Point","coordinates":[123.52530893050012,13.783543030500056]}},{"type":"Feature","properties":{"psgc_code":"051717012","name":"Gimagtocon","level":"barangay-label","municipality_psgc_code":"051717000","municipality_name":"Lagonoy"},"geometry":{"type":"Point","coordinates":[123.49390445050005,13.773549449000056]}},{"type":"Feature","properties":{"psgc_code":"051717013","name":"Gubat","level":"barangay-label","municipality_psgc_code":"051717000","municipality_name":"Lagonoy"},"geometry":{"type":"Point","coordinates":[123.46772899750005,13.769401792000052]}},{"type":"Feature","properties":{"psgc_code":"051717014","name":"Guibahoy","level":"barangay-label","municipality_psgc_code":"051717000","municipality_name":"Lagonoy"},"geometry":{"type":"Point","coordinates":[123.51793132450007,13.863602912000061]}},{"type":"Feature","properties":{"psgc_code":"051717015","name":"Himanag","level":"barangay-label","municipality_psgc_code":"051717000","municipality_name":"Lagonoy"},"geometry":{"type":"Point","coordinates":[123.54157960650008,13.858552672000059]}},{"type":"Feature","properties":{"psgc_code":"051717016","name":"Kinahologan","level":"barangay-label","municipality_psgc_code":"051717000","municipality_name":"Lagonoy"},"geometry":{"type":"Point","coordinates":[123.61226354750006,13.757713574000036]}},{"type":"Feature","properties":{"psgc_code":"051717017","name":"Loho","level":"barangay-label","municipality_psgc_code":"051717000","municipality_name":"Lagonoy"},"geometry":{"type":"Point","coordinates":[123.55512760650004,13.770616300500052]}},{"type":"Feature","properties":{"psgc_code":"051717018","name":"Manamoc","level":"barangay-label","municipality_psgc_code":"051717000","municipality_name":"Lagonoy"},"geometry":{"type":"Point","coordinates":[123.5800133725001,13.761453690000053]}},{"type":"Feature","properties":{"psgc_code":"051717019","name":"Mangogon","level":"barangay-label","municipality_psgc_code":"051717000","municipality_name":"Lagonoy"},"geometry":{"type":"Point","coordinates":[123.56526562850007,13.910432957000067]}},{"type":"Feature","properties":{"psgc_code":"051717020","name":"Mapid","level":"barangay-label","municipality_psgc_code":"051717000","municipality_name":"Lagonoy"},"geometry":{"type":"Point","coordinates":[123.46371986750006,13.936655520000045]}},{"type":"Feature","properties":{"psgc_code":"051717021","name":"Olas","level":"barangay-label","municipality_psgc_code":"051717000","municipality_name":"Lagonoy"},"geometry":{"type":"Point","coordinates":[123.45917955950006,13.897618187000033]}},{"type":"Feature","properties":{"psgc_code":"051717022","name":"Omalo","level":"barangay-label","municipality_psgc_code":"051717000","municipality_name":"Lagonoy"},"geometry":{"type":"Point","coordinates":[123.61864138150003,13.755486518000055]}},{"type":"Feature","properties":{"psgc_code":"051717023","name":"Panagan","level":"barangay-label","municipality_psgc_code":"051717000","municipality_name":"Lagonoy"},"geometry":{"type":"Point","coordinates":[123.60276676400008,13.759897237500066]}},{"type":"Feature","properties":{"psgc_code":"051717024","name":"Panicuan","level":"barangay-label","municipality_psgc_code":"051717000","municipality_name":"Lagonoy"},"geometry":{"type":"Point","coordinates":[123.63961735750007,13.748601774000065]}},{"type":"Feature","properties":{"psgc_code":"051717025","name":"Pinamihagan","level":"barangay-label","municipality_psgc_code":"051717000","municipality_name":"Lagonoy"},"geometry":{"type":"Point","coordinates":[123.46104195900013,13.79973051650006]}},{"type":"Feature","properties":{"psgc_code":"051717026","name":"San Francisco (Pob.)","level":"barangay-label","municipality_psgc_code":"051717000","municipality_name":"Lagonoy"},"geometry":{"type":"Point","coordinates":[123.52278464550005,13.731766658000026]}},{"type":"Feature","properties":{"psgc_code":"051717027","name":"San Isidro","level":"barangay-label","municipality_psgc_code":"051717000","municipality_name":"Lagonoy"},"geometry":{"type":"Point","coordinates":[123.50255956850003,13.869641891500036]}},{"type":"Feature","properties":{"psgc_code":"051717028","name":"San Isidro Sur (Pob.)","level":"barangay-label","municipality_psgc_code":"051717000","municipality_name":"Lagonoy"},"geometry":{"type":"Point","coordinates":[123.51828650550004,13.733474634500027]}},{"type":"Feature","properties":{"psgc_code":"051717029","name":"San Isidro Norte (Pob.)","level":"barangay-label","municipality_psgc_code":"051717000","municipality_name":"Lagonoy"},"geometry":{"type":"Point","coordinates":[123.51850389700007,13.739658122000037]}},{"type":"Feature","properties":{"psgc_code":"051717030","name":"San Rafael","level":"barangay-label","municipality_psgc_code":"051717000","municipality_name":"Lagonoy"},"geometry":{"type":"Point","coordinates":[123.51931220800003,13.729892088000039]}},{"type":"Feature","properties":{"psgc_code":"051717031","name":"San Ramon","level":"barangay-label","municipality_psgc_code":"051717000","municipality_name":"Lagonoy"},"geometry":{"type":"Point","coordinates":[123.54164658600001,13.72159774100004]}},{"type":"Feature","properties":{"psgc_code":"051717032","name":"San Roque","level":"barangay-label","municipality_psgc_code":"051717000","municipality_name":"Lagonoy"},"geometry":{"type":"Point","coordinates":[123.48942995550004,13.734328086500026]}},{"type":"Feature","properties":{"psgc_code":"051717033","name":"San Sebastian","level":"barangay-label","municipality_psgc_code":"051717000","municipality_name":"Lagonoy"},"geometry":{"type":"Point","coordinates":[123.59272209900007,13.762591791500055]}},{"type":"Feature","properties":{"psgc_code":"051717034","name":"San Vicente (Pob.)","level":"barangay-label","municipality_psgc_code":"051717000","municipality_name":"Lagonoy"},"geometry":{"type":"Point","coordinates":[123.5255892890001,13.732880590000034]}},{"type":"Feature","properties":{"psgc_code":"051717035","name":"Santa Cruz (Pob.)","level":"barangay-label","municipality_psgc_code":"051717000","municipality_name":"Lagonoy"},"geometry":{"type":"Point","coordinates":[123.48205812250006,13.912162967000056]}},{"type":"Feature","properties":{"psgc_code":"051717036","name":"Santa Maria (Pob.)","level":"barangay-label","municipality_psgc_code":"051717000","municipality_name":"Lagonoy"},"geometry":{"type":"Point","coordinates":[123.52600623450007,13.739276978500044]}},{"type":"Feature","properties":{"psgc_code":"051717037","name":"Saripongpong (Pob.)","level":"barangay-label","municipality_psgc_code":"051717000","municipality_name":"Lagonoy"},"geometry":{"type":"Point","coordinates":[123.51505938850005,13.73453656150005]}},{"type":"Feature","properties":{"psgc_code":"051717038","name":"Sipaco","level":"barangay-label","municipality_psgc_code":"051717000","municipality_name":"Lagonoy"},"geometry":{"type":"Point","coordinates":[123.52552094000009,13.86063802600006]}}]}
