{"type":"FeatureCollection","features":[{"type":"Feature","properties":{"psgc_code":"051714001","name":"Ason","level":"barangay-label","municipality_psgc_code":"051714000","municipality_name":"Garchitorena"},"geometry":{"type":"Point","coordinates":[123.62217870950008,13.844266043000061]}},{"type":"Feature","properties":{"psgc_code":"051714002","name":"Bahi","level":"barangay-label","municipality_psgc_code":"051714000","municipality_name":"Garchitorena"},"geometry":{"type":"Point","coordinates":[123.60568258200006,13.846586161500055]}},{"type":"Feature","properties":{"psgc_code":"051714003","name":"Binagasbasan","level":"barangay-label","municipality_psgc_code":"051714000","municipality_name":"Garchitorena"},"geometry":{"type":"Point","coordinates":[123.57785531550007,13.943387084000051]}},{"type":"Feature","properties":{"psgc_code":"051714004","name":"Burabod","level":"barangay-label","municipality_psgc_code":"051714000","municipality_name":"Garchitorena"},"geometry":{"type":"Point","coordinates":[123.65717594850007,13.937201298000046]}},{"type":"Feature","properties":{"psgc_code":"051714005","name":"Cagamutan","level":"barangay-label","municipality_psgc_code":"051714000","municipality_name":"Garchitorena"},"geometry":{"type":"Point","coordinates":[123.64554081000006,13.93955313500004]}},{"type":"Feature","properties":{"psgc_code":"051714006","name":"Cagnipa","level":"barangay-label","municipality_psgc_code":"051714000","municipality_name":"Garchitorena"},"geometry":{"type":"Point","coordinates":[123.66387440050005,13.955211409500068]}},{"type":"Feature","properties":{"psgc_code":"051714007","name":"Canlong","level":"barangay-label","municipality_psgc_code":"051714000","municipality_name":"Garchitorena"},"geometry":{"type":"Point","coordinates":[123.73470871550006,13.888634535500074]}},{"type":"Feature","properties":{"psgc_code":"051714008","name":"Dangla","level":"barangay-label","municipality_psgc_code":"051714000","municipality_name":"Garchitorena"},"geometry":{"type":"Point","coordinates":[123.62123845100007,13.923307681500061]}},{"type":"Feature","properties":{"psgc_code":"051714009","name":"Del Pilar","level":"barangay-label","municipality_psgc_code":"051714000","municipality_name":"Garchitorena"},"geometry":{"type":"Point","coordinates":[123.6665225215001,13.876358797000051]}},{"type":"Feature","properties":{"psgc_code":"051714010","name":"Denrica","level":"barangay-label","municipality_psgc_code":"051714000","municipality_name":"Garchitorena"},"geometry":{"type":"Point","coordinates":[123.49557513950003,13.964353257500022]}},{"type":"Feature","properties":{"psgc_code":"051714011","name":"Harrison","level":"barangay-label","municipality_psgc_code":"051714000","municipality_name":"Garchitorena"},"geometry":{"type":"Point","coordinates":[123.7181494085001,13.917375199000048]}},{"type":"Feature","properties":{"psgc_code":"051714012","name":"Mansangat","level":"barangay-label","municipality_psgc_code":"051714000","municipality_name":"Garchitorena"},"geometry":{"type":"Point","coordinates":[123.64628994200002,13.972550038500058]}},{"type":"Feature","properties":{"psgc_code":"051714013","name":"Pambuhan","level":"barangay-label","municipality_psgc_code":"051714000","municipality_name":"Garchitorena"},"geometry":{"type":"Point","coordinates":[123.71435731350005,13.891389210000055]}},{"type":"Feature","properties":{"psgc_code":"051714014","name":"Barangay I (Pob.)","level":"barangay-label","municipality_psgc_code":"051714000","municipality_name":"Garchitorena"},"geometry":{"type":"Point","coordinates":[123.68633849150007,13.870267703500048]}},{"type":"Feature","properties":{"psgc_code":"051714015","name":"Barangay II (Pob.)","level":"barangay-label","municipality_psgc_code":"051714000","municipality_name":"Garchitorena"},"geometry":{"type":"Point","coordinates":[123.69123400650005,13.87047807150006]}},{"type":"Feature","properties":{"psgc_code":"051714016","name":"Barangay III (Pob.)","level":"barangay-label","municipality_psgc_code":"051714000","municipality_name":"Garchitorena"},"geometry":{"type":"Point","coordinates":[123.6944995395001,13.870955434500047]}},{"type":"Feature","properties":{"psgc_code":"051714017","name":"Barangay IV (Pob.)","level":"barangay-label","municipality_psgc_code":"051714000","municipality_name":"Garchitorena"},"geometry":{"type":"Point","coordinates":[123.70534774150008,13.871974208500035]}},{"type":"Feature","properties":{"psgc_code":"051714018","name":"Sagrada","level":"barangay-label","municipality_psgc_code":"051714000","municipality_name":"Garchitorena"},"geometry":{"type":"Point","coordinates":[123.5748567490001,13.859810745000033]}},{"type":"Feature","properties":{"psgc_code":"051714019","name":"Salvacion","level":"barangay-label","municipality_psgc_code":"051714000","municipality_name":"Garchitorena"},"geometry":{"type":"Point","coordinates":[123.63123694600012,13.835572848000051]}},{"type":"Feature","properties":{"psgc_code":"051714020","name":"San Vicente","level":"barangay-label","municipality_psgc_code":"051714000","municipality_name":"Garchitorena"},"geometry":{"type":"Point","coordinates":[123.65669432900006,13.817683004500054]}},{"type":"Feature","properties":{"psgc_code":"051714021","name":"Sumaoy","level":"barangay-label","municipality_psgc_code":"051714000","municipality_name":"Garchitorena"},"geometry":{"type":"Point","coordinates":[123.55827333750005,13.974341406000063]}},{"type":"Feature","properties":{"psgc_code":"051714022","name":"Tamiawon","level":"barangay-label","municipality_psgc_code":"051714000","municipality_name":"Garchitorena"},"geometry":{"type":"Point","coordinates":[123.62010194650009,13.946020785500052]}},{"type":"Feature","properties":{"psgc_code":"051714023","name":"Toytoy","level":"barangay-label","municipality_psgc_code":"051714000","municipality_name":"Garchitorena"},"geometry":{"type":"Point","coordinates":[123.71541764850002,13.849371222000057]}}]}
