{"type":"FeatureCollection","features":[{"type":"Feature","properties":{"psgc_code":"051703001","name":"Agos","level":"barangay-label","municipality_psgc_code":"051703000","municipality_name":"Bato"},"geometry":{"type":"Point","coordinates":[123.38953311700004,13.346651970000037]}},{"type":"Feature","properties":{"psgc_code":"051703002","name":"Bacolod","level":"barangay-label","municipality_psgc_code":"051703000","municipality_name":"Bato"},"geometry":{"type":"Point","coordinates":[123.32371231250005,13.36035810350003]}},{"type":"Feature","properties":{"psgc_code":"051703003","name":"Buluang","level":"barangay-label","municipality_psgc_code":"051703000","municipality_name":"Bato"},"geometry":{"type":"Point","coordinates":[123.33490432950009,13.303195769500038]}},{"type":"Feature","properties":{"psgc_code":"051703004","name":"Caricot","level":"barangay-label","municipality_psgc_code":"051703000","municipality_name":"Bato"},"geometry":{"type":"Point","coordinates":[123.29935982650005,13.305759011500044]}},{"type":"Feature","properties":{"psgc_code":"051703005","name":"Cawacagan","level":"barangay-label","municipality_psgc_code":"051703000","municipality_name":"Bato"},"geometry":{"type":"Point","coordinates":[123.30553636550007,13.330804204000032]}},{"type":"Feature","properties":{"psgc_code":"051703006","name":"Cotmon","level":"barangay-label","municipality_psgc_code":"051703000","municipality_name":"Bato"},"geometry":{"type":"Point","coordinates":[123.2832213320001,13.322818169000044]}},{"type":"Feature","properties":{"psgc_code":"051703007","name":"Cristo Rey","level":"barangay-label","municipality_psgc_code":"051703000","municipality_name":"Bato"},"geometry":{"type":"Point","coordinates":[123.31068343900006,13.303875317000035]}},{"type":"Feature","properties":{"psgc_code":"051703008","name":"Del Rosario","level":"barangay-label","municipality_psgc_code":"051703000","municipality_name":"Bato"},"geometry":{"type":"Point","coordinates":[123.31555051600009,13.293764720500064]}},{"type":"Feature","properties":{"psgc_code":"051703009","name":"Divina Pastora (Pob.)","level":"barangay-label","municipality_psgc_code":"051703000","municipality_name":"Bato"},"geometry":{"type":"Point","coordinates":[123.36691399250003,13.353202054000036]}},{"type":"Feature","properties":{"psgc_code":"051703010","name":"Goyudan","level":"barangay-label","municipality_psgc_code":"051703000","municipality_name":"Bato"},"geometry":{"type":"Point","coordinates":[123.32458549500006,13.320136328000046]}},{"type":"Feature","properties":{"psgc_code":"051703011","name":"Lobong","level":"barangay-label","municipality_psgc_code":"051703000","municipality_name":"Bato"},"geometry":{"type":"Point","coordinates":[123.27518441150005,13.308625736500034]}},{"type":"Feature","properties":{"psgc_code":"051703012","name":"Lubigan","level":"barangay-label","municipality_psgc_code":"051703000","municipality_name":"Bato"},"geometry":{"type":"Point","coordinates":[123.30108112550005,13.287333929000027]}},{"type":"Feature","properties":{"psgc_code":"051703013","name":"Mainit","level":"barangay-label","municipality_psgc_code":"051703000","municipality_name":"Bato"},"geometry":{"type":"Point","coordinates":[123.28718569850002,13.279920982500071]}},{"type":"Feature","properties":{"psgc_code":"051703014","name":"Manga","level":"barangay-label","municipality_psgc_code":"051703000","municipality_name":"Bato"},"geometry":{"type":"Point","coordinates":[123.27799821350004,13.291330195500052]}},{"type":"Feature","properties":{"psgc_code":"051703015","name":"Masoli","level":"barangay-label","municipality_psgc_code":"051703000","municipality_name":"Bato"},"geometry":{"type":"Point","coordinates":[123.39233096350011,13.35807892400004]}},{"type":"Feature","properties":{"psgc_code":"051703016","name":"Neighborhood","level":"barangay-label","municipality_psgc_code":"051703000","municipality_name":"Bato"},"geometry":{"type":"Point","coordinates":[123.30218577550005,13.352267018500044]}},{"type":"Feature","properties":{"psgc_code":"051703017","name":"Ni\u00f1o Jesus","level":"barangay-label","municipality_psgc_code":"051703000","municipality_name":"Bato"},"geometry":{"type":"Point","coordinates":[123.40173656150012,13.346722246500036]}},{"type":"Feature","properties":{"psgc_code":"051703018","name":"Pagatpatan","level":"barangay-label","municipality_psgc_code":"051703000","municipality_name":"Bato"},"geometry":{"type":"Point","coordinates":[123.25909741900006,13.286440449500047]}},{"type":"Feature","properties":{"psgc_code":"051703019","name":"Palo","level":"barangay-label","municipality_psgc_code":"051703000","municipality_name":"Bato"},"geometry":{"type":"Point","coordinates":[123.28018588800006,13.267732606000067]}},{"type":"Feature","properties":{"psgc_code":"051703020","name":"Payak","level":"barangay-label","municipality_psgc_code":"051703000","municipality_name":"Bato"},"geometry":{"type":"Point","coordinates":[123.26773088450011,13.27463472150006]}},{"type":"Feature","properties":{"psgc_code":"051703023","name":"Sagrada","level":"barangay-label","municipality_psgc_code":"051703000","municipality_name":"Bato"},"geometry":{"type":"Point","coordinates":[123.29646490950006,13.338145294000043]}},{"type":"Feature","properties":{"psgc_code":"051703024","name":"Salvacion","level":"barangay-label","municipality_psgc_code":"051703000","municipality_name":"Bato"},"geometry":{"type":"Point","coordinates":[123.32516352650009,13.311141323500037]}},{"type":"Feature","properties":{"psgc_code":"051703025","name":"San Isidro (Pob.)","level":"barangay-label","municipality_psgc_code":"051703000","municipality_name":"Bato"},"geometry":{"type":"Point","coordinates":[123.26183788700007,13.296052735000046]}},{"type":"Feature","properties":{"psgc_code":"051703026","name":"San Juan","level":"barangay-label","municipality_psgc_code":"051703000","municipality_name":"Bato"},"geometry":{"type":"Point","coordinates":[123.31258592300009,13.321976404500047]}},{"type":"Feature","properties":{"psgc_code":"051703027","name":"San Miguel","level":"barangay-label","municipality_psgc_code":"051703000","municipality_name":"Bato"},"geometry":{"type":"Point","coordinates":[123.38175278950007,13.346651970000037]}},{"type":"Feature","properties":{"psgc_code":"051703028","name":"San Rafael (Pob.)","level":"barangay-label","municipality_psgc_code":"051703000","municipality_name":"Bato"},"geometry":{"type":"Point","coordinates":[123.36923734450005,13.352321586000045]}},{"type":"Feature","properties":{"psgc_code":"051703029","name":"San Roque","level":"barangay-label","municipality_psgc_code":"051703000","municipality_name":"Bato"},"geometry":{"type":"Point","coordinates":[123.3177819445001,13.340311448000053]}},{"type":"Feature","properties":{"psgc_code":"051703030","name":"San Vicente","level":"barangay-label","municipality_psgc_code":"051703000","municipality_name":"Bato"},"geometry":{"type":"Point","coordinates":[123.35890995650004,13.360025240500047]}},{"type":"Feature","properties":{"psgc_code":"051703031","name":"Santa Cruz (Pob.)","level":"barangay-label","municipality_psgc_code":"051703000","municipality_name":"Bato"},"geometry":{"type":"Point","coordinates":[123.35157393600008,13.36137812500004]}},{"type":"Feature","properties":{"psgc_code":"051703032","name":"Santiago (Pob.)","level":"barangay-label","municipality_psgc_code":"051703000","municipality_name":"Bato"},"geometry":{"type":"Point","coordinates":[123.37318790150003,13.350784867000044]}},{"type":"Feature","properties":{"psgc_code":"051703033","name":"Sooc","level":"barangay-label","municipality_psgc_code":"051703000","municipality_name":"Bato"},"geometry":{"type":"Point","coordinates":[123.29005138750006,13.29509628900007]}},{"type":"Feature","properties":{"psgc_code":"051703034","name":"Tagpolo","level":"barangay-label","municipality_psgc_code":"051703000","municipality_name":"Bato"},"geometry":{"type":"Point","coordinates":[123.32352546150003,13.350996499500042]}},{"type":"Feature","properties":{"psgc_code":"051703035","name":"Tres Reyes (Pob.)","level":"barangay-label","municipality_psgc_code":"051703000","municipality_name":"Bato"},"geometry":{"type":"Point","coordinates":[123.36478016050006,13.35642747950007]}}]}
