{"type":"FeatureCollection","features":[{"type":"Feature","properties":{"psgc_code":"051723001","name":"Angustia","level":"barangay-label","municipality_psgc_code":"051723000","municipality_name":"Nabua"},"geometry":{"type":"Point","coordinates":[123.32247099450007,13.384809044500031]}},{"type":"Feature","properties":{"psgc_code":"051723002","name":"Antipolo Old","level":"barangay-label","municipality_psgc_code":"051723000","municipality_name":"Nabua"},"geometry":{"type":"Point","coordinates":[123.39642404750003,13.403491262500069]}},{"type":"Feature","properties":{"psgc_code":"051723003","name":"Antipolo Young","level":"barangay-label","municipality_psgc_code":"051723000","municipality_name":"Nabua"},"geometry":{"type":"Point","coordinates":[123.38626674050005,13.397892370000049]}},{"type":"Feature","properties":{"psgc_code":"051723004","name":"Aro-aldao","level":"barangay-label","municipality_psgc_code":"051723000","municipality_name":"Nabua"},"geometry":{"type":"Point","coordinates":[123.29891274150003,13.407399963500042]}},{"type":"Feature","properties":{"psgc_code":"051723005","name":"Bustrac","level":"barangay-label","municipality_psgc_code":"051723000","municipality_name":"Nabua"},"geometry":{"type":"Point","coordinates":[123.35274966900005,13.370268745000061]}},{"type":"Feature","properties":{"psgc_code":"051723006","name":"Inapatan","level":"barangay-label","municipality_psgc_code":"051723000","municipality_name":"Nabua"},"geometry":{"type":"Point","coordinates":[123.31608108100005,13.39574683200007]}},{"type":"Feature","properties":{"psgc_code":"051723007","name":"Dolorosa","level":"barangay-label","municipality_psgc_code":"051723000","municipality_name":"Nabua"},"geometry":{"type":"Point","coordinates":[123.30334310400008,13.384322196000054]}},{"type":"Feature","properties":{"psgc_code":"051723009","name":"Duran","level":"barangay-label","municipality_psgc_code":"051723000","municipality_name":"Nabua"},"geometry":{"type":"Point","coordinates":[123.27762293900008,13.39072397700005]}},{"type":"Feature","properties":{"psgc_code":"051723010","name":"La Purisima","level":"barangay-label","municipality_psgc_code":"051723000","municipality_name":"Nabua"},"geometry":{"type":"Point","coordinates":[123.33100260350005,13.423692021500045]}},{"type":"Feature","properties":{"psgc_code":"051723011","name":"Lourdes Old","level":"barangay-label","municipality_psgc_code":"051723000","municipality_name":"Nabua"},"geometry":{"type":"Point","coordinates":[123.39314782850005,13.388342360500047]}},{"type":"Feature","properties":{"psgc_code":"051723012","name":"Lourdes Young","level":"barangay-label","municipality_psgc_code":"051723000","municipality_name":"Nabua"},"geometry":{"type":"Point","coordinates":[123.38393006000001,13.382980204000035]}},{"type":"Feature","properties":{"psgc_code":"051723015","name":"La Opinion","level":"barangay-label","municipality_psgc_code":"051723000","municipality_name":"Nabua"},"geometry":{"type":"Point","coordinates":[123.36208368600006,13.380159952500064]}},{"type":"Feature","properties":{"psgc_code":"051723016","name":"Paloyon Proper","level":"barangay-label","municipality_psgc_code":"051723000","municipality_name":"Nabua"},"geometry":{"type":"Point","coordinates":[123.37810439650002,13.377581292500054]}},{"type":"Feature","properties":{"psgc_code":"051723018","name":"Salvacion Que Gatos","level":"barangay-label","municipality_psgc_code":"051723000","municipality_name":"Nabua"},"geometry":{"type":"Point","coordinates":[123.32867870100006,13.371640968000035]}},{"type":"Feature","properties":{"psgc_code":"051723019","name":"San Antonio (Pob.)","level":"barangay-label","municipality_psgc_code":"051723000","municipality_name":"Nabua"},"geometry":{"type":"Point","coordinates":[123.36137468100009,13.417628523000046]}},{"type":"Feature","properties":{"psgc_code":"051723020","name":"San Antonio Ogbon","level":"barangay-label","municipality_psgc_code":"051723000","municipality_name":"Nabua"},"geometry":{"type":"Point","coordinates":[123.34843307100006,13.39394636350005]}},{"type":"Feature","properties":{"psgc_code":"051723021","name":"San Esteban (Pob.)","level":"barangay-label","municipality_psgc_code":"051723000","municipality_name":"Nabua"},"geometry":{"type":"Point","coordinates":[123.36481754500005,13.409404814000055]}},{"type":"Feature","properties":{"psgc_code":"051723022","name":"San Francisco (Pob.)","level":"barangay-label","municipality_psgc_code":"051723000","municipality_name":"Nabua"},"geometry":{"type":"Point","coordinates":[123.3797530870001,13.409760124000059]}},{"type":"Feature","properties":{"psgc_code":"051723023","name":"San Isidro (Pob.)","level":"barangay-label","municipality_psgc_code":"051723000","municipality_name":"Nabua"},"geometry":{"type":"Point","coordinates":[123.3770155690001,13.406329613000054]}},{"type":"Feature","properties":{"psgc_code":"051723024","name":"San Isidro Inapatan","level":"barangay-label","municipality_psgc_code":"051723000","municipality_name":"Nabua"},"geometry":{"type":"Point","coordinates":[123.33069767500007,13.381143760500038]}},{"type":"Feature","properties":{"psgc_code":"051723026","name":"Malawag","level":"barangay-label","municipality_psgc_code":"051723000","municipality_name":"Nabua"},"geometry":{"type":"Point","coordinates":[123.30193254700004,13.368571251000047]}},{"type":"Feature","properties":{"psgc_code":"051723027","name":"San Jose","level":"barangay-label","municipality_psgc_code":"051723000","municipality_name":"Nabua"},"geometry":{"type":"Point","coordinates":[123.38793337350006,13.409995717500067]}},{"type":"Feature","properties":{"psgc_code":"051723028","name":"San Juan (Pob.)","level":"barangay-label","municipality_psgc_code":"051723000","municipality_name":"Nabua"},"geometry":{"type":"Point","coordinates":[123.37510626350007,13.409784218500048]}},{"type":"Feature","properties":{"psgc_code":"051723029","name":"San Luis (Pob.)","level":"barangay-label","municipality_psgc_code":"051723000","municipality_name":"Nabua"},"geometry":{"type":"Point","coordinates":[123.37549815150004,13.409083951000042]}},{"type":"Feature","properties":{"psgc_code":"051723030","name":"San Miguel (Pob.)","level":"barangay-label","municipality_psgc_code":"051723000","municipality_name":"Nabua"},"geometry":{"type":"Point","coordinates":[123.37618495050009,13.402761750500048]}},{"type":"Feature","properties":{"psgc_code":"051723031","name":"San Nicolas (Pob.)","level":"barangay-label","municipality_psgc_code":"051723000","municipality_name":"Nabua"},"geometry":{"type":"Point","coordinates":[123.36951072950006,13.402171574500045]}},{"type":"Feature","properties":{"psgc_code":"051723033","name":"San Roque (Pob.)","level":"barangay-label","municipality_psgc_code":"051723000","municipality_name":"Nabua"},"geometry":{"type":"Point","coordinates":[123.36910855700006,13.405134252000035]}},{"type":"Feature","properties":{"psgc_code":"051723034","name":"San Roque Madawon","level":"barangay-label","municipality_psgc_code":"051723000","municipality_name":"Nabua"},"geometry":{"type":"Point","coordinates":[123.33382667050006,13.390914229500057]}},{"type":"Feature","properties":{"psgc_code":"051723035","name":"San Roque Sagumay","level":"barangay-label","municipality_psgc_code":"051723000","municipality_name":"Nabua"},"geometry":{"type":"Point","coordinates":[123.28427873350006,13.398175715500031]}},{"type":"Feature","properties":{"psgc_code":"051723036","name":"San Vicente Gorong-Gorong","level":"barangay-label","municipality_psgc_code":"051723000","municipality_name":"Nabua"},"geometry":{"type":"Point","coordinates":[123.29092806050011,13.378163636000039]}},{"type":"Feature","properties":{"psgc_code":"051723037","name":"San Vicente Ogbon","level":"barangay-label","municipality_psgc_code":"051723000","municipality_name":"Nabua"},"geometry":{"type":"Point","coordinates":[123.35074943200006,13.380533195500048]}},{"type":"Feature","properties":{"psgc_code":"051723038","name":"Santa Barbara","level":"barangay-label","municipality_psgc_code":"051723000","municipality_name":"Nabua"},"geometry":{"type":"Point","coordinates":[123.34856938550007,13.411881256500063]}},{"type":"Feature","properties":{"psgc_code":"051723039","name":"Santa Cruz","level":"barangay-label","municipality_psgc_code":"051723000","municipality_name":"Nabua"},"geometry":{"type":"Point","coordinates":[123.34207139900008,13.40330153900004]}},{"type":"Feature","properties":{"psgc_code":"051723040","name":"Santa Elena Baras","level":"barangay-label","municipality_psgc_code":"051723000","municipality_name":"Nabua"},"geometry":{"type":"Point","coordinates":[123.38815302100005,13.421913469500053]}},{"type":"Feature","properties":{"psgc_code":"051723041","name":"Santa Lucia Baras","level":"barangay-label","municipality_psgc_code":"051723000","municipality_name":"Nabua"},"geometry":{"type":"Point","coordinates":[123.37577489150004,13.419708428500057]}},{"type":"Feature","properties":{"psgc_code":"051723042","name":"Santiago Old","level":"barangay-label","municipality_psgc_code":"051723000","municipality_name":"Nabua"},"geometry":{"type":"Point","coordinates":[123.36022219750002,13.399909065000056]}},{"type":"Feature","properties":{"psgc_code":"051723043","name":"Santiago Young","level":"barangay-label","municipality_psgc_code":"051723000","municipality_name":"Nabua"},"geometry":{"type":"Point","coordinates":[123.36715367600006,13.394836700000042]}},{"type":"Feature","properties":{"psgc_code":"051723044","name":"Santo Domingo","level":"barangay-label","municipality_psgc_code":"051723000","municipality_name":"Nabua"},"geometry":{"type":"Point","coordinates":[123.33322125350008,13.407924041000058]}},{"type":"Feature","properties":{"psgc_code":"051723045","name":"Tandaay","level":"barangay-label","municipality_psgc_code":"051723000","municipality_name":"Nabua"},"geometry":{"type":"Point","coordinates":[123.2977350700001,13.394986761000041]}},{"type":"Feature","properties":{"psgc_code":"051723046","name":"Topas Proper","level":"barangay-label","municipality_psgc_code":"051723000","municipality_name":"Nabua"},"geometry":{"type":"Point","coordinates":[123.31242533500006,13.40631955750004]}},{"type":"Feature","properties":{"psgc_code":"051723047","name":"Topas Sogod","level":"barangay-label","municipality_psgc_code":"051723000","municipality_name":"Nabua"},"geometry":{"type":"Point","coordinates":[123.31767441300008,13.412065808000051]}},{"type":"Feature","properties":{"psgc_code":"051723048","name":"Paloyon Oriental","level":"barangay-label","municipality_psgc_code":"051723000","municipality_name":"Nabua"},"geometry":{"type":"Point","coordinates":[123.38791950500001,13.370846874500046]}}]}
