{"type":"FeatureCollection","features":[{"type":"Feature","properties":{"psgc_code":"051737001","name":"Agay-Ayan","level":"barangay-label","municipality_psgc_code":"051737000","municipality_name":"Tinambac"},"geometry":{"type":"Point","coordinates":[123.40602049250009,13.96013942600004]}},{"type":"Feature","properties":{"psgc_code":"051737002","name":"Antipolo","level":"barangay-label","municipality_psgc_code":"051737000","municipality_name":"Tinambac"},"geometry":{"type":"Point","coordinates":[123.37397331850008,13.840009387000064]}},{"type":"Feature","properties":{"psgc_code":"051737003","name":"Bagacay","level":"barangay-label","municipality_psgc_code":"051737000","municipality_name":"Tinambac"},"geometry":{"type":"Point","coordinates":[123.31095920750005,13.775618447000056]}},{"type":"Feature","properties":{"psgc_code":"051737004","name":"Banga","level":"barangay-label","municipality_psgc_code":"051737000","municipality_name":"Tinambac"},"geometry":{"type":"Point","coordinates":[123.39303421500006,13.881942805000051]}},{"type":"Feature","properties":{"psgc_code":"051737005","name":"Bolaobalite","level":"barangay-label","municipality_psgc_code":"051737000","municipality_name":"Tinambac"},"geometry":{"type":"Point","coordinates":[123.34693490750004,13.786540792000068]}},{"type":"Feature","properties":{"psgc_code":"051737006","name":"Bani","level":"barangay-label","municipality_psgc_code":"051737000","municipality_name":"Tinambac"},"geometry":{"type":"Point","coordinates":[123.32967758850009,13.967599783000024]}},{"type":"Feature","properties":{"psgc_code":"051737007","name":"Bataan","level":"barangay-label","municipality_psgc_code":"051737000","municipality_name":"Tinambac"},"geometry":{"type":"Point","coordinates":[123.37324048300007,13.85966744950005]}},{"type":"Feature","properties":{"psgc_code":"051737008","name":"Binalay","level":"barangay-label","municipality_psgc_code":"051737000","municipality_name":"Tinambac"},"geometry":{"type":"Point","coordinates":[123.3493670640001,13.809241998000033]}},{"type":"Feature","properties":{"psgc_code":"051737009","name":"Buenavista","level":"barangay-label","municipality_psgc_code":"051737000","municipality_name":"Tinambac"},"geometry":{"type":"Point","coordinates":[123.31734612150007,13.868533811500043]}},{"type":"Feature","properties":{"psgc_code":"051737010","name":"Buyo","level":"barangay-label","municipality_psgc_code":"051737000","municipality_name":"Tinambac"},"geometry":{"type":"Point","coordinates":[123.31518851350006,13.757562958500076]}},{"type":"Feature","properties":{"psgc_code":"051737011","name":"Cagliliog","level":"barangay-label","municipality_psgc_code":"051737000","municipality_name":"Tinambac"},"geometry":{"type":"Point","coordinates":[123.30143933750009,13.903986677000063]}},{"type":"Feature","properties":{"psgc_code":"051737012","name":"Caloco","level":"barangay-label","municipality_psgc_code":"051737000","municipality_name":"Tinambac"},"geometry":{"type":"Point","coordinates":[123.39474237800005,13.984650340000059]}},{"type":"Feature","properties":{"psgc_code":"051737013","name":"Camagong","level":"barangay-label","municipality_psgc_code":"051737000","municipality_name":"Tinambac"},"geometry":{"type":"Point","coordinates":[123.34678125200008,13.834225787500031]}},{"type":"Feature","properties":{"psgc_code":"051737014","name":"Canayonan","level":"barangay-label","municipality_psgc_code":"051737000","municipality_name":"Tinambac"},"geometry":{"type":"Point","coordinates":[123.35869619400006,13.754586254000031]}},{"type":"Feature","properties":{"psgc_code":"051737015","name":"Cawaynan","level":"barangay-label","municipality_psgc_code":"051737000","municipality_name":"Tinambac"},"geometry":{"type":"Point","coordinates":[123.35255417450003,13.717384703500045]}},{"type":"Feature","properties":{"psgc_code":"051737016","name":"Daligan","level":"barangay-label","municipality_psgc_code":"051737000","municipality_name":"Tinambac"},"geometry":{"type":"Point","coordinates":[123.31040889050007,13.941994605000048]}},{"type":"Feature","properties":{"psgc_code":"051737017","name":"Filarca (Pob.)","level":"barangay-label","municipality_psgc_code":"051737000","municipality_name":"Tinambac"},"geometry":{"type":"Point","coordinates":[123.32596201350007,13.815246020000044]}},{"type":"Feature","properties":{"psgc_code":"051737018","name":"La Purisima (Pob.)","level":"barangay-label","municipality_psgc_code":"051737000","municipality_name":"Tinambac"},"geometry":{"type":"Point","coordinates":[123.32621404150007,13.816416820500052]}},{"type":"Feature","properties":{"psgc_code":"051737019","name":"Lupi","level":"barangay-label","municipality_psgc_code":"051737000","municipality_name":"Tinambac"},"geometry":{"type":"Point","coordinates":[123.38098048550012,13.70134254800004]}},{"type":"Feature","properties":{"psgc_code":"051737020","name":"Magsaysay","level":"barangay-label","municipality_psgc_code":"051737000","municipality_name":"Tinambac"},"geometry":{"type":"Point","coordinates":[123.36161366900006,14.002854628500046]}},{"type":"Feature","properties":{"psgc_code":"051737021","name":"Magtang","level":"barangay-label","municipality_psgc_code":"051737000","municipality_name":"Tinambac"},"geometry":{"type":"Point","coordinates":[123.3034094460001,13.887396621500043]}},{"type":"Feature","properties":{"psgc_code":"051737022","name":"Mananao","level":"barangay-label","municipality_psgc_code":"051737000","municipality_name":"Tinambac"},"geometry":{"type":"Point","coordinates":[123.33724606950005,13.767892868000047]}},{"type":"Feature","properties":{"psgc_code":"051737023","name":"La Medalla","level":"barangay-label","municipality_psgc_code":"051737000","municipality_name":"Tinambac"},"geometry":{"type":"Point","coordinates":[123.37647154600006,13.973835833000063]}},{"type":"Feature","properties":{"psgc_code":"051737024","name":"New Caaluan","level":"barangay-label","municipality_psgc_code":"051737000","municipality_name":"Tinambac"},"geometry":{"type":"Point","coordinates":[123.31968841700007,13.794394720000069]}},{"type":"Feature","properties":{"psgc_code":"051737025","name":"Olag Grande","level":"barangay-label","municipality_psgc_code":"051737000","municipality_name":"Tinambac"},"geometry":{"type":"Point","coordinates":[123.38912925000005,13.79075261500003]}},{"type":"Feature","properties":{"psgc_code":"051737026","name":"Olag Peque\u00f1o","level":"barangay-label","municipality_psgc_code":"051737000","municipality_name":"Tinambac"},"geometry":{"type":"Point","coordinates":[123.36908626300004,13.822148334000047]}},{"type":"Feature","properties":{"psgc_code":"051737027","name":"Old Caaluan","level":"barangay-label","municipality_psgc_code":"051737000","municipality_name":"Tinambac"},"geometry":{"type":"Point","coordinates":[123.32636220750004,13.802109498500045]}},{"type":"Feature","properties":{"psgc_code":"051737028","name":"Pag-Asa","level":"barangay-label","municipality_psgc_code":"051737000","municipality_name":"Tinambac"},"geometry":{"type":"Point","coordinates":[123.40736267300008,13.923095136000057]}},{"type":"Feature","properties":{"psgc_code":"051737029","name":"Pantat","level":"barangay-label","municipality_psgc_code":"051737000","municipality_name":"Tinambac"},"geometry":{"type":"Point","coordinates":[123.32609627750008,13.925402017000039]}},{"type":"Feature","properties":{"psgc_code":"051737030","name":"Sagrada","level":"barangay-label","municipality_psgc_code":"051737000","municipality_name":"Tinambac"},"geometry":{"type":"Point","coordinates":[123.36857247800003,13.950615376500053]}},{"type":"Feature","properties":{"psgc_code":"051737031","name":"Salvacion","level":"barangay-label","municipality_psgc_code":"051737000","municipality_name":"Tinambac"},"geometry":{"type":"Point","coordinates":[123.34227126300004,13.850118221500054]}},{"type":"Feature","properties":{"psgc_code":"051737032","name":"San Antonio","level":"barangay-label","municipality_psgc_code":"051737000","municipality_name":"Tinambac"},"geometry":{"type":"Point","coordinates":[123.38243795650004,14.019586814000064]}},{"type":"Feature","properties":{"psgc_code":"051737033","name":"San Isidro (Pob.)","level":"barangay-label","municipality_psgc_code":"051737000","municipality_name":"Tinambac"},"geometry":{"type":"Point","coordinates":[123.33058016400004,13.816869917000046]}},{"type":"Feature","properties":{"psgc_code":"051737034","name":"San Jose","level":"barangay-label","municipality_psgc_code":"051737000","municipality_name":"Tinambac"},"geometry":{"type":"Point","coordinates":[123.3724905850001,13.805654459000039]}},{"type":"Feature","properties":{"psgc_code":"051737035","name":"San Pascual (Pob.)","level":"barangay-label","municipality_psgc_code":"051737000","municipality_name":"Tinambac"},"geometry":{"type":"Point","coordinates":[123.3268676510001,13.819318652500069]}},{"type":"Feature","properties":{"psgc_code":"051737036","name":"San Ramon","level":"barangay-label","municipality_psgc_code":"051737000","municipality_name":"Tinambac"},"geometry":{"type":"Point","coordinates":[123.34925221150007,13.909145252500052]}},{"type":"Feature","properties":{"psgc_code":"051737037","name":"San Roque","level":"barangay-label","municipality_psgc_code":"051737000","municipality_name":"Tinambac"},"geometry":{"type":"Point","coordinates":[123.34854098500011,13.883727649500027]}},{"type":"Feature","properties":{"psgc_code":"051737038","name":"San Vicente","level":"barangay-label","municipality_psgc_code":"051737000","municipality_name":"Tinambac"},"geometry":{"type":"Point","coordinates":[123.34707317950006,13.988801001500034]}},{"type":"Feature","properties":{"psgc_code":"051737039","name":"Santa Cruz (Pob.)","level":"barangay-label","municipality_psgc_code":"051737000","municipality_name":"Tinambac"},"geometry":{"type":"Point","coordinates":[123.33449829650004,13.807603453000041]}},{"type":"Feature","properties":{"psgc_code":"051737040","name":"Sogod","level":"barangay-label","municipality_psgc_code":"051737000","municipality_name":"Tinambac"},"geometry":{"type":"Point","coordinates":[123.32508934750005,13.824426379000045]}},{"type":"Feature","properties":{"psgc_code":"051737041","name":"Tambang","level":"barangay-label","municipality_psgc_code":"051737000","municipality_name":"Tinambac"},"geometry":{"type":"Point","coordinates":[123.40878937650007,13.904505734500049]}},{"type":"Feature","properties":{"psgc_code":"051737042","name":"Tierra Nevada","level":"barangay-label","municipality_psgc_code":"051737000","municipality_name":"Tinambac"},"geometry":{"type":"Point","coordinates":[123.37498926500007,13.778186727500042]}},{"type":"Feature","properties":{"psgc_code":"051737043","name":"Union","level":"barangay-label","municipality_psgc_code":"051737000","municipality_name":"Tinambac"},"geometry":{"type":"Point","coordinates":[123.33057691500005,13.852946365000037]}},{"type":"Feature","properties":{"psgc_code":"051737044","name":"Salvacion Poblacion","level":"barangay-label","municipality_psgc_code":"051737000","municipality_name":"Tinambac"},"geometry":{"type":"Point","coordinates":[123.32360321050004,13.81714138050003]}}]}
