{"type":"FeatureCollection","features":[{"type":"Feature","properties":{"psgc_code":"051715001","name":"Abucayan","level":"barangay-label","municipality_psgc_code":"051715000","municipality_name":"Goa"},"geometry":{"type":"Point","coordinates":[123.45753992250009,13.699047107500034]}},{"type":"Feature","properties":{"psgc_code":"051715002","name":"Bagumbayan Grande (Pob.)","level":"barangay-label","municipality_psgc_code":"051715000","municipality_name":"Goa"},"geometry":{"type":"Point","coordinates":[123.49227591300001,13.695100422000053]}},{"type":"Feature","properties":{"psgc_code":"051715003","name":"Bagumbayan Peque\u00f1o (Pob.)","level":"barangay-label","municipality_psgc_code":"051715000","municipality_name":"Goa"},"geometry":{"type":"Point","coordinates":[123.48520717250011,13.693604197500036]}},{"type":"Feature","properties":{"psgc_code":"051715004","name":"Balaynan","level":"barangay-label","municipality_psgc_code":"051715000","municipality_name":"Goa"},"geometry":{"type":"Point","coordinates":[123.41328322050009,13.737270474500036]}},{"type":"Feature","properties":{"psgc_code":"051715005","name":"Belen (Pob.)","level":"barangay-label","municipality_psgc_code":"051715000","municipality_name":"Goa"},"geometry":{"type":"Point","coordinates":[123.48529123600002,13.699069270500047]}},{"type":"Feature","properties":{"psgc_code":"051715006","name":"Buyo","level":"barangay-label","municipality_psgc_code":"051715000","municipality_name":"Goa"},"geometry":{"type":"Point","coordinates":[123.46728288850005,13.675589575000059]}},{"type":"Feature","properties":{"psgc_code":"051715007","name":"Cagaycay","level":"barangay-label","municipality_psgc_code":"051715000","municipality_name":"Goa"},"geometry":{"type":"Point","coordinates":[123.45571234950008,13.718022089500066]}},{"type":"Feature","properties":{"psgc_code":"051715008","name":"Catagbacan","level":"barangay-label","municipality_psgc_code":"051715000","municipality_name":"Goa"},"geometry":{"type":"Point","coordinates":[123.4761059110001,13.664887469500059]}},{"type":"Feature","properties":{"psgc_code":"051715009","name":"Digdigon","level":"barangay-label","municipality_psgc_code":"051715000","municipality_name":"Goa"},"geometry":{"type":"Point","coordinates":[123.4196802245001,13.72054245350003]}},{"type":"Feature","properties":{"psgc_code":"051715010","name":"Gimaga","level":"barangay-label","municipality_psgc_code":"051715000","municipality_name":"Goa"},"geometry":{"type":"Point","coordinates":[123.47387947150003,13.704821405500041]}},{"type":"Feature","properties":{"psgc_code":"051715011","name":"Halawig-Gogon","level":"barangay-label","municipality_psgc_code":"051715000","municipality_name":"Goa"},"geometry":{"type":"Point","coordinates":[123.48286765350002,13.710270036000054]}},{"type":"Feature","properties":{"psgc_code":"051715013","name":"Hiwacloy","level":"barangay-label","municipality_psgc_code":"051715000","municipality_name":"Goa"},"geometry":{"type":"Point","coordinates":[123.41364177100007,13.680145374500059]}},{"type":"Feature","properties":{"psgc_code":"051715014","name":"La Purisima (Pob.)","level":"barangay-label","municipality_psgc_code":"051715000","municipality_name":"Goa"},"geometry":{"type":"Point","coordinates":[123.49009307800007,13.699264129500051]}},{"type":"Feature","properties":{"psgc_code":"051715015","name":"Lamon","level":"barangay-label","municipality_psgc_code":"051715000","municipality_name":"Goa"},"geometry":{"type":"Point","coordinates":[123.42682801850009,13.792652498500047]}},{"type":"Feature","properties":{"psgc_code":"051715016","name":"Matacla","level":"barangay-label","municipality_psgc_code":"051715000","municipality_name":"Goa"},"geometry":{"type":"Point","coordinates":[123.48962761950008,13.68616997150005]}},{"type":"Feature","properties":{"psgc_code":"051715017","name":"Maymatan","level":"barangay-label","municipality_psgc_code":"051715000","municipality_name":"Goa"},"geometry":{"type":"Point","coordinates":[123.46683076000011,13.719683112500036]}},{"type":"Feature","properties":{"psgc_code":"051715018","name":"Maysalay","level":"barangay-label","municipality_psgc_code":"051715000","municipality_name":"Goa"},"geometry":{"type":"Point","coordinates":[123.39861680700005,13.800882644500064]}},{"type":"Feature","properties":{"psgc_code":"051715019","name":"Napawon","level":"barangay-label","municipality_psgc_code":"051715000","municipality_name":"Goa"},"geometry":{"type":"Point","coordinates":[123.4844565750001,13.726521658000024]}},{"type":"Feature","properties":{"psgc_code":"051715020","name":"Panday (Pob.)","level":"barangay-label","municipality_psgc_code":"051715000","municipality_name":"Goa"},"geometry":{"type":"Point","coordinates":[123.48623663450007,13.69796695550005]}},{"type":"Feature","properties":{"psgc_code":"051715021","name":"Payatan","level":"barangay-label","municipality_psgc_code":"051715000","municipality_name":"Goa"},"geometry":{"type":"Point","coordinates":[123.39467493850009,13.748307788000064]}},{"type":"Feature","properties":{"psgc_code":"051715022","name":"Pinaglabanan","level":"barangay-label","municipality_psgc_code":"051715000","municipality_name":"Goa"},"geometry":{"type":"Point","coordinates":[123.44495288000007,13.699947623500034]}},{"type":"Feature","properties":{"psgc_code":"051715023","name":"Salog","level":"barangay-label","municipality_psgc_code":"051715000","municipality_name":"Goa"},"geometry":{"type":"Point","coordinates":[123.46216417500005,13.737989040500054]}},{"type":"Feature","properties":{"psgc_code":"051715024","name":"San Benito (Pob.)","level":"barangay-label","municipality_psgc_code":"051715000","municipality_name":"Goa"},"geometry":{"type":"Point","coordinates":[123.49504788600007,13.70205877400005]}},{"type":"Feature","properties":{"psgc_code":"051715025","name":"San Isidro West","level":"barangay-label","municipality_psgc_code":"051715000","municipality_name":"Goa"},"geometry":{"type":"Point","coordinates":[123.44137101000005,13.750560369000029]}},{"type":"Feature","properties":{"psgc_code":"051715026","name":"San Isidro (Pob.)","level":"barangay-label","municipality_psgc_code":"051715000","municipality_name":"Goa"},"geometry":{"type":"Point","coordinates":[123.4956682245001,13.700042028500064]}},{"type":"Feature","properties":{"psgc_code":"051715027","name":"San Jose (Pob.)","level":"barangay-label","municipality_psgc_code":"051715000","municipality_name":"Goa"},"geometry":{"type":"Point","coordinates":[123.49623664850009,13.698823640000029]}},{"type":"Feature","properties":{"psgc_code":"051715028","name":"San Juan Bautista (Pob.)","level":"barangay-label","municipality_psgc_code":"051715000","municipality_name":"Goa"},"geometry":{"type":"Point","coordinates":[123.48502709600008,13.696181737000074]}},{"type":"Feature","properties":{"psgc_code":"051715029","name":"San Juan Evangelista (Pob.)","level":"barangay-label","municipality_psgc_code":"051715000","municipality_name":"Goa"},"geometry":{"type":"Point","coordinates":[123.49243643350002,13.697074548000046]}},{"type":"Feature","properties":{"psgc_code":"051715030","name":"San Pedro","level":"barangay-label","municipality_psgc_code":"051715000","municipality_name":"Goa"},"geometry":{"type":"Point","coordinates":[123.43739069850011,13.666706070500055]}},{"type":"Feature","properties":{"psgc_code":"051715031","name":"Scout Fuentebella","level":"barangay-label","municipality_psgc_code":"051715000","municipality_name":"Goa"},"geometry":{"type":"Point","coordinates":[123.40947601500007,13.831313836500044]}},{"type":"Feature","properties":{"psgc_code":"051715032","name":"Tabgon","level":"barangay-label","municipality_psgc_code":"051715000","municipality_name":"Goa"},"geometry":{"type":"Point","coordinates":[123.40778519200006,13.766855219500059]}},{"type":"Feature","properties":{"psgc_code":"051715033","name":"Tagongtong","level":"barangay-label","municipality_psgc_code":"051715000","municipality_name":"Goa"},"geometry":{"type":"Point","coordinates":[123.4649063450001,13.69124002650005]}},{"type":"Feature","properties":{"psgc_code":"051715034","name":"Tamban","level":"barangay-label","municipality_psgc_code":"051715000","municipality_name":"Goa"},"geometry":{"type":"Point","coordinates":[123.40175900750006,13.855722893500058]}},{"type":"Feature","properties":{"psgc_code":"051715035","name":"Taytay","level":"barangay-label","municipality_psgc_code":"051715000","municipality_name":"Goa"},"geometry":{"type":"Point","coordinates":[123.49651635950005,13.710738176000032]}}]}
