{"type":"FeatureCollection","features":[{"type":"Feature","properties":{"psgc_code":"051728001","name":"Anayan","level":"barangay-label","municipality_psgc_code":"051728000","municipality_name":"Pili"},"geometry":{"type":"Point","coordinates":[123.28118772950006,13.536290020000052]}},{"type":"Feature","properties":{"psgc_code":"051728002","name":"Bagong Sirang","level":"barangay-label","municipality_psgc_code":"051728000","municipality_name":"Pili"},"geometry":{"type":"Point","coordinates":[123.31398877500006,13.574996303000063]}},{"type":"Feature","properties":{"psgc_code":"051728003","name":"Binanwaanan","level":"barangay-label","municipality_psgc_code":"051728000","municipality_name":"Pili"},"geometry":{"type":"Point","coordinates":[123.29947671750006,13.593320851500039]}},{"type":"Feature","properties":{"psgc_code":"051728004","name":"Binobong","level":"barangay-label","municipality_psgc_code":"051728000","municipality_name":"Pili"},"geometry":{"type":"Point","coordinates":[123.2646989640001,13.533253739500054]}},{"type":"Feature","properties":{"psgc_code":"051728005","name":"Cadlan","level":"barangay-label","municipality_psgc_code":"051728000","municipality_name":"Pili"},"geometry":{"type":"Point","coordinates":[123.26350642000006,13.604242928000073]}},{"type":"Feature","properties":{"psgc_code":"051728006","name":"Caroyroyan","level":"barangay-label","municipality_psgc_code":"051728000","municipality_name":"Pili"},"geometry":{"type":"Point","coordinates":[123.28044687600004,13.607681402500049]}},{"type":"Feature","properties":{"psgc_code":"051728007","name":"Curry","level":"barangay-label","municipality_psgc_code":"051728000","municipality_name":"Pili"},"geometry":{"type":"Point","coordinates":[123.33625081450003,13.62024912700005]}},{"type":"Feature","properties":{"psgc_code":"051728008","name":"Del Rosario","level":"barangay-label","municipality_psgc_code":"051728000","municipality_name":"Pili"},"geometry":{"type":"Point","coordinates":[123.31336381500006,13.60011519300005]}},{"type":"Feature","properties":{"psgc_code":"051728009","name":"Himaao","level":"barangay-label","municipality_psgc_code":"051728000","municipality_name":"Pili"},"geometry":{"type":"Point","coordinates":[123.31018484400006,13.545236267500059]}},{"type":"Feature","properties":{"psgc_code":"051728010","name":"La Purisima","level":"barangay-label","municipality_psgc_code":"051728000","municipality_name":"Pili"},"geometry":{"type":"Point","coordinates":[123.29202352300007,13.565189897500034]}},{"type":"Feature","properties":{"psgc_code":"051728011","name":"New San Roque","level":"barangay-label","municipality_psgc_code":"051728000","municipality_name":"Pili"},"geometry":{"type":"Point","coordinates":[123.27792167900009,13.542814130000039]}},{"type":"Feature","properties":{"psgc_code":"051728012","name":"Old San Roque (Pob.)","level":"barangay-label","municipality_psgc_code":"051728000","municipality_name":"Pili"},"geometry":{"type":"Point","coordinates":[123.27287214100011,13.551805048000036]}},{"type":"Feature","properties":{"psgc_code":"051728013","name":"Palestina","level":"barangay-label","municipality_psgc_code":"051728000","municipality_name":"Pili"},"geometry":{"type":"Point","coordinates":[123.27648831550005,13.621180756000058]}},{"type":"Feature","properties":{"psgc_code":"051728014","name":"Pawili","level":"barangay-label","municipality_psgc_code":"051728000","municipality_name":"Pili"},"geometry":{"type":"Point","coordinates":[123.29173471350009,13.531030696000045]}},{"type":"Feature","properties":{"psgc_code":"051728015","name":"Sagurong","level":"barangay-label","municipality_psgc_code":"051728000","municipality_name":"Pili"},"geometry":{"type":"Point","coordinates":[123.25211827150002,13.567736098500035]}},{"type":"Feature","properties":{"psgc_code":"051728016","name":"Sagrada","level":"barangay-label","municipality_psgc_code":"051728000","municipality_name":"Pili"},"geometry":{"type":"Point","coordinates":[123.2958539760001,13.543461596500036]}},{"type":"Feature","properties":{"psgc_code":"051728017","name":"San Agustin","level":"barangay-label","municipality_psgc_code":"051728000","municipality_name":"Pili"},"geometry":{"type":"Point","coordinates":[123.26832049400008,13.56832047800006]}},{"type":"Feature","properties":{"psgc_code":"051728018","name":"San Antonio (Pob.)","level":"barangay-label","municipality_psgc_code":"051728000","municipality_name":"Pili"},"geometry":{"type":"Point","coordinates":[123.27445736650009,13.559315757000062]}},{"type":"Feature","properties":{"psgc_code":"051728019","name":"San Isidro (Pob.)","level":"barangay-label","municipality_psgc_code":"051728000","municipality_name":"Pili"},"geometry":{"type":"Point","coordinates":[123.2750222525001,13.561354298500047]}},{"type":"Feature","properties":{"psgc_code":"051728020","name":"San Jose","level":"barangay-label","municipality_psgc_code":"051728000","municipality_name":"Pili"},"geometry":{"type":"Point","coordinates":[123.27134783300005,13.595259286000045]}},{"type":"Feature","properties":{"psgc_code":"051728021","name":"San Juan (Pob.)","level":"barangay-label","municipality_psgc_code":"051728000","municipality_name":"Pili"},"geometry":{"type":"Point","coordinates":[123.27228685550006,13.553489068500056]}},{"type":"Feature","properties":{"psgc_code":"051728022","name":"San Vicente (Pob.)","level":"barangay-label","municipality_psgc_code":"051728000","municipality_name":"Pili"},"geometry":{"type":"Point","coordinates":[123.27955203100004,13.55983830650004]}},{"type":"Feature","properties":{"psgc_code":"051728023","name":"Santiago (Pob.)","level":"barangay-label","municipality_psgc_code":"051728000","municipality_name":"Pili"},"geometry":{"type":"Point","coordinates":[123.27789057600006,13.55461819100006]}},{"type":"Feature","properties":{"psgc_code":"051728024","name":"Santo Ni\u00f1o","level":"barangay-label","municipality_psgc_code":"051728000","municipality_name":"Pili"},"geometry":{"type":"Point","coordinates":[123.34965373200009,13.615032567000041]}},{"type":"Feature","properties":{"psgc_code":"051728025","name":"Tagbong","level":"barangay-label","municipality_psgc_code":"051728000","municipality_name":"Pili"},"geometry":{"type":"Point","coordinates":[123.26017281000003,13.541352037000053]}},{"type":"Feature","properties":{"psgc_code":"051728026","name":"Tinangis","level":"barangay-label","municipality_psgc_code":"051728000","municipality_name":"Pili"},"geometry":{"type":"Point","coordinates":[123.31286208250003,13.63289219200004]}}]}
