{"type":"FeatureCollection","features":[{"type":"Feature","properties":{"psgc_code":"051732001","name":"Alianza","level":"barangay-label","municipality_psgc_code":"051732000","municipality_name":"San Fernando"},"geometry":{"type":"Point","coordinates":[123.1069211630001,13.551965002000028]}},{"type":"Feature","properties":{"psgc_code":"051732002","name":"Beberon","level":"barangay-label","municipality_psgc_code":"051732000","municipality_name":"San Fernando"},"geometry":{"type":"Point","coordinates":[123.14214920900008,13.546736570000062]}},{"type":"Feature","properties":{"psgc_code":"051732003","name":"Bical","level":"barangay-label","municipality_psgc_code":"051732000","municipality_name":"San Fernando"},"geometry":{"type":"Point","coordinates":[123.09854147450011,13.48988089450006]}},{"type":"Feature","properties":{"psgc_code":"051732004","name":"Bocal","level":"barangay-label","municipality_psgc_code":"051732000","municipality_name":"San Fernando"},"geometry":{"type":"Point","coordinates":[123.13634659550007,13.522064224500067]}},{"type":"Feature","properties":{"psgc_code":"051732005","name":"Bonifacio (Pob.)","level":"barangay-label","municipality_psgc_code":"051732000","municipality_name":"San Fernando"},"geometry":{"type":"Point","coordinates":[123.13869090900005,13.564077730500058]}},{"type":"Feature","properties":{"psgc_code":"051732006","name":"Buenavista (Pob.)","level":"barangay-label","municipality_psgc_code":"051732000","municipality_name":"San Fernando"},"geometry":{"type":"Point","coordinates":[123.15956394250003,13.569698691000067]}},{"type":"Feature","properties":{"psgc_code":"051732007","name":"Calascagas","level":"barangay-label","municipality_psgc_code":"051732000","municipality_name":"San Fernando"},"geometry":{"type":"Point","coordinates":[123.09989831950003,13.526969957000063]}},{"type":"Feature","properties":{"psgc_code":"051732008","name":"Cotmo","level":"barangay-label","municipality_psgc_code":"051732000","municipality_name":"San Fernando"},"geometry":{"type":"Point","coordinates":[123.14055897900005,13.465807077500044]}},{"type":"Feature","properties":{"psgc_code":"051732009","name":"Daculang Tubig","level":"barangay-label","municipality_psgc_code":"051732000","municipality_name":"San Fernando"},"geometry":{"type":"Point","coordinates":[123.1165294760001,13.507257582500046]}},{"type":"Feature","properties":{"psgc_code":"051732010","name":"Del Pilar (Pob.)","level":"barangay-label","municipality_psgc_code":"051732000","municipality_name":"San Fernando"},"geometry":{"type":"Point","coordinates":[123.15127784800006,13.574574496500048]}},{"type":"Feature","properties":{"psgc_code":"051732011","name":"G\u00f1aran","level":"barangay-label","municipality_psgc_code":"051732000","municipality_name":"San Fernando"},"geometry":{"type":"Point","coordinates":[123.11298054100007,13.486314835000059]}},{"type":"Feature","properties":{"psgc_code":"051732012","name":"Grijalvo","level":"barangay-label","municipality_psgc_code":"051732000","municipality_name":"San Fernando"},"geometry":{"type":"Point","coordinates":[123.13202888000006,13.548331603000037]}},{"type":"Feature","properties":{"psgc_code":"051732013","name":"Lupi","level":"barangay-label","municipality_psgc_code":"051732000","municipality_name":"San Fernando"},"geometry":{"type":"Point","coordinates":[123.15067689950007,13.538602311000034]}},{"type":"Feature","properties":{"psgc_code":"051732014","name":"Marag\u00f1i","level":"barangay-label","municipality_psgc_code":"051732000","municipality_name":"San Fernando"},"geometry":{"type":"Point","coordinates":[123.09645688100005,13.507135639500062]}},{"type":"Feature","properties":{"psgc_code":"051732015","name":"Pamukid","level":"barangay-label","municipality_psgc_code":"051732000","municipality_name":"San Fernando"},"geometry":{"type":"Point","coordinates":[123.12192222950006,13.557376551000033]}},{"type":"Feature","properties":{"psgc_code":"051732016","name":"Pinamasagan","level":"barangay-label","municipality_psgc_code":"051732000","municipality_name":"San Fernando"},"geometry":{"type":"Point","coordinates":[123.12361219650006,13.483500025000042]}},{"type":"Feature","properties":{"psgc_code":"051732017","name":"Pipian","level":"barangay-label","municipality_psgc_code":"051732000","municipality_name":"San Fernando"},"geometry":{"type":"Point","coordinates":[123.14020649400004,13.529030013000039]}},{"type":"Feature","properties":{"psgc_code":"051732018","name":"Planza","level":"barangay-label","municipality_psgc_code":"051732000","municipality_name":"San Fernando"},"geometry":{"type":"Point","coordinates":[123.11774110200008,13.571616706500036]}},{"type":"Feature","properties":{"psgc_code":"051732019","name":"Rizal (Pob.)","level":"barangay-label","municipality_psgc_code":"051732000","municipality_name":"San Fernando"},"geometry":{"type":"Point","coordinates":[123.14754960400006,13.557477379500028]}},{"type":"Feature","properties":{"psgc_code":"051732020","name":"San Joaquin","level":"barangay-label","municipality_psgc_code":"051732000","municipality_name":"San Fernando"},"geometry":{"type":"Point","coordinates":[123.11576192550007,13.538388956500057]}},{"type":"Feature","properties":{"psgc_code":"051732021","name":"Santa Cruz","level":"barangay-label","municipality_psgc_code":"051732000","municipality_name":"San Fernando"},"geometry":{"type":"Point","coordinates":[123.13917832450005,13.573480852000047]}},{"type":"Feature","properties":{"psgc_code":"051732022","name":"Tagpocol","level":"barangay-label","municipality_psgc_code":"051732000","municipality_name":"San Fernando"},"geometry":{"type":"Point","coordinates":[123.13767013150004,13.493535823500054]}}]}
