{"type":"FeatureCollection","features":[{"type":"Feature","properties":{"psgc_code":"051731001","name":"Aniog","level":"barangay-label","municipality_psgc_code":"051731000","municipality_name":"Sag\u00f1ay"},"geometry":{"type":"Point","coordinates":[123.48911519600007,13.543381661000069]}},{"type":"Feature","properties":{"psgc_code":"051731002","name":"Atulayan","level":"barangay-label","municipality_psgc_code":"051731000","municipality_name":"Sag\u00f1ay"},"geometry":{"type":"Point","coordinates":[123.56898612400005,13.585575160500042]}},{"type":"Feature","properties":{"psgc_code":"051731003","name":"Bongalon","level":"barangay-label","municipality_psgc_code":"051731000","municipality_name":"Sag\u00f1ay"},"geometry":{"type":"Point","coordinates":[123.55326705150009,13.537580258500043]}},{"type":"Feature","properties":{"psgc_code":"051731004","name":"Buracan","level":"barangay-label","municipality_psgc_code":"051731000","municipality_name":"Sag\u00f1ay"},"geometry":{"type":"Point","coordinates":[123.49328130100002,13.59684486200004]}},{"type":"Feature","properties":{"psgc_code":"051731005","name":"Catalotoan","level":"barangay-label","municipality_psgc_code":"051731000","municipality_name":"Sag\u00f1ay"},"geometry":{"type":"Point","coordinates":[123.46936913000008,13.545685112500053]}},{"type":"Feature","properties":{"psgc_code":"051731006","name":"Del Carmen (Pob.)","level":"barangay-label","municipality_psgc_code":"051731000","municipality_name":"Sag\u00f1ay"},"geometry":{"type":"Point","coordinates":[123.52195115800004,13.598240153500058]}},{"type":"Feature","properties":{"psgc_code":"051731007","name":"Kilantaao","level":"barangay-label","municipality_psgc_code":"051731000","municipality_name":"Sag\u00f1ay"},"geometry":{"type":"Point","coordinates":[123.45624760400005,13.566452690000034]}},{"type":"Feature","properties":{"psgc_code":"051731008","name":"Kilomaon","level":"barangay-label","municipality_psgc_code":"051731000","municipality_name":"Sag\u00f1ay"},"geometry":{"type":"Point","coordinates":[123.50141227850008,13.54596455600003]}},{"type":"Feature","properties":{"psgc_code":"051731010","name":"Mabca","level":"barangay-label","municipality_psgc_code":"051731000","municipality_name":"Sag\u00f1ay"},"geometry":{"type":"Point","coordinates":[123.5198909175001,13.616391545000056]}},{"type":"Feature","properties":{"psgc_code":"051731011","name":"Minadongjol","level":"barangay-label","municipality_psgc_code":"051731000","municipality_name":"Sag\u00f1ay"},"geometry":{"type":"Point","coordinates":[123.50142194400007,13.581208407000046]}},{"type":"Feature","properties":{"psgc_code":"051731012","name":"Nato","level":"barangay-label","municipality_psgc_code":"051731000","municipality_name":"Sag\u00f1ay"},"geometry":{"type":"Point","coordinates":[123.53733900050008,13.608652539000047]}},{"type":"Feature","properties":{"psgc_code":"051731014","name":"Patitinan","level":"barangay-label","municipality_psgc_code":"051731000","municipality_name":"Sag\u00f1ay"},"geometry":{"type":"Point","coordinates":[123.58018124400007,13.540430412500026]}},{"type":"Feature","properties":{"psgc_code":"051731015","name":"San Antonio (Pob.)","level":"barangay-label","municipality_psgc_code":"051731000","municipality_name":"Sag\u00f1ay"},"geometry":{"type":"Point","coordinates":[123.52125098300002,13.603112901500053]}},{"type":"Feature","properties":{"psgc_code":"051731017","name":"San Isidro (Pob.)","level":"barangay-label","municipality_psgc_code":"051731000","municipality_name":"Sag\u00f1ay"},"geometry":{"type":"Point","coordinates":[123.5279173885001,13.605875768000033]}},{"type":"Feature","properties":{"psgc_code":"051731018","name":"San Roque (Pob.)","level":"barangay-label","municipality_psgc_code":"051731000","municipality_name":"Sag\u00f1ay"},"geometry":{"type":"Point","coordinates":[123.51884084350007,13.607277488500046]}},{"type":"Feature","properties":{"psgc_code":"051731019","name":"Santo Ni\u00f1o","level":"barangay-label","municipality_psgc_code":"051731000","municipality_name":"Sag\u00f1ay"},"geometry":{"type":"Point","coordinates":[123.53065604800008,13.616841209000029]}},{"type":"Feature","properties":{"psgc_code":"051731020","name":"Sibaguan","level":"barangay-label","municipality_psgc_code":"051731000","municipality_name":"Sag\u00f1ay"},"geometry":{"type":"Point","coordinates":[123.53227120000008,13.543818124000039]}},{"type":"Feature","properties":{"psgc_code":"051731022","name":"Tinorongan","level":"barangay-label","municipality_psgc_code":"051731000","municipality_name":"Sag\u00f1ay"},"geometry":{"type":"Point","coordinates":[123.48030219750007,13.571311981500031]}},{"type":"Feature","properties":{"psgc_code":"051731023","name":"Turague","level":"barangay-label","municipality_psgc_code":"051731000","municipality_name":"Sag\u00f1ay"},"geometry":{"type":"Point","coordinates":[123.53320759400003,13.585511919000055]}}]}
