{"type":"FeatureCollection","features":[{"type":"Feature","properties":{"psgc_code":"051706001","name":"Bagoladio","level":"barangay-label","municipality_psgc_code":"051706000","municipality_name":"Bula"},"geometry":{"type":"Point","coordinates":[123.23142987000007,13.432959668000052]}},{"type":"Feature","properties":{"psgc_code":"051706002","name":"Bagumbayan","level":"barangay-label","municipality_psgc_code":"051706000","municipality_name":"Bula"},"geometry":{"type":"Point","coordinates":[123.27719928300007,13.485459086000049]}},{"type":"Feature","properties":{"psgc_code":"051706003","name":"Balaogan","level":"barangay-label","municipality_psgc_code":"051706000","municipality_name":"Bula"},"geometry":{"type":"Point","coordinates":[123.2840473560001,13.432274880000023]}},{"type":"Feature","properties":{"psgc_code":"051706004","name":"Caorasan","level":"barangay-label","municipality_psgc_code":"051706000","municipality_name":"Bula"},"geometry":{"type":"Point","coordinates":[123.21490385400006,13.372399323000055]}},{"type":"Feature","properties":{"psgc_code":"051706005","name":"Casugad","level":"barangay-label","municipality_psgc_code":"051706000","municipality_name":"Bula"},"geometry":{"type":"Point","coordinates":[123.28209966100007,13.449435700500032]}},{"type":"Feature","properties":{"psgc_code":"051706006","name":"Causip","level":"barangay-label","municipality_psgc_code":"051706000","municipality_name":"Bula"},"geometry":{"type":"Point","coordinates":[123.28143831300008,13.499229639500044]}},{"type":"Feature","properties":{"psgc_code":"051706007","name":"Fabrica","level":"barangay-label","municipality_psgc_code":"051706000","municipality_name":"Bula"},"geometry":{"type":"Point","coordinates":[123.29962093150004,13.492618921500053]}},{"type":"Feature","properties":{"psgc_code":"051706008","name":"Inoyonan","level":"barangay-label","municipality_psgc_code":"051706000","municipality_name":"Bula"},"geometry":{"type":"Point","coordinates":[123.23700168500005,13.413378504000065]}},{"type":"Feature","properties":{"psgc_code":"051706009","name":"Itangon","level":"barangay-label","municipality_psgc_code":"051706000","municipality_name":"Bula"},"geometry":{"type":"Point","coordinates":[123.2173553080001,13.399609923500062]}},{"type":"Feature","properties":{"psgc_code":"051706011","name":"Kinalabasahan","level":"barangay-label","municipality_psgc_code":"051706000","municipality_name":"Bula"},"geometry":{"type":"Point","coordinates":[123.21317607100008,13.453949421000061]}},{"type":"Feature","properties":{"psgc_code":"051706012","name":"La Purisima","level":"barangay-label","municipality_psgc_code":"051706000","municipality_name":"Bula"},"geometry":{"type":"Point","coordinates":[123.27445315900007,13.412122306000043]}},{"type":"Feature","properties":{"psgc_code":"051706013","name":"La Victoria","level":"barangay-label","municipality_psgc_code":"051706000","municipality_name":"Bula"},"geometry":{"type":"Point","coordinates":[123.22396091200005,13.443667686000055]}},{"type":"Feature","properties":{"psgc_code":"051706014","name":"Lanipga","level":"barangay-label","municipality_psgc_code":"051706000","municipality_name":"Bula"},"geometry":{"type":"Point","coordinates":[123.32973355050001,13.517610992000044]}},{"type":"Feature","properties":{"psgc_code":"051706015","name":"Lubgan","level":"barangay-label","municipality_psgc_code":"051706000","municipality_name":"Bula"},"geometry":{"type":"Point","coordinates":[123.26499146200007,13.428545887000043]}},{"type":"Feature","properties":{"psgc_code":"051706016","name":"Ombao Heights","level":"barangay-label","municipality_psgc_code":"051706000","municipality_name":"Bula"},"geometry":{"type":"Point","coordinates":[123.24029228250004,13.464395919000054]}},{"type":"Feature","properties":{"psgc_code":"051706017","name":"Ombao Polpog","level":"barangay-label","municipality_psgc_code":"051706000","municipality_name":"Bula"},"geometry":{"type":"Point","coordinates":[123.24348543250011,13.477630710000025]}},{"type":"Feature","properties":{"psgc_code":"051706018","name":"Palsong","level":"barangay-label","municipality_psgc_code":"051706000","municipality_name":"Bula"},"geometry":{"type":"Point","coordinates":[123.29800404950004,13.426167094500041]}},{"type":"Feature","properties":{"psgc_code":"051706019","name":"Panoypoyan","level":"barangay-label","municipality_psgc_code":"051706000","municipality_name":"Bula"},"geometry":{"type":"Point","coordinates":[123.25319955650008,13.452886898000031]}},{"type":"Feature","properties":{"psgc_code":"051706020","name":"Pawili","level":"barangay-label","municipality_psgc_code":"051706000","municipality_name":"Bula"},"geometry":{"type":"Point","coordinates":[123.30159950800004,13.51720162400005]}},{"type":"Feature","properties":{"psgc_code":"051706021","name":"Sagrada","level":"barangay-label","municipality_psgc_code":"051706000","municipality_name":"Bula"},"geometry":{"type":"Point","coordinates":[123.27794148800007,13.474993945500044]}},{"type":"Feature","properties":{"psgc_code":"051706022","name":"Salvacion (Pob.)","level":"barangay-label","municipality_psgc_code":"051706000","municipality_name":"Bula"},"geometry":{"type":"Point","coordinates":[123.28023822550006,13.470817275500025]}},{"type":"Feature","properties":{"psgc_code":"051706023","name":"San Agustin","level":"barangay-label","municipality_psgc_code":"051706000","municipality_name":"Bula"},"geometry":{"type":"Point","coordinates":[123.24561089100007,13.49730997350005]}},{"type":"Feature","properties":{"psgc_code":"051706024","name":"San Francisco","level":"barangay-label","municipality_psgc_code":"051706000","municipality_name":"Bula"},"geometry":{"type":"Point","coordinates":[123.25230072500011,13.397766735000062]}},{"type":"Feature","properties":{"psgc_code":"051706025","name":"San Isidro","level":"barangay-label","municipality_psgc_code":"051706000","municipality_name":"Bula"},"geometry":{"type":"Point","coordinates":[123.26474500250004,13.500462041000048]}},{"type":"Feature","properties":{"psgc_code":"051706026","name":"San Jose","level":"barangay-label","municipality_psgc_code":"051706000","municipality_name":"Bula"},"geometry":{"type":"Point","coordinates":[123.28934153650005,13.469093670000063]}},{"type":"Feature","properties":{"psgc_code":"051706027","name":"San Miguel","level":"barangay-label","municipality_psgc_code":"051706000","municipality_name":"Bula"},"geometry":{"type":"Point","coordinates":[123.26580663900006,13.482222366500055]}},{"type":"Feature","properties":{"psgc_code":"051706028","name":"San Ramon","level":"barangay-label","municipality_psgc_code":"051706000","municipality_name":"Bula"},"geometry":{"type":"Point","coordinates":[123.2319395345001,13.492342431500049]}},{"type":"Feature","properties":{"psgc_code":"051706029","name":"San Roque (Pob.)","level":"barangay-label","municipality_psgc_code":"051706000","municipality_name":"Bula"},"geometry":{"type":"Point","coordinates":[123.26755869750002,13.467078107000049]}},{"type":"Feature","properties":{"psgc_code":"051706030","name":"San Roque Heights","level":"barangay-label","municipality_psgc_code":"051706000","municipality_name":"Bula"},"geometry":{"type":"Point","coordinates":[123.23042694400004,13.384386401000057]}},{"type":"Feature","properties":{"psgc_code":"051706031","name":"Santa Elena","level":"barangay-label","municipality_psgc_code":"051706000","municipality_name":"Bula"},"geometry":{"type":"Point","coordinates":[123.3037687690001,13.482380254000047]}},{"type":"Feature","properties":{"psgc_code":"051706032","name":"Santo Domingo","level":"barangay-label","municipality_psgc_code":"051706000","municipality_name":"Bula"},"geometry":{"type":"Point","coordinates":[123.28052248400007,13.515999301500072]}},{"type":"Feature","properties":{"psgc_code":"051706033","name":"Santo Ni\u00f1o","level":"barangay-label","municipality_psgc_code":"051706000","municipality_name":"Bula"},"geometry":{"type":"Point","coordinates":[123.2173402685001,13.473142069500028]}},{"type":"Feature","properties":{"psgc_code":"051706034","name":"Taisan","level":"barangay-label","municipality_psgc_code":"051706000","municipality_name":"Bula"},"geometry":{"type":"Point","coordinates":[123.20330113900002,13.463624813000035]}}]}
