{"type":"FeatureCollection","features":[{"type":"Feature","properties":{"psgc_code":"051716001","name":"Antipolo","level":"barangay-label","municipality_psgc_code":"051716000","municipality_name":"City of Iriga"},"geometry":{"type":"Point","coordinates":[123.47691211400002,13.52733469000006]}},{"type":"Feature","properties":{"psgc_code":"051716002","name":"Cristo Rey","level":"barangay-label","municipality_psgc_code":"051716000","municipality_name":"City of Iriga"},"geometry":{"type":"Point","coordinates":[123.43613269650007,13.530823356500036]}},{"type":"Feature","properties":{"psgc_code":"051716003","name":"Del Rosario","level":"barangay-label","municipality_psgc_code":"051716000","municipality_name":"City of Iriga"},"geometry":{"type":"Point","coordinates":[123.45328602650005,13.394203173000049]}},{"type":"Feature","properties":{"psgc_code":"051716004","name":"Francia","level":"barangay-label","municipality_psgc_code":"051716000","municipality_name":"City of Iriga"},"geometry":{"type":"Point","coordinates":[123.40190980850008,13.412855348500045]}},{"type":"Feature","properties":{"psgc_code":"051716005","name":"La Anunciacion","level":"barangay-label","municipality_psgc_code":"051716000","municipality_name":"City of Iriga"},"geometry":{"type":"Point","coordinates":[123.4335166520001,13.399145152500068]}},{"type":"Feature","properties":{"psgc_code":"051716006","name":"La Medalla","level":"barangay-label","municipality_psgc_code":"051716000","municipality_name":"City of Iriga"},"geometry":{"type":"Point","coordinates":[123.43387377250008,13.37397726000006]}},{"type":"Feature","properties":{"psgc_code":"051716007","name":"La Purisima","level":"barangay-label","municipality_psgc_code":"051716000","municipality_name":"City of Iriga"},"geometry":{"type":"Point","coordinates":[123.41952896000004,13.406917583000013]}},{"type":"Feature","properties":{"psgc_code":"051716008","name":"La Trinidad","level":"barangay-label","municipality_psgc_code":"051716000","municipality_name":"City of Iriga"},"geometry":{"type":"Point","coordinates":[123.41873727300009,13.387519474000044]}},{"type":"Feature","properties":{"psgc_code":"051716009","name":"Ni\u00f1o Jesus","level":"barangay-label","municipality_psgc_code":"051716000","municipality_name":"City of Iriga"},"geometry":{"type":"Point","coordinates":[123.46452136950006,13.510876059000024]}},{"type":"Feature","properties":{"psgc_code":"051716010","name":"Perpetual Help","level":"barangay-label","municipality_psgc_code":"051716000","municipality_name":"City of Iriga"},"geometry":{"type":"Point","coordinates":[123.42995192600006,13.46509523450004]}},{"type":"Feature","properties":{"psgc_code":"051716011","name":"Sagrada","level":"barangay-label","municipality_psgc_code":"051716000","municipality_name":"City of Iriga"},"geometry":{"type":"Point","coordinates":[123.45684179200009,13.528251141000057]}},{"type":"Feature","properties":{"psgc_code":"051716012","name":"Salvacion","level":"barangay-label","municipality_psgc_code":"051716000","municipality_name":"City of Iriga"},"geometry":{"type":"Point","coordinates":[123.40283235900006,13.37899247100006]}},{"type":"Feature","properties":{"psgc_code":"051716013","name":"San Agustin","level":"barangay-label","municipality_psgc_code":"051716000","municipality_name":"City of Iriga"},"geometry":{"type":"Point","coordinates":[123.4015967585001,13.451450148500044]}},{"type":"Feature","properties":{"psgc_code":"051716014","name":"San Andres","level":"barangay-label","municipality_psgc_code":"051716000","municipality_name":"City of Iriga"},"geometry":{"type":"Point","coordinates":[123.42447415950006,13.491499593500034]}},{"type":"Feature","properties":{"psgc_code":"051716015","name":"San Antonio","level":"barangay-label","municipality_psgc_code":"051716000","municipality_name":"City of Iriga"},"geometry":{"type":"Point","coordinates":[123.41722707500008,13.364636020500058]}},{"type":"Feature","properties":{"psgc_code":"051716016","name":"San Francisco (Pob.)","level":"barangay-label","municipality_psgc_code":"051716000","municipality_name":"City of Iriga"},"geometry":{"type":"Point","coordinates":[123.41209067200009,13.415830287000063]}},{"type":"Feature","properties":{"psgc_code":"051716017","name":"San Isidro","level":"barangay-label","municipality_psgc_code":"051716000","municipality_name":"City of Iriga"},"geometry":{"type":"Point","coordinates":[123.40753173800005,13.445980099500048]}},{"type":"Feature","properties":{"psgc_code":"051716018","name":"San Jose","level":"barangay-label","municipality_psgc_code":"051716000","municipality_name":"City of Iriga"},"geometry":{"type":"Point","coordinates":[123.40035674550006,13.424959992500053]}},{"type":"Feature","properties":{"psgc_code":"051716019","name":"San Juan","level":"barangay-label","municipality_psgc_code":"051716000","municipality_name":"City of Iriga"},"geometry":{"type":"Point","coordinates":[123.43093681950006,13.43233782800004]}},{"type":"Feature","properties":{"psgc_code":"051716020","name":"San Miguel","level":"barangay-label","municipality_psgc_code":"051716000","municipality_name":"City of Iriga"},"geometry":{"type":"Point","coordinates":[123.4073308720001,13.421625655000042]}},{"type":"Feature","properties":{"psgc_code":"051716021","name":"San Nicolas","level":"barangay-label","municipality_psgc_code":"051716000","municipality_name":"City of Iriga"},"geometry":{"type":"Point","coordinates":[123.42024793750005,13.440627143000057]}},{"type":"Feature","properties":{"psgc_code":"051716022","name":"San Pedro","level":"barangay-label","municipality_psgc_code":"051716000","municipality_name":"City of Iriga"},"geometry":{"type":"Point","coordinates":[123.49021253800004,13.518222778500046]}},{"type":"Feature","properties":{"psgc_code":"051716023","name":"San Rafael","level":"barangay-label","municipality_psgc_code":"051716000","municipality_name":"City of Iriga"},"geometry":{"type":"Point","coordinates":[123.41781849950007,13.527155598000038]}},{"type":"Feature","properties":{"psgc_code":"051716024","name":"San Ramon","level":"barangay-label","municipality_psgc_code":"051716000","municipality_name":"City of Iriga"},"geometry":{"type":"Point","coordinates":[123.44588850850005,13.538497062500028]}},{"type":"Feature","properties":{"psgc_code":"051716025","name":"San Roque (Pob.)","level":"barangay-label","municipality_psgc_code":"051716000","municipality_name":"City of Iriga"},"geometry":{"type":"Point","coordinates":[123.41437656600006,13.422557072000046]}},{"type":"Feature","properties":{"psgc_code":"051716026","name":"San Vicente Norte","level":"barangay-label","municipality_psgc_code":"051716000","municipality_name":"City of Iriga"},"geometry":{"type":"Point","coordinates":[123.43767120700007,13.510901007000058]}},{"type":"Feature","properties":{"psgc_code":"051716027","name":"San Vicente Sur","level":"barangay-label","municipality_psgc_code":"051716000","municipality_name":"City of Iriga"},"geometry":{"type":"Point","coordinates":[123.41866628200006,13.40203918500006]}},{"type":"Feature","properties":{"psgc_code":"051716028","name":"Santa Cruz Norte","level":"barangay-label","municipality_psgc_code":"051716000","municipality_name":"City of Iriga"},"geometry":{"type":"Point","coordinates":[123.43772943650004,13.49907907700006]}},{"type":"Feature","properties":{"psgc_code":"051716029","name":"Santa Cruz Sur","level":"barangay-label","municipality_psgc_code":"051716000","municipality_name":"City of Iriga"},"geometry":{"type":"Point","coordinates":[123.40613065700006,13.403692361000054]}},{"type":"Feature","properties":{"psgc_code":"051716030","name":"Santa Elena","level":"barangay-label","municipality_psgc_code":"051716000","municipality_name":"City of Iriga"},"geometry":{"type":"Point","coordinates":[123.44593379900004,13.422844067000057]}},{"type":"Feature","properties":{"psgc_code":"051716031","name":"Santa Isabel","level":"barangay-label","municipality_psgc_code":"051716000","municipality_name":"City of Iriga"},"geometry":{"type":"Point","coordinates":[123.43379847800003,13.523381034500032]}},{"type":"Feature","properties":{"psgc_code":"051716032","name":"Santa Maria","level":"barangay-label","municipality_psgc_code":"051716000","municipality_name":"City of Iriga"},"geometry":{"type":"Point","coordinates":[123.45854586250005,13.481793217000046]}},{"type":"Feature","properties":{"psgc_code":"051716033","name":"Santa Teresita","level":"barangay-label","municipality_psgc_code":"051716000","municipality_name":"City of Iriga"},"geometry":{"type":"Point","coordinates":[123.42530995550004,13.479773521500048]}},{"type":"Feature","properties":{"psgc_code":"051716034","name":"Santiago","level":"barangay-label","municipality_psgc_code":"051716000","municipality_name":"City of Iriga"},"geometry":{"type":"Point","coordinates":[123.45657455850011,13.425324201000048]}},{"type":"Feature","properties":{"psgc_code":"051716035","name":"Santo Domingo","level":"barangay-label","municipality_psgc_code":"051716000","municipality_name":"City of Iriga"},"geometry":{"type":"Point","coordinates":[123.4360838290001,13.429216655000062]}},{"type":"Feature","properties":{"psgc_code":"051716036","name":"Santo Ni\u00f1o","level":"barangay-label","municipality_psgc_code":"051716000","municipality_name":"City of Iriga"},"geometry":{"type":"Point","coordinates":[123.44766059800008,13.378598272500025]}}]}
