{"type":"FeatureCollection","features":[{"type":"Feature","properties":{"psgc_code":"051709001","name":"Dugcal","level":"barangay-label","municipality_psgc_code":"051709000","municipality_name":"Camaligan"},"geometry":{"type":"Point","coordinates":[123.15650167650006,13.62490551150006]}},{"type":"Feature","properties":{"psgc_code":"051709002","name":"Marupit","level":"barangay-label","municipality_psgc_code":"051709000","municipality_name":"Camaligan"},"geometry":{"type":"Point","coordinates":[123.16860017700009,13.628399544500038]}},{"type":"Feature","properties":{"psgc_code":"051709003","name":"San Francisco","level":"barangay-label","municipality_psgc_code":"051709000","municipality_name":"Camaligan"},"geometry":{"type":"Point","coordinates":[123.16720672900011,13.615650303500045]}},{"type":"Feature","properties":{"psgc_code":"051709005","name":"San Juan-San Ramon (Pob.)","level":"barangay-label","municipality_psgc_code":"051709000","municipality_name":"Camaligan"},"geometry":{"type":"Point","coordinates":[123.16909427300004,13.623267345000045]}},{"type":"Feature","properties":{"psgc_code":"051709007","name":"San Lucas (Pob.)","level":"barangay-label","municipality_psgc_code":"051709000","municipality_name":"Camaligan"},"geometry":{"type":"Point","coordinates":[123.16452139750005,13.622355042500033]}},{"type":"Feature","properties":{"psgc_code":"051709008","name":"San Marcos (Pob.)","level":"barangay-label","municipality_psgc_code":"051709000","municipality_name":"Camaligan"},"geometry":{"type":"Point","coordinates":[123.17033650200005,13.619783911000068]}},{"type":"Feature","properties":{"psgc_code":"051709009","name":"San Mateo (Pob.)","level":"barangay-label","municipality_psgc_code":"051709000","municipality_name":"Camaligan"},"geometry":{"type":"Point","coordinates":[123.16187512400006,13.620490244000052]}},{"type":"Feature","properties":{"psgc_code":"051709011","name":"San Jose-San Pablo (Pob.)","level":"barangay-label","municipality_psgc_code":"051709000","municipality_name":"Camaligan"},"geometry":{"type":"Point","coordinates":[123.16590299550006,13.620038953500057]}},{"type":"Feature","properties":{"psgc_code":"051709013","name":"San Roque","level":"barangay-label","municipality_psgc_code":"051709000","municipality_name":"Camaligan"},"geometry":{"type":"Point","coordinates":[123.17242534350011,13.62169277600006]}},{"type":"Feature","properties":{"psgc_code":"051709014","name":"Santo Domingo (Pob.)","level":"barangay-label","municipality_psgc_code":"051709000","municipality_name":"Camaligan"},"geometry":{"type":"Point","coordinates":[123.16871072900005,13.619561997000034]}},{"type":"Feature","properties":{"psgc_code":"051709015","name":"Santo Tomas (Pob.)","level":"barangay-label","municipality_psgc_code":"051709000","municipality_name":"Camaligan"},"geometry":{"type":"Point","coordinates":[123.16356104500005,13.621889433000064]}},{"type":"Feature","properties":{"psgc_code":"051709016","name":"Sua","level":"barangay-label","municipality_psgc_code":"051709000","municipality_name":"Camaligan"},"geometry":{"type":"Point","coordinates":[123.14433021300005,13.625473024500053]}},{"type":"Feature","properties":{"psgc_code":"051709017","name":"Tarosanan","level":"barangay-label","municipality_psgc_code":"051709000","municipality_name":"Camaligan"},"geometry":{"type":"Point","coordinates":[123.17228746650005,13.614836543500045]}}]}
