{"type":"FeatureCollection","features":[{"type":"Feature","properties":{"psgc_code":"051701001","name":"Agdangan Pob.","level":"barangay-label","municipality_psgc_code":"051701000","municipality_name":"Baao"},"geometry":{"type":"Point","coordinates":[123.33377791500004,13.49190796350004]}},{"type":"Feature","properties":{"psgc_code":"051701002","name":"Antipolo","level":"barangay-label","municipality_psgc_code":"051701000","municipality_name":"Baao"},"geometry":{"type":"Point","coordinates":[123.38874611700005,13.477862102000046]}},{"type":"Feature","properties":{"psgc_code":"051701003","name":"Bagumbayan","level":"barangay-label","municipality_psgc_code":"051701000","municipality_name":"Baao"},"geometry":{"type":"Point","coordinates":[123.39859602350003,13.467689646500046]}},{"type":"Feature","properties":{"psgc_code":"051701004","name":"Caranday","level":"barangay-label","municipality_psgc_code":"051701000","municipality_name":"Baao"},"geometry":{"type":"Point","coordinates":[123.38121393800003,13.499926888500056]}},{"type":"Feature","properties":{"psgc_code":"051701005","name":"Cristo Rey","level":"barangay-label","municipality_psgc_code":"051701000","municipality_name":"Baao"},"geometry":{"type":"Point","coordinates":[123.38067841100002,13.516087746000068]}},{"type":"Feature","properties":{"psgc_code":"051701006","name":"Del Pilar","level":"barangay-label","municipality_psgc_code":"051701000","municipality_name":"Baao"},"geometry":{"type":"Point","coordinates":[123.39430073700004,13.495433432000025]}},{"type":"Feature","properties":{"psgc_code":"051701007","name":"Del Rosario (Pob.)","level":"barangay-label","municipality_psgc_code":"051701000","municipality_name":"Baao"},"geometry":{"type":"Point","coordinates":[123.36695135250011,13.45103925500004]}},{"type":"Feature","properties":{"psgc_code":"051701008","name":"Iyagan","level":"barangay-label","municipality_psgc_code":"051701000","municipality_name":"Baao"},"geometry":{"type":"Point","coordinates":[123.38136897650008,13.530053183500058]}},{"type":"Feature","properties":{"psgc_code":"051701009","name":"La Medalla","level":"barangay-label","municipality_psgc_code":"051701000","municipality_name":"Baao"},"geometry":{"type":"Point","coordinates":[123.36905894550007,13.47444627300004]}},{"type":"Feature","properties":{"psgc_code":"051701010","name":"Lourdes","level":"barangay-label","municipality_psgc_code":"051701000","municipality_name":"Baao"},"geometry":{"type":"Point","coordinates":[123.36301472350006,13.501921078500061]}},{"type":"Feature","properties":{"psgc_code":"051701011","name":"Nababarera","level":"barangay-label","municipality_psgc_code":"051701000","municipality_name":"Baao"},"geometry":{"type":"Point","coordinates":[123.41329742050006,13.505973592500055]}},{"type":"Feature","properties":{"psgc_code":"051701012","name":"Sagrada","level":"barangay-label","municipality_psgc_code":"051701000","municipality_name":"Baao"},"geometry":{"type":"Point","coordinates":[123.37773348700006,13.438727764000049]}},{"type":"Feature","properties":{"psgc_code":"051701013","name":"Salvacion","level":"barangay-label","municipality_psgc_code":"051701000","municipality_name":"Baao"},"geometry":{"type":"Point","coordinates":[123.37589469100006,13.47148365700005]}},{"type":"Feature","properties":{"psgc_code":"051701014","name":"Buluang","level":"barangay-label","municipality_psgc_code":"051701000","municipality_name":"Baao"},"geometry":{"type":"Point","coordinates":[123.35744824100004,13.474346908500053]}},{"type":"Feature","properties":{"psgc_code":"051701015","name":"San Francisco (Pob.)","level":"barangay-label","municipality_psgc_code":"051701000","municipality_name":"Baao"},"geometry":{"type":"Point","coordinates":[123.33732743450003,13.449827623500056]}},{"type":"Feature","properties":{"psgc_code":"051701016","name":"San Isidro","level":"barangay-label","municipality_psgc_code":"051701000","municipality_name":"Baao"},"geometry":{"type":"Point","coordinates":[123.34534180300005,13.48131589250005]}},{"type":"Feature","properties":{"psgc_code":"051701017","name":"San Jose (Pob.)","level":"barangay-label","municipality_psgc_code":"051701000","municipality_name":"Baao"},"geometry":{"type":"Point","coordinates":[123.35932428450003,13.456328878500045]}},{"type":"Feature","properties":{"psgc_code":"051701018","name":"San Juan","level":"barangay-label","municipality_psgc_code":"051701000","municipality_name":"Baao"},"geometry":{"type":"Point","coordinates":[123.38813763950009,13.451892283000063]}},{"type":"Feature","properties":{"psgc_code":"051701019","name":"San Nicolas (Pob.)","level":"barangay-label","municipality_psgc_code":"051701000","municipality_name":"Baao"},"geometry":{"type":"Point","coordinates":[123.36403045750006,13.457787244500054]}},{"type":"Feature","properties":{"psgc_code":"051701020","name":"San Rafael","level":"barangay-label","municipality_psgc_code":"051701000","municipality_name":"Baao"},"geometry":{"type":"Point","coordinates":[123.34677900450009,13.508694399000063]}},{"type":"Feature","properties":{"psgc_code":"051701021","name":"Pugay","level":"barangay-label","municipality_psgc_code":"051701000","municipality_name":"Baao"},"geometry":{"type":"Point","coordinates":[123.41035662350004,13.491988172000047]}},{"type":"Feature","properties":{"psgc_code":"051701022","name":"San Ramon (Pob.)","level":"barangay-label","municipality_psgc_code":"051701000","municipality_name":"Baao"},"geometry":{"type":"Point","coordinates":[123.36812181400006,13.45486521150005]}},{"type":"Feature","properties":{"psgc_code":"051701023","name":"San Roque (Pob.)","level":"barangay-label","municipality_psgc_code":"051701000","municipality_name":"Baao"},"geometry":{"type":"Point","coordinates":[123.36513511750007,13.453420821000066]}},{"type":"Feature","properties":{"psgc_code":"051701024","name":"San Vicente","level":"barangay-label","municipality_psgc_code":"051701000","municipality_name":"Baao"},"geometry":{"type":"Point","coordinates":[123.38400832450003,13.457729966000073]}},{"type":"Feature","properties":{"psgc_code":"051701025","name":"Santa Cruz (Pob.)","level":"barangay-label","municipality_psgc_code":"051701000","municipality_name":"Baao"},"geometry":{"type":"Point","coordinates":[123.37202429950008,13.445381306500025]}},{"type":"Feature","properties":{"psgc_code":"051701026","name":"Santa Eulalia","level":"barangay-label","municipality_psgc_code":"051701000","municipality_name":"Baao"},"geometry":{"type":"Point","coordinates":[123.31623990550008,13.434601538000036]}},{"type":"Feature","properties":{"psgc_code":"051701027","name":"Santa Isabel","level":"barangay-label","municipality_psgc_code":"051701000","municipality_name":"Baao"},"geometry":{"type":"Point","coordinates":[123.36371285400003,13.527707569000055]}},{"type":"Feature","properties":{"psgc_code":"051701028","name":"Santa Teresa","level":"barangay-label","municipality_psgc_code":"051701000","municipality_name":"Baao"},"geometry":{"type":"Point","coordinates":[123.39934065950008,13.511635199500034]}},{"type":"Feature","properties":{"psgc_code":"051701029","name":"Santa Teresita","level":"barangay-label","municipality_psgc_code":"051701000","municipality_name":"Baao"},"geometry":{"type":"Point","coordinates":[123.33581074050005,13.482351841500076]}},{"type":"Feature","properties":{"psgc_code":"051701030","name":"Tapol","level":"barangay-label","municipality_psgc_code":"051701000","municipality_name":"Baao"},"geometry":{"type":"Point","coordinates":[123.40291186700011,13.529691098500024]}}]}
