{"type":"FeatureCollection","features":[{"type":"Feature","properties":{"psgc_code":"051736001","name":"Abo","level":"barangay-label","municipality_psgc_code":"051736000","municipality_name":"Tigaon"},"geometry":{"type":"Point","coordinates":[123.50942389650011,13.636206501000032]}},{"type":"Feature","properties":{"psgc_code":"051736002","name":"Cabalinadan","level":"barangay-label","municipality_psgc_code":"051736000","municipality_name":"Tigaon"},"geometry":{"type":"Point","coordinates":[123.47801148650007,13.650328237000053]}},{"type":"Feature","properties":{"psgc_code":"051736003","name":"Caraycayon","level":"barangay-label","municipality_psgc_code":"051736000","municipality_name":"Tigaon"},"geometry":{"type":"Point","coordinates":[123.48834300100003,13.612926475000023]}},{"type":"Feature","properties":{"psgc_code":"051736004","name":"Casuna","level":"barangay-label","municipality_psgc_code":"051736000","municipality_name":"Tigaon"},"geometry":{"type":"Point","coordinates":[123.52909252900008,13.633514628000055]}},{"type":"Feature","properties":{"psgc_code":"051736005","name":"Consocep","level":"barangay-label","municipality_psgc_code":"051736000","municipality_name":"Tigaon"},"geometry":{"type":"Point","coordinates":[123.42095618650006,13.62558853750005]}},{"type":"Feature","properties":{"psgc_code":"051736006","name":"Coyaoyao","level":"barangay-label","municipality_psgc_code":"051736000","municipality_name":"Tigaon"},"geometry":{"type":"Point","coordinates":[123.4755886585001,13.641434321000048]}},{"type":"Feature","properties":{"psgc_code":"051736007","name":"Gaao","level":"barangay-label","municipality_psgc_code":"051736000","municipality_name":"Tigaon"},"geometry":{"type":"Point","coordinates":[123.43798863900003,13.605362695000053]}},{"type":"Feature","properties":{"psgc_code":"051736008","name":"Gingaroy","level":"barangay-label","municipality_psgc_code":"051736000","municipality_name":"Tigaon"},"geometry":{"type":"Point","coordinates":[123.47991178800004,13.607060553000052]}},{"type":"Feature","properties":{"psgc_code":"051736009","name":"Gubat","level":"barangay-label","municipality_psgc_code":"051736000","municipality_name":"Tigaon"},"geometry":{"type":"Point","coordinates":[123.4794536555001,13.632717882000037]}},{"type":"Feature","properties":{"psgc_code":"051736010","name":"Huyonhuyon","level":"barangay-label","municipality_psgc_code":"051736000","municipality_name":"Tigaon"},"geometry":{"type":"Point","coordinates":[123.52299985400003,13.626701886500026]}},{"type":"Feature","properties":{"psgc_code":"051736011","name":"Libod","level":"barangay-label","municipality_psgc_code":"051736000","municipality_name":"Tigaon"},"geometry":{"type":"Point","coordinates":[123.43591845350005,13.621610235500043]}},{"type":"Feature","properties":{"psgc_code":"051736012","name":"Mabalodbalod","level":"barangay-label","municipality_psgc_code":"051736000","municipality_name":"Tigaon"},"geometry":{"type":"Point","coordinates":[123.45463657500005,13.586207396500043]}},{"type":"Feature","properties":{"psgc_code":"051736013","name":"May-Anao","level":"barangay-label","municipality_psgc_code":"051736000","municipality_name":"Tigaon"},"geometry":{"type":"Point","coordinates":[123.50582774450004,13.620138287000033]}},{"type":"Feature","properties":{"psgc_code":"051736014","name":"Panagan","level":"barangay-label","municipality_psgc_code":"051736000","municipality_name":"Tigaon"},"geometry":{"type":"Point","coordinates":[123.46066667950011,13.595515333000037]}},{"type":"Feature","properties":{"psgc_code":"051736015","name":"Poblacion","level":"barangay-label","municipality_psgc_code":"051736000","municipality_name":"Tigaon"},"geometry":{"type":"Point","coordinates":[123.49731001650002,13.632918171500025]}},{"type":"Feature","properties":{"psgc_code":"051736016","name":"Salvacion","level":"barangay-label","municipality_psgc_code":"051736000","municipality_name":"Tigaon"},"geometry":{"type":"Point","coordinates":[123.47177735900006,13.60241958100005]}},{"type":"Feature","properties":{"psgc_code":"051736018","name":"San Antonio","level":"barangay-label","municipality_psgc_code":"051736000","municipality_name":"Tigaon"},"geometry":{"type":"Point","coordinates":[123.5006633975001,13.64746487050007]}},{"type":"Feature","properties":{"psgc_code":"051736019","name":"San Francisco","level":"barangay-label","municipality_psgc_code":"051736000","municipality_name":"Tigaon"},"geometry":{"type":"Point","coordinates":[123.49634401200007,13.638875940500071]}},{"type":"Feature","properties":{"psgc_code":"051736020","name":"San Miguel","level":"barangay-label","municipality_psgc_code":"051736000","municipality_name":"Tigaon"},"geometry":{"type":"Point","coordinates":[123.5196464070001,13.642071520000059]}},{"type":"Feature","properties":{"psgc_code":"051736021","name":"San Rafael","level":"barangay-label","municipality_psgc_code":"051736000","municipality_name":"Tigaon"},"geometry":{"type":"Point","coordinates":[123.49537376550006,13.658246651000042]}},{"type":"Feature","properties":{"psgc_code":"051736022","name":"Talojongon","level":"barangay-label","municipality_psgc_code":"051736000","municipality_name":"Tigaon"},"geometry":{"type":"Point","coordinates":[123.49364430400004,13.625899416500033]}},{"type":"Feature","properties":{"psgc_code":"051736023","name":"Tinawagan","level":"barangay-label","municipality_psgc_code":"051736000","municipality_name":"Tigaon"},"geometry":{"type":"Point","coordinates":[123.46402987150009,13.631121554000028]}},{"type":"Feature","properties":{"psgc_code":"051736024","name":"Vinagre","level":"barangay-label","municipality_psgc_code":"051736000","municipality_name":"Tigaon"},"geometry":{"type":"Point","coordinates":[123.50670550550007,13.629720287500046]}}]}
