{"type":"FeatureCollection","features":[{"type":"Feature","properties":{"psgc_code":"051702002","name":"Cabanbanan","level":"barangay-label","municipality_psgc_code":"051702000","municipality_name":"Balatan"},"geometry":{"type":"Point","coordinates":[123.25296842900008,13.351950893000064]}},{"type":"Feature","properties":{"psgc_code":"051702003","name":"Cabungan","level":"barangay-label","municipality_psgc_code":"051702000","municipality_name":"Balatan"},"geometry":{"type":"Point","coordinates":[123.27598053100007,13.354917563000043]}},{"type":"Feature","properties":{"psgc_code":"051702004","name":"Camangahan","level":"barangay-label","municipality_psgc_code":"051702000","municipality_name":"Balatan"},"geometry":{"type":"Point","coordinates":[123.22532615050005,13.355593394500062]}},{"type":"Feature","properties":{"psgc_code":"051702006","name":"Cayogcog","level":"barangay-label","municipality_psgc_code":"051702000","municipality_name":"Balatan"},"geometry":{"type":"Point","coordinates":[123.25779208350008,13.325928656000059]}},{"type":"Feature","properties":{"psgc_code":"051702007","name":"Coguit","level":"barangay-label","municipality_psgc_code":"051702000","municipality_name":"Balatan"},"geometry":{"type":"Point","coordinates":[123.2461805690001,13.301767241500045]}},{"type":"Feature","properties":{"psgc_code":"051702008","name":"Duran","level":"barangay-label","municipality_psgc_code":"051702000","municipality_name":"Balatan"},"geometry":{"type":"Point","coordinates":[123.23939890850005,13.311846827000037]}},{"type":"Feature","properties":{"psgc_code":"051702009","name":"Laganac","level":"barangay-label","municipality_psgc_code":"051702000","municipality_name":"Balatan"},"geometry":{"type":"Point","coordinates":[123.24509653000007,13.326366261500027]}},{"type":"Feature","properties":{"psgc_code":"051702010","name":"Luluasan","level":"barangay-label","municipality_psgc_code":"051702000","municipality_name":"Balatan"},"geometry":{"type":"Point","coordinates":[123.23640345550007,13.327956168500036]}},{"type":"Feature","properties":{"psgc_code":"051702011","name":"Montenegro","level":"barangay-label","municipality_psgc_code":"051702000","municipality_name":"Balatan"},"geometry":{"type":"Point","coordinates":[123.28495797450006,13.345589133000061]}},{"type":"Feature","properties":{"psgc_code":"051702012","name":"Pararao","level":"barangay-label","municipality_psgc_code":"051702000","municipality_name":"Balatan"},"geometry":{"type":"Point","coordinates":[123.23294848100005,13.339341059000047]}},{"type":"Feature","properties":{"psgc_code":"051702013","name":"Siramag (Pob.)","level":"barangay-label","municipality_psgc_code":"051702000","municipality_name":"Balatan"},"geometry":{"type":"Point","coordinates":[123.23672702300007,13.318726449000053]}},{"type":"Feature","properties":{"psgc_code":"051702014","name":"Pulang Daga","level":"barangay-label","municipality_psgc_code":"051702000","municipality_name":"Balatan"},"geometry":{"type":"Point","coordinates":[123.24507602400007,13.372167729000065]}},{"type":"Feature","properties":{"psgc_code":"051702015","name":"Sagrada Nacacale","level":"barangay-label","municipality_psgc_code":"051702000","municipality_name":"Balatan"},"geometry":{"type":"Point","coordinates":[123.25321937650007,13.38671653250006]}},{"type":"Feature","properties":{"psgc_code":"051702016","name":"San Francisco","level":"barangay-label","municipality_psgc_code":"051702000","municipality_name":"Balatan"},"geometry":{"type":"Point","coordinates":[123.28574853050009,13.358574727000045]}},{"type":"Feature","properties":{"psgc_code":"051702017","name":"Santiago Nacacale","level":"barangay-label","municipality_psgc_code":"051702000","municipality_name":"Balatan"},"geometry":{"type":"Point","coordinates":[123.2681929110001,13.387647886500048]}},{"type":"Feature","properties":{"psgc_code":"051702018","name":"Tapayas","level":"barangay-label","municipality_psgc_code":"051702000","municipality_name":"Balatan"},"geometry":{"type":"Point","coordinates":[123.26765576850005,13.374152877000025]}},{"type":"Feature","properties":{"psgc_code":"051702019","name":"Tomatarayo","level":"barangay-label","municipality_psgc_code":"051702000","municipality_name":"Balatan"},"geometry":{"type":"Point","coordinates":[123.27228930550007,13.337080546500033]}}]}
