{"type":"FeatureCollection","features":[{"type":"Feature","properties":{"psgc_code":"051735001","name":"Bagong Sirang","level":"barangay-label","municipality_psgc_code":"051735000","municipality_name":"Siruma"},"geometry":{"type":"Point","coordinates":[123.27472987300006,13.989177034500045]}},{"type":"Feature","properties":{"psgc_code":"051735002","name":"Bahao","level":"barangay-label","municipality_psgc_code":"051735000","municipality_name":"Siruma"},"geometry":{"type":"Point","coordinates":[123.27714737200003,14.005440726000046]}},{"type":"Feature","properties":{"psgc_code":"051735003","name":"Boboan","level":"barangay-label","municipality_psgc_code":"051735000","municipality_name":"Siruma"},"geometry":{"type":"Point","coordinates":[123.24386512700005,13.993741575500051]}},{"type":"Feature","properties":{"psgc_code":"051735004","name":"Butawanan","level":"barangay-label","municipality_psgc_code":"051735000","municipality_name":"Siruma"},"geometry":{"type":"Point","coordinates":[123.30919719200007,14.108794123500045]}},{"type":"Feature","properties":{"psgc_code":"051735005","name":"Cabugao","level":"barangay-label","municipality_psgc_code":"051735000","municipality_name":"Siruma"},"geometry":{"type":"Point","coordinates":[123.26406844800005,13.963228265000055]}},{"type":"Feature","properties":{"psgc_code":"051735006","name":"Fundado","level":"barangay-label","municipality_psgc_code":"051735000","municipality_name":"Siruma"},"geometry":{"type":"Point","coordinates":[123.30849991950004,13.995513916500045]}},{"type":"Feature","properties":{"psgc_code":"051735008","name":"Homestead","level":"barangay-label","municipality_psgc_code":"051735000","municipality_name":"Siruma"},"geometry":{"type":"Point","coordinates":[123.28888490650002,14.048243133000058]}},{"type":"Feature","properties":{"psgc_code":"051735009","name":"La Purisima","level":"barangay-label","municipality_psgc_code":"051735000","municipality_name":"Siruma"},"geometry":{"type":"Point","coordinates":[123.32667563300004,14.01869905600006]}},{"type":"Feature","properties":{"psgc_code":"051735010","name":"Mabuhay","level":"barangay-label","municipality_psgc_code":"051735000","municipality_name":"Siruma"},"geometry":{"type":"Point","coordinates":[123.33158967600009,14.031595736000043]}},{"type":"Feature","properties":{"psgc_code":"051735011","name":"Malaconini","level":"barangay-label","municipality_psgc_code":"051735000","municipality_name":"Siruma"},"geometry":{"type":"Point","coordinates":[123.33237093600007,14.040288890500051]}},{"type":"Feature","properties":{"psgc_code":"051735012","name":"Nalayahan","level":"barangay-label","municipality_psgc_code":"051735000","municipality_name":"Siruma"},"geometry":{"type":"Point","coordinates":[123.30042767100008,14.015141178500047]}},{"type":"Feature","properties":{"psgc_code":"051735013","name":"Matandang Siruma","level":"barangay-label","municipality_psgc_code":"051735000","municipality_name":"Siruma"},"geometry":{"type":"Point","coordinates":[123.21566380750005,14.027167559000048]}},{"type":"Feature","properties":{"psgc_code":"051735014","name":"Pinitan","level":"barangay-label","municipality_psgc_code":"051735000","municipality_name":"Siruma"},"geometry":{"type":"Point","coordinates":[123.27338661000005,14.059339113500043]}},{"type":"Feature","properties":{"psgc_code":"051735015","name":"Poblacion","level":"barangay-label","municipality_psgc_code":"051735000","municipality_name":"Siruma"},"geometry":{"type":"Point","coordinates":[123.2730941915001,14.023430249000056]}},{"type":"Feature","properties":{"psgc_code":"051735016","name":"Pamintan-Bantilan","level":"barangay-label","municipality_psgc_code":"051735000","municipality_name":"Siruma"},"geometry":{"type":"Point","coordinates":[123.24400208600002,14.026006612500055]}},{"type":"Feature","properties":{"psgc_code":"051735017","name":"Salvacion","level":"barangay-label","municipality_psgc_code":"051735000","municipality_name":"Siruma"},"geometry":{"type":"Point","coordinates":[123.32335028500006,14.060138862500054]}},{"type":"Feature","properties":{"psgc_code":"051735018","name":"San Andres","level":"barangay-label","municipality_psgc_code":"051735000","municipality_name":"Siruma"},"geometry":{"type":"Point","coordinates":[123.29702101950005,13.968782446500057]}},{"type":"Feature","properties":{"psgc_code":"051735019","name":"San Ramon","level":"barangay-label","municipality_psgc_code":"051735000","municipality_name":"Siruma"},"geometry":{"type":"Point","coordinates":[123.35165624750005,14.067288456000025]}},{"type":"Feature","properties":{"psgc_code":"051735020","name":"Sulpa","level":"barangay-label","municipality_psgc_code":"051735000","municipality_name":"Siruma"},"geometry":{"type":"Point","coordinates":[123.29120843950005,13.95117733050003]}},{"type":"Feature","properties":{"psgc_code":"051735021","name":"Tandoc","level":"barangay-label","municipality_psgc_code":"051735000","municipality_name":"Siruma"},"geometry":{"type":"Point","coordinates":[123.30023701600004,14.050850269000051]}},{"type":"Feature","properties":{"psgc_code":"051735022","name":"Tongo-Bantigue","level":"barangay-label","municipality_psgc_code":"051735000","municipality_name":"Siruma"},"geometry":{"type":"Point","coordinates":[123.30080681900012,14.034649441000056]}},{"type":"Feature","properties":{"psgc_code":"051735023","name":"Vito","level":"barangay-label","municipality_psgc_code":"051735000","municipality_name":"Siruma"},"geometry":{"type":"Point","coordinates":[123.23951010200011,13.96914283700005]}}]}
