{"type":"FeatureCollection","features":[{"type":"Feature","properties":{"psgc_code":"051719001","name":"Alleomar","level":"barangay-label","municipality_psgc_code":"051719000","municipality_name":"Lupi"},"geometry":{"type":"Point","coordinates":[122.86609246350008,13.812564685000039]}},{"type":"Feature","properties":{"psgc_code":"051719003","name":"Bagangan Sr.","level":"barangay-label","municipality_psgc_code":"051719000","municipality_name":"Lupi"},"geometry":{"type":"Point","coordinates":[122.89178978450002,13.836597746000052]}},{"type":"Feature","properties":{"psgc_code":"051719004","name":"Bagong Sikat","level":"barangay-label","municipality_psgc_code":"051719000","municipality_name":"Lupi"},"geometry":{"type":"Point","coordinates":[122.83874942800009,13.759768906000064]}},{"type":"Feature","properties":{"psgc_code":"051719005","name":"Bel-Cruz","level":"barangay-label","municipality_psgc_code":"051719000","municipality_name":"Lupi"},"geometry":{"type":"Point","coordinates":[122.8604443160001,13.778017355500026]}},{"type":"Feature","properties":{"psgc_code":"051719006","name":"Bangon","level":"barangay-label","municipality_psgc_code":"051719000","municipality_name":"Lupi"},"geometry":{"type":"Point","coordinates":[122.84124044800005,13.736353054000034]}},{"type":"Feature","properties":{"psgc_code":"051719007","name":"Barrera Jr.","level":"barangay-label","municipality_psgc_code":"051719000","municipality_name":"Lupi"},"geometry":{"type":"Point","coordinates":[122.92369191100005,13.799917727000036]}},{"type":"Feature","properties":{"psgc_code":"051719008","name":"Barrera Sr.","level":"barangay-label","municipality_psgc_code":"051719000","municipality_name":"Lupi"},"geometry":{"type":"Point","coordinates":[122.92620323100004,13.82150611350005]}},{"type":"Feature","properties":{"psgc_code":"051719009","name":"Belwang","level":"barangay-label","municipality_psgc_code":"051719000","municipality_name":"Lupi"},"geometry":{"type":"Point","coordinates":[122.90044008850003,13.925568091500054]}},{"type":"Feature","properties":{"psgc_code":"051719010","name":"Buenasuerte","level":"barangay-label","municipality_psgc_code":"051719000","municipality_name":"Lupi"},"geometry":{"type":"Point","coordinates":[122.89951810400004,13.892926859500049]}},{"type":"Feature","properties":{"psgc_code":"051719011","name":"Bulawan Jr.","level":"barangay-label","municipality_psgc_code":"051719000","municipality_name":"Lupi"},"geometry":{"type":"Point","coordinates":[122.86126793850002,13.758875215000074]}},{"type":"Feature","properties":{"psgc_code":"051719012","name":"Bulawan Sr.","level":"barangay-label","municipality_psgc_code":"051719000","municipality_name":"Lupi"},"geometry":{"type":"Point","coordinates":[122.88861438950003,13.77470287050005]}},{"type":"Feature","properties":{"psgc_code":"051719013","name":"Cabutagan","level":"barangay-label","municipality_psgc_code":"051719000","municipality_name":"Lupi"},"geometry":{"type":"Point","coordinates":[122.90984464100006,13.777822378000053]}},{"type":"Feature","properties":{"psgc_code":"051719014","name":"Kaibigan","level":"barangay-label","municipality_psgc_code":"051719000","municipality_name":"Lupi"},"geometry":{"type":"Point","coordinates":[122.93478896350001,13.805768020000045]}},{"type":"Feature","properties":{"psgc_code":"051719015","name":"Casay","level":"barangay-label","municipality_psgc_code":"051719000","municipality_name":"Lupi"},"geometry":{"type":"Point","coordinates":[122.87266521199999,13.832102360500043]}},{"type":"Feature","properties":{"psgc_code":"051719016","name":"Colacling","level":"barangay-label","municipality_psgc_code":"051719000","municipality_name":"Lupi"},"geometry":{"type":"Point","coordinates":[122.87580730900005,13.779086037500063]}},{"type":"Feature","properties":{"psgc_code":"051719017","name":"Cristo Rey","level":"barangay-label","municipality_psgc_code":"051719000","municipality_name":"Lupi"},"geometry":{"type":"Point","coordinates":[122.91387972150005,13.825004499000073]}},{"type":"Feature","properties":{"psgc_code":"051719018","name":"Del Carmen","level":"barangay-label","municipality_psgc_code":"051719000","municipality_name":"Lupi"},"geometry":{"type":"Point","coordinates":[122.90325414650005,13.859554627000051]}},{"type":"Feature","properties":{"psgc_code":"051719019","name":"Haguimit","level":"barangay-label","municipality_psgc_code":"051719000","municipality_name":"Lupi"},"geometry":{"type":"Point","coordinates":[122.87036940700006,13.850449843000064]}},{"type":"Feature","properties":{"psgc_code":"051719020","name":"Haluban","level":"barangay-label","municipality_psgc_code":"051719000","municipality_name":"Lupi"},"geometry":{"type":"Point","coordinates":[122.91484904850006,13.84363550200007]}},{"type":"Feature","properties":{"psgc_code":"051719021","name":"La Purisima","level":"barangay-label","municipality_psgc_code":"051719000","municipality_name":"Lupi"},"geometry":{"type":"Point","coordinates":[122.92620388700004,13.848279082500056]}},{"type":"Feature","properties":{"psgc_code":"051719022","name":"Lourdes","level":"barangay-label","municipality_psgc_code":"051719000","municipality_name":"Lupi"},"geometry":{"type":"Point","coordinates":[122.86003794350006,13.79468346850004]}},{"type":"Feature","properties":{"psgc_code":"051719024","name":"Mangcawayan","level":"barangay-label","municipality_psgc_code":"051719000","municipality_name":"Lupi"},"geometry":{"type":"Point","coordinates":[122.89382191800001,13.88205754550006]}},{"type":"Feature","properties":{"psgc_code":"051719025","name":"Napolidan","level":"barangay-label","municipality_psgc_code":"051719000","municipality_name":"Lupi"},"geometry":{"type":"Point","coordinates":[122.93215645400005,13.897369182000062]}},{"type":"Feature","properties":{"psgc_code":"051719027","name":"Poblacion","level":"barangay-label","municipality_psgc_code":"051719000","municipality_name":"Lupi"},"geometry":{"type":"Point","coordinates":[122.90907037700009,13.789128638500074]}},{"type":"Feature","properties":{"psgc_code":"051719028","name":"Polantuna","level":"barangay-label","municipality_psgc_code":"051719000","municipality_name":"Lupi"},"geometry":{"type":"Point","coordinates":[122.91918132500007,13.926566605500028]}},{"type":"Feature","properties":{"psgc_code":"051719029","name":"Sagrada","level":"barangay-label","municipality_psgc_code":"051719000","municipality_name":"Lupi"},"geometry":{"type":"Point","coordinates":[122.88095515350005,13.860220404000046]}},{"type":"Feature","properties":{"psgc_code":"051719030","name":"Salvacion","level":"barangay-label","municipality_psgc_code":"051719000","municipality_name":"Lupi"},"geometry":{"type":"Point","coordinates":[122.87822841200006,13.802398832000051]}},{"type":"Feature","properties":{"psgc_code":"051719031","name":"San Isidro","level":"barangay-label","municipality_psgc_code":"051719000","municipality_name":"Lupi"},"geometry":{"type":"Point","coordinates":[122.89493237050006,13.820935624500068]}},{"type":"Feature","properties":{"psgc_code":"051719032","name":"San Jose","level":"barangay-label","municipality_psgc_code":"051719000","municipality_name":"Lupi"},"geometry":{"type":"Point","coordinates":[122.93227208400002,13.916941767000054]}},{"type":"Feature","properties":{"psgc_code":"051719033","name":"San Pedro","level":"barangay-label","municipality_psgc_code":"051719000","municipality_name":"Lupi"},"geometry":{"type":"Point","coordinates":[122.90350803700005,13.803961205500055]}},{"type":"Feature","properties":{"psgc_code":"051719035","name":"San Rafael Norte","level":"barangay-label","municipality_psgc_code":"051719000","municipality_name":"Lupi"},"geometry":{"type":"Point","coordinates":[122.88536776200006,13.917289097000035]}},{"type":"Feature","properties":{"psgc_code":"051719036","name":"San Rafael Sur","level":"barangay-label","municipality_psgc_code":"051719000","municipality_name":"Lupi"},"geometry":{"type":"Point","coordinates":[122.88301277350007,13.793156314000042]}},{"type":"Feature","properties":{"psgc_code":"051719037","name":"San Ramon","level":"barangay-label","municipality_psgc_code":"051719000","municipality_name":"Lupi"},"geometry":{"type":"Point","coordinates":[122.91214951600006,13.903165202000054]}},{"type":"Feature","properties":{"psgc_code":"051719038","name":"San Vicente","level":"barangay-label","municipality_psgc_code":"051719000","municipality_name":"Lupi"},"geometry":{"type":"Point","coordinates":[122.87382350850004,13.950172119500051]}},{"type":"Feature","properties":{"psgc_code":"051719039","name":"Sooc","level":"barangay-label","municipality_psgc_code":"051719000","municipality_name":"Lupi"},"geometry":{"type":"Point","coordinates":[122.93199141900004,13.872769701000067]}},{"type":"Feature","properties":{"psgc_code":"051719040","name":"Tanawan","level":"barangay-label","municipality_psgc_code":"051719000","municipality_name":"Lupi"},"geometry":{"type":"Point","coordinates":[122.84834803500007,13.776930592500065]}},{"type":"Feature","properties":{"psgc_code":"051719041","name":"Tible","level":"barangay-label","municipality_psgc_code":"051719000","municipality_name":"Lupi"},"geometry":{"type":"Point","coordinates":[122.87410227350006,13.90055508100005]}},{"type":"Feature","properties":{"psgc_code":"051719042","name":"Tapi","level":"barangay-label","municipality_psgc_code":"051719000","municipality_name":"Lupi"},"geometry":{"type":"Point","coordinates":[122.91952129900005,13.78420525750005]}}]}
