{"type":"FeatureCollection","features":[{"type":"Feature","properties":{"psgc_code":"051708001","name":"Balatasan","level":"barangay-label","municipality_psgc_code":"051708000","municipality_name":"Calabanga"},"geometry":{"type":"Point","coordinates":[123.16818648250006,13.723493448000054]}},{"type":"Feature","properties":{"psgc_code":"051708002","name":"Balombon","level":"barangay-label","municipality_psgc_code":"051708000","municipality_name":"Calabanga"},"geometry":{"type":"Point","coordinates":[123.28324794000008,13.73038064350004]}},{"type":"Feature","properties":{"psgc_code":"051708003","name":"Balongay","level":"barangay-label","municipality_psgc_code":"051708000","municipality_name":"Calabanga"},"geometry":{"type":"Point","coordinates":[123.13483049000007,13.716019811500045]}},{"type":"Feature","properties":{"psgc_code":"051708004","name":"Belen","level":"barangay-label","municipality_psgc_code":"051708000","municipality_name":"Calabanga"},"geometry":{"type":"Point","coordinates":[123.25046967750005,13.723339249500041]}},{"type":"Feature","properties":{"psgc_code":"051708005","name":"Bigaas","level":"barangay-label","municipality_psgc_code":"051708000","municipality_name":"Calabanga"},"geometry":{"type":"Point","coordinates":[123.23040096550005,13.698712234000054]}},{"type":"Feature","properties":{"psgc_code":"051708006","name":"Binanuaanan Grande","level":"barangay-label","municipality_psgc_code":"051708000","municipality_name":"Calabanga"},"geometry":{"type":"Point","coordinates":[123.27112808050003,13.702734977500057]}},{"type":"Feature","properties":{"psgc_code":"051708007","name":"Binanuaanan Peque\u00f1o","level":"barangay-label","municipality_psgc_code":"051708000","municipality_name":"Calabanga"},"geometry":{"type":"Point","coordinates":[123.29489771300007,13.695139855000065]}},{"type":"Feature","properties":{"psgc_code":"051708008","name":"Binaliw","level":"barangay-label","municipality_psgc_code":"051708000","municipality_name":"Calabanga"},"geometry":{"type":"Point","coordinates":[123.23925778900008,13.703030095500054]}},{"type":"Feature","properties":{"psgc_code":"051708009","name":"Bonot-Santa Rosa","level":"barangay-label","municipality_psgc_code":"051708000","municipality_name":"Calabanga"},"geometry":{"type":"Point","coordinates":[123.25534530200002,13.736635749000046]}},{"type":"Feature","properties":{"psgc_code":"051708010","name":"Burabod","level":"barangay-label","municipality_psgc_code":"051708000","municipality_name":"Calabanga"},"geometry":{"type":"Point","coordinates":[123.32003925750007,13.716576137000033]}},{"type":"Feature","properties":{"psgc_code":"051708011","name":"Cabanbanan","level":"barangay-label","municipality_psgc_code":"051708000","municipality_name":"Calabanga"},"geometry":{"type":"Point","coordinates":[123.29860009300006,13.758931647500049]}},{"type":"Feature","properties":{"psgc_code":"051708012","name":"Cagsao","level":"barangay-label","municipality_psgc_code":"051708000","municipality_name":"Calabanga"},"geometry":{"type":"Point","coordinates":[123.29138340100002,13.768449711500068]}},{"type":"Feature","properties":{"psgc_code":"051708013","name":"Camuning","level":"barangay-label","municipality_psgc_code":"051708000","municipality_name":"Calabanga"},"geometry":{"type":"Point","coordinates":[123.28223481800008,13.712978509000038]}},{"type":"Feature","properties":{"psgc_code":"051708014","name":"Comaguingking","level":"barangay-label","municipality_psgc_code":"051708000","municipality_name":"Calabanga"},"geometry":{"type":"Point","coordinates":[123.30939974250009,13.70426165750004]}},{"type":"Feature","properties":{"psgc_code":"051708015","name":"Del Carmen (Pob.)","level":"barangay-label","municipality_psgc_code":"051708000","municipality_name":"Calabanga"},"geometry":{"type":"Point","coordinates":[123.21150442750002,13.708104542000058]}},{"type":"Feature","properties":{"psgc_code":"051708016","name":"Dominorog","level":"barangay-label","municipality_psgc_code":"051708000","municipality_name":"Calabanga"},"geometry":{"type":"Point","coordinates":[123.15391252900002,13.712681965500023]}},{"type":"Feature","properties":{"psgc_code":"051708017","name":"Fabrica","level":"barangay-label","municipality_psgc_code":"051708000","municipality_name":"Calabanga"},"geometry":{"type":"Point","coordinates":[123.25566535500006,13.687864464000029]}},{"type":"Feature","properties":{"psgc_code":"051708018","name":"Harobay","level":"barangay-label","municipality_psgc_code":"051708000","municipality_name":"Calabanga"},"geometry":{"type":"Point","coordinates":[123.35049247950008,13.693003275500047]}},{"type":"Feature","properties":{"psgc_code":"051708019","name":"La Purisima","level":"barangay-label","municipality_psgc_code":"051708000","municipality_name":"Calabanga"},"geometry":{"type":"Point","coordinates":[123.20593988050008,13.698854918000052]}},{"type":"Feature","properties":{"psgc_code":"051708021","name":"Lugsad","level":"barangay-label","municipality_psgc_code":"051708000","municipality_name":"Calabanga"},"geometry":{"type":"Point","coordinates":[123.33872497350006,13.675570847500039]}},{"type":"Feature","properties":{"psgc_code":"051708022","name":"Manguiring","level":"barangay-label","municipality_psgc_code":"051708000","municipality_name":"Calabanga"},"geometry":{"type":"Point","coordinates":[123.26846699150008,13.735291796500032]}},{"type":"Feature","properties":{"psgc_code":"051708023","name":"Pagatpat","level":"barangay-label","municipality_psgc_code":"051708000","municipality_name":"Calabanga"},"geometry":{"type":"Point","coordinates":[123.21577577950006,13.700883607500032]}},{"type":"Feature","properties":{"psgc_code":"051708024","name":"Paolbo","level":"barangay-label","municipality_psgc_code":"051708000","municipality_name":"Calabanga"},"geometry":{"type":"Point","coordinates":[123.2422549525001,13.714561666000066]}},{"type":"Feature","properties":{"psgc_code":"051708025","name":"Pinada","level":"barangay-label","municipality_psgc_code":"051708000","municipality_name":"Calabanga"},"geometry":{"type":"Point","coordinates":[123.29903459550007,13.724694950000071]}},{"type":"Feature","properties":{"psgc_code":"051708026","name":"Punta Tarawal","level":"barangay-label","municipality_psgc_code":"051708000","municipality_name":"Calabanga"},"geometry":{"type":"Point","coordinates":[123.13452727950005,13.724705039500037]}},{"type":"Feature","properties":{"psgc_code":"051708027","name":"Quinale","level":"barangay-label","municipality_psgc_code":"051708000","municipality_name":"Calabanga"},"geometry":{"type":"Point","coordinates":[123.32582767350004,13.730388880500044]}},{"type":"Feature","properties":{"psgc_code":"051708028","name":"Sabang","level":"barangay-label","municipality_psgc_code":"051708000","municipality_name":"Calabanga"},"geometry":{"type":"Point","coordinates":[123.20627239850006,13.724994695500044]}},{"type":"Feature","properties":{"psgc_code":"051708029","name":"Salvacion-Baybay","level":"barangay-label","municipality_psgc_code":"051708000","municipality_name":"Calabanga"},"geometry":{"type":"Point","coordinates":[123.20650115900003,13.72060953850007]}},{"type":"Feature","properties":{"psgc_code":"051708030","name":"San Antonio Poblacion","level":"barangay-label","municipality_psgc_code":"051708000","municipality_name":"Calabanga"},"geometry":{"type":"Point","coordinates":[123.21173844150007,13.706370405500053]}},{"type":"Feature","properties":{"psgc_code":"051708031","name":"San Antonio","level":"barangay-label","municipality_psgc_code":"051708000","municipality_name":"Calabanga"},"geometry":{"type":"Point","coordinates":[123.19972929250008,13.69809018150005]}},{"type":"Feature","properties":{"psgc_code":"051708032","name":"San Bernardino","level":"barangay-label","municipality_psgc_code":"051708000","municipality_name":"Calabanga"},"geometry":{"type":"Point","coordinates":[123.14445545150005,13.706343157000049]}},{"type":"Feature","properties":{"psgc_code":"051708033","name":"San Francisco (Pob.)","level":"barangay-label","municipality_psgc_code":"051708000","municipality_name":"Calabanga"},"geometry":{"type":"Point","coordinates":[123.21834203200007,13.708457393500055]}},{"type":"Feature","properties":{"psgc_code":"051708034","name":"San Isidro","level":"barangay-label","municipality_psgc_code":"051708000","municipality_name":"Calabanga"},"geometry":{"type":"Point","coordinates":[123.21537728100009,13.70441363750004]}},{"type":"Feature","properties":{"psgc_code":"051708036","name":"San Lucas","level":"barangay-label","municipality_psgc_code":"051708000","municipality_name":"Calabanga"},"geometry":{"type":"Point","coordinates":[123.1923263225001,13.71155115350004]}},{"type":"Feature","properties":{"psgc_code":"051708037","name":"San Miguel (Pob.)","level":"barangay-label","municipality_psgc_code":"051708000","municipality_name":"Calabanga"},"geometry":{"type":"Point","coordinates":[123.20073330100008,13.70750075650005]}},{"type":"Feature","properties":{"psgc_code":"051708038","name":"San Pablo (Pob.)","level":"barangay-label","municipality_psgc_code":"051708000","municipality_name":"Calabanga"},"geometry":{"type":"Point","coordinates":[123.21814987050004,13.709339105000055]}},{"type":"Feature","properties":{"psgc_code":"051708039","name":"San Roque","level":"barangay-label","municipality_psgc_code":"051708000","municipality_name":"Calabanga"},"geometry":{"type":"Point","coordinates":[123.20975528900004,13.714171974000067]}},{"type":"Feature","properties":{"psgc_code":"051708040","name":"San Vicente (Pob.)","level":"barangay-label","municipality_psgc_code":"051708000","municipality_name":"Calabanga"},"geometry":{"type":"Point","coordinates":[123.20623131750006,13.705459202500068]}},{"type":"Feature","properties":{"psgc_code":"051708041","name":"Santa Cruz Ratay","level":"barangay-label","municipality_psgc_code":"051708000","municipality_name":"Calabanga"},"geometry":{"type":"Point","coordinates":[123.22804223800006,13.714597662500038]}},{"type":"Feature","properties":{"psgc_code":"051708042","name":"Santa Cruz Poblacion","level":"barangay-label","municipality_psgc_code":"051708000","municipality_name":"Calabanga"},"geometry":{"type":"Point","coordinates":[123.17595652800004,13.697881138000042]}},{"type":"Feature","properties":{"psgc_code":"051708043","name":"Santa Isabel (Pob.)","level":"barangay-label","municipality_psgc_code":"051708000","municipality_name":"Calabanga"},"geometry":{"type":"Point","coordinates":[123.20636073050008,13.707813894000052]}},{"type":"Feature","properties":{"psgc_code":"051708044","name":"Santa Salud (Pob.)","level":"barangay-label","municipality_psgc_code":"051708000","municipality_name":"Calabanga"},"geometry":{"type":"Point","coordinates":[123.20073330100008,13.70389773900004]}},{"type":"Feature","properties":{"psgc_code":"051708045","name":"Santo Domingo","level":"barangay-label","municipality_psgc_code":"051708000","municipality_name":"Calabanga"},"geometry":{"type":"Point","coordinates":[123.17445612400007,13.709581622500025]}},{"type":"Feature","properties":{"psgc_code":"051708046","name":"Santo Ni\u00f1o","level":"barangay-label","municipality_psgc_code":"051708000","municipality_name":"Calabanga"},"geometry":{"type":"Point","coordinates":[123.19451768200008,13.697219166000052]}},{"type":"Feature","properties":{"psgc_code":"051708047","name":"Siba-o","level":"barangay-label","municipality_psgc_code":"051708000","municipality_name":"Calabanga"},"geometry":{"type":"Point","coordinates":[123.28490633750005,13.681618659000037]}},{"type":"Feature","properties":{"psgc_code":"051708048","name":"Sibobo","level":"barangay-label","municipality_psgc_code":"051708000","municipality_name":"Calabanga"},"geometry":{"type":"Point","coordinates":[123.29024002650011,13.755695074000045]}},{"type":"Feature","properties":{"psgc_code":"051708049","name":"Sogod","level":"barangay-label","municipality_psgc_code":"051708000","municipality_name":"Calabanga"},"geometry":{"type":"Point","coordinates":[123.22570533650008,13.721166624500057]}},{"type":"Feature","properties":{"psgc_code":"051708050","name":"Tomagodtod","level":"barangay-label","municipality_psgc_code":"051708000","municipality_name":"Calabanga"},"geometry":{"type":"Point","coordinates":[123.29711017000011,13.742411513500027]}}]}
