{"type":"FeatureCollection","features":[{"type":"Feature","properties":{"psgc_code":"051729001","name":"Ayugao","level":"barangay-label","municipality_psgc_code":"051729000","municipality_name":"Presentacion"},"geometry":{"type":"Point","coordinates":[123.7109981690001,13.72441381750005]}},{"type":"Feature","properties":{"psgc_code":"051729002","name":"Bagong Sirang","level":"barangay-label","municipality_psgc_code":"051729000","municipality_name":"Presentacion"},"geometry":{"type":"Point","coordinates":[123.65411572200009,13.711222350500066]}},{"type":"Feature","properties":{"psgc_code":"051729003","name":"Baliguian","level":"barangay-label","municipality_psgc_code":"051729000","municipality_name":"Presentacion"},"geometry":{"type":"Point","coordinates":[123.79851268500006,13.715914592500042]}},{"type":"Feature","properties":{"psgc_code":"051729004","name":"Bantugan","level":"barangay-label","municipality_psgc_code":"051729000","municipality_name":"Presentacion"},"geometry":{"type":"Point","coordinates":[123.70601953000005,13.77382999300005]}},{"type":"Feature","properties":{"psgc_code":"051729005","name":"Bicalen","level":"barangay-label","municipality_psgc_code":"051729000","municipality_name":"Presentacion"},"geometry":{"type":"Point","coordinates":[123.73340585250008,13.781676358000054]}},{"type":"Feature","properties":{"psgc_code":"051729006","name":"Bitaogan","level":"barangay-label","municipality_psgc_code":"051729000","municipality_name":"Presentacion"},"geometry":{"type":"Point","coordinates":[123.82498104600006,13.70429394200005]}},{"type":"Feature","properties":{"psgc_code":"051729007","name":"Buenavista","level":"barangay-label","municipality_psgc_code":"051729000","municipality_name":"Presentacion"},"geometry":{"type":"Point","coordinates":[123.65167963800002,13.743950822500064]}},{"type":"Feature","properties":{"psgc_code":"051729008","name":"Bulalacao","level":"barangay-label","municipality_psgc_code":"051729000","municipality_name":"Presentacion"},"geometry":{"type":"Point","coordinates":[123.78398362450008,13.723201194500035]}},{"type":"Feature","properties":{"psgc_code":"051729009","name":"Cagnipa","level":"barangay-label","municipality_psgc_code":"051729000","municipality_name":"Presentacion"},"geometry":{"type":"Point","coordinates":[123.72440078050005,13.718146770000061]}},{"type":"Feature","properties":{"psgc_code":"051729010","name":"Lagha","level":"barangay-label","municipality_psgc_code":"051729000","municipality_name":"Presentacion"},"geometry":{"type":"Point","coordinates":[123.70732762300008,13.716683284000055]}},{"type":"Feature","properties":{"psgc_code":"051729011","name":"Lidong","level":"barangay-label","municipality_psgc_code":"051729000","municipality_name":"Presentacion"},"geometry":{"type":"Point","coordinates":[123.68327117700005,13.782625378000034]}},{"type":"Feature","properties":{"psgc_code":"051729012","name":"Liwacsa","level":"barangay-label","municipality_psgc_code":"051729000","municipality_name":"Presentacion"},"geometry":{"type":"Point","coordinates":[123.81350493550008,13.710435420500062]}},{"type":"Feature","properties":{"psgc_code":"051729013","name":"Maangas","level":"barangay-label","municipality_psgc_code":"051729000","municipality_name":"Presentacion"},"geometry":{"type":"Point","coordinates":[123.67260459550005,13.735299673000071]}},{"type":"Feature","properties":{"psgc_code":"051729014","name":"Pagsangahan","level":"barangay-label","municipality_psgc_code":"051729000","municipality_name":"Presentacion"},"geometry":{"type":"Point","coordinates":[123.74983488350007,13.772252174500068]}},{"type":"Feature","properties":{"psgc_code":"051729016","name":"Patrocinio","level":"barangay-label","municipality_psgc_code":"051729000","municipality_name":"Presentacion"},"geometry":{"type":"Point","coordinates":[123.65477113200006,13.729751079500058]}},{"type":"Feature","properties":{"psgc_code":"051729017","name":"Pili","level":"barangay-label","municipality_psgc_code":"051729000","municipality_name":"Presentacion"},"geometry":{"type":"Point","coordinates":[123.76330632550003,13.739284578000051]}},{"type":"Feature","properties":{"psgc_code":"051729018","name":"Santa Maria (Pob.)","level":"barangay-label","municipality_psgc_code":"051729000","municipality_name":"Presentacion"},"geometry":{"type":"Point","coordinates":[123.72804013100006,13.732551380500038]}},{"type":"Feature","properties":{"psgc_code":"051729019","name":"Tanawan","level":"barangay-label","municipality_psgc_code":"051729000","municipality_name":"Presentacion"},"geometry":{"type":"Point","coordinates":[123.73531875100002,13.747912257500076]}}]}
