{"type":"FeatureCollection","features":[{"type":"Feature","properties":{"psgc_code":"051734001","name":"Aldezar","level":"barangay-label","municipality_psgc_code":"051734000","municipality_name":"Sipocot"},"geometry":{"type":"Point","coordinates":[123.02893965350006,13.834759495000041]}},{"type":"Feature","properties":{"psgc_code":"051734002","name":"Alteza","level":"barangay-label","municipality_psgc_code":"051734000","municipality_name":"Sipocot"},"geometry":{"type":"Point","coordinates":[122.97296941300004,13.79565304700003]}},{"type":"Feature","properties":{"psgc_code":"051734003","name":"Anib","level":"barangay-label","municipality_psgc_code":"051734000","municipality_name":"Sipocot"},"geometry":{"type":"Point","coordinates":[123.03641979650007,13.806452073000058]}},{"type":"Feature","properties":{"psgc_code":"051734004","name":"Awayan","level":"barangay-label","municipality_psgc_code":"051734000","municipality_name":"Sipocot"},"geometry":{"type":"Point","coordinates":[122.98595019450003,13.747431233000043]}},{"type":"Feature","properties":{"psgc_code":"051734005","name":"Azucena","level":"barangay-label","municipality_psgc_code":"051734000","municipality_name":"Sipocot"},"geometry":{"type":"Point","coordinates":[122.96725032500007,13.776692857500052]}},{"type":"Feature","properties":{"psgc_code":"051734006","name":"Bagong Sirang","level":"barangay-label","municipality_psgc_code":"051734000","municipality_name":"Sipocot"},"geometry":{"type":"Point","coordinates":[122.89922581000008,13.720319178500032]}},{"type":"Feature","properties":{"psgc_code":"051734007","name":"Binahian","level":"barangay-label","municipality_psgc_code":"051734000","municipality_name":"Sipocot"},"geometry":{"type":"Point","coordinates":[122.86024066800003,13.709854589000058]}},{"type":"Feature","properties":{"psgc_code":"051734008","name":"Bolo Sur","level":"barangay-label","municipality_psgc_code":"051734000","municipality_name":"Sipocot"},"geometry":{"type":"Point","coordinates":[122.95916855000002,13.802586528000035]}},{"type":"Feature","properties":{"psgc_code":"051734009","name":"Bolo Norte","level":"barangay-label","municipality_psgc_code":"051734000","municipality_name":"Sipocot"},"geometry":{"type":"Point","coordinates":[122.96095876050005,13.818869790000036]}},{"type":"Feature","properties":{"psgc_code":"051734010","name":"Bulan","level":"barangay-label","municipality_psgc_code":"051734000","municipality_name":"Sipocot"},"geometry":{"type":"Point","coordinates":[122.99995172950003,13.787844912500049]}},{"type":"Feature","properties":{"psgc_code":"051734011","name":"Bulawan","level":"barangay-label","municipality_psgc_code":"051734000","municipality_name":"Sipocot"},"geometry":{"type":"Point","coordinates":[122.88875934700008,13.75090974650007]}},{"type":"Feature","properties":{"psgc_code":"051734012","name":"Cabuyao","level":"barangay-label","municipality_psgc_code":"051734000","municipality_name":"Sipocot"},"geometry":{"type":"Point","coordinates":[122.98340528750009,13.813247940000053]}},{"type":"Feature","properties":{"psgc_code":"051734013","name":"Caima","level":"barangay-label","municipality_psgc_code":"051734000","municipality_name":"Sipocot"},"geometry":{"type":"Point","coordinates":[122.87132188950005,13.685587084000044]}},{"type":"Feature","properties":{"psgc_code":"051734014","name":"Calagbangan","level":"barangay-label","municipality_psgc_code":"051734000","municipality_name":"Sipocot"},"geometry":{"type":"Point","coordinates":[122.95830038400004,13.840802060000044]}},{"type":"Feature","properties":{"psgc_code":"051734015","name":"Calampinay","level":"barangay-label","municipality_psgc_code":"051734000","municipality_name":"Sipocot"},"geometry":{"type":"Point","coordinates":[123.04077679650004,13.79264367600004]}},{"type":"Feature","properties":{"psgc_code":"051734016","name":"Carayrayan","level":"barangay-label","municipality_psgc_code":"051734000","municipality_name":"Sipocot"},"geometry":{"type":"Point","coordinates":[122.87679199150006,13.719693849000066]}},{"type":"Feature","properties":{"psgc_code":"051734017","name":"Cotmo","level":"barangay-label","municipality_psgc_code":"051734000","municipality_name":"Sipocot"},"geometry":{"type":"Point","coordinates":[123.0383389985001,13.816525063500048]}},{"type":"Feature","properties":{"psgc_code":"051734018","name":"Gabi","level":"barangay-label","municipality_psgc_code":"051734000","municipality_name":"Sipocot"},"geometry":{"type":"Point","coordinates":[122.86872966450005,13.737529805000037]}},{"type":"Feature","properties":{"psgc_code":"051734019","name":"Gaongan","level":"barangay-label","municipality_psgc_code":"051734000","municipality_name":"Sipocot"},"geometry":{"type":"Point","coordinates":[122.96106926600011,13.750356503000031]}},{"type":"Feature","properties":{"psgc_code":"051734020","name":"Impig","level":"barangay-label","municipality_psgc_code":"051734000","municipality_name":"Sipocot"},"geometry":{"type":"Point","coordinates":[122.98261844900003,13.788253148500047]}},{"type":"Feature","properties":{"psgc_code":"051734021","name":"Lipilip","level":"barangay-label","municipality_psgc_code":"051734000","municipality_name":"Sipocot"},"geometry":{"type":"Point","coordinates":[122.88998418850002,13.694805675000055]}},{"type":"Feature","properties":{"psgc_code":"051734022","name":"Lubigan Jr.","level":"barangay-label","municipality_psgc_code":"051734000","municipality_name":"Sipocot"},"geometry":{"type":"Point","coordinates":[122.91594390500006,13.733122254500044]}},{"type":"Feature","properties":{"psgc_code":"051734023","name":"Lubigan Sr.","level":"barangay-label","municipality_psgc_code":"051734000","municipality_name":"Sipocot"},"geometry":{"type":"Point","coordinates":[122.94146722550012,13.739528558500066]}},{"type":"Feature","properties":{"psgc_code":"051734024","name":"Malaguico","level":"barangay-label","municipality_psgc_code":"051734000","municipality_name":"Sipocot"},"geometry":{"type":"Point","coordinates":[122.95096581850004,13.788103595500047]}},{"type":"Feature","properties":{"psgc_code":"051734025","name":"Malubago","level":"barangay-label","municipality_psgc_code":"051734000","municipality_name":"Sipocot"},"geometry":{"type":"Point","coordinates":[122.98463680800006,13.77097073050004]}},{"type":"Feature","properties":{"psgc_code":"051734026","name":"Manangle","level":"barangay-label","municipality_psgc_code":"051734000","municipality_name":"Sipocot"},"geometry":{"type":"Point","coordinates":[122.91825411550008,13.767212254000043]}},{"type":"Feature","properties":{"psgc_code":"051734027","name":"Mangga","level":"barangay-label","municipality_psgc_code":"051734000","municipality_name":"Sipocot"},"geometry":{"type":"Point","coordinates":[123.04069797350003,13.780726838000048]}},{"type":"Feature","properties":{"psgc_code":"051734028","name":"Mangapo","level":"barangay-label","municipality_psgc_code":"051734000","municipality_name":"Sipocot"},"geometry":{"type":"Point","coordinates":[122.98972562800009,13.756788538000023]}},{"type":"Feature","properties":{"psgc_code":"051734029","name":"Manlubang","level":"barangay-label","municipality_psgc_code":"051734000","municipality_name":"Sipocot"},"geometry":{"type":"Point","coordinates":[122.88528919550004,13.706026864500071]}},{"type":"Feature","properties":{"psgc_code":"051734030","name":"Mantila","level":"barangay-label","municipality_psgc_code":"051734000","municipality_name":"Sipocot"},"geometry":{"type":"Point","coordinates":[123.02037677300007,13.781456470500046]}},{"type":"Feature","properties":{"psgc_code":"051734031","name":"North Centro (Pob.)","level":"barangay-label","municipality_psgc_code":"051734000","municipality_name":"Sipocot"},"geometry":{"type":"Point","coordinates":[122.97644716050002,13.771121065500068]}},{"type":"Feature","properties":{"psgc_code":"051734032","name":"North Villazar","level":"barangay-label","municipality_psgc_code":"051734000","municipality_name":"Sipocot"},"geometry":{"type":"Point","coordinates":[122.95533706850006,13.874344828500028]}},{"type":"Feature","properties":{"psgc_code":"051734034","name":"Sagrada Familia","level":"barangay-label","municipality_psgc_code":"051734000","municipality_name":"Sipocot"},"geometry":{"type":"Point","coordinates":[122.9993624970001,13.81277510300006]}},{"type":"Feature","properties":{"psgc_code":"051734035","name":"Salanda","level":"barangay-label","municipality_psgc_code":"051734000","municipality_name":"Sipocot"},"geometry":{"type":"Point","coordinates":[122.94596776600008,13.804772115000048]}},{"type":"Feature","properties":{"psgc_code":"051734036","name":"Salvacion","level":"barangay-label","municipality_psgc_code":"051734000","municipality_name":"Sipocot"},"geometry":{"type":"Point","coordinates":[123.01771362300002,13.81741212600005]}},{"type":"Feature","properties":{"psgc_code":"051734037","name":"San Isidro","level":"barangay-label","municipality_psgc_code":"051734000","municipality_name":"Sipocot"},"geometry":{"type":"Point","coordinates":[123.00356530850001,13.763988785000036]}},{"type":"Feature","properties":{"psgc_code":"051734038","name":"San Vicente","level":"barangay-label","municipality_psgc_code":"051734000","municipality_name":"Sipocot"},"geometry":{"type":"Point","coordinates":[123.04637862200008,13.837419409000034]}},{"type":"Feature","properties":{"psgc_code":"051734039","name":"Serranzana","level":"barangay-label","municipality_psgc_code":"051734000","municipality_name":"Sipocot"},"geometry":{"type":"Point","coordinates":[123.02163071200005,13.803418666000052]}},{"type":"Feature","properties":{"psgc_code":"051734040","name":"South Centro (Pob.)","level":"barangay-label","municipality_psgc_code":"051734000","municipality_name":"Sipocot"},"geometry":{"type":"Point","coordinates":[122.9753525055001,13.761099455000048]}},{"type":"Feature","properties":{"psgc_code":"051734041","name":"South Villazar","level":"barangay-label","municipality_psgc_code":"051734000","municipality_name":"Sipocot"},"geometry":{"type":"Point","coordinates":[122.95137300750008,13.854798473500066]}},{"type":"Feature","properties":{"psgc_code":"051734042","name":"Taisan","level":"barangay-label","municipality_psgc_code":"051734000","municipality_name":"Sipocot"},"geometry":{"type":"Point","coordinates":[122.95016684800004,13.768851015000052]}},{"type":"Feature","properties":{"psgc_code":"051734043","name":"Tara","level":"barangay-label","municipality_psgc_code":"051734000","municipality_name":"Sipocot"},"geometry":{"type":"Point","coordinates":[122.9731804485001,13.745665392000035]}},{"type":"Feature","properties":{"psgc_code":"051734044","name":"Tible","level":"barangay-label","municipality_psgc_code":"051734000","municipality_name":"Sipocot"},"geometry":{"type":"Point","coordinates":[122.97399756100009,13.891172358500055]}},{"type":"Feature","properties":{"psgc_code":"051734045","name":"Tula-tula","level":"barangay-label","municipality_psgc_code":"051734000","municipality_name":"Sipocot"},"geometry":{"type":"Point","coordinates":[123.01346903700005,13.85105777800004]}},{"type":"Feature","properties":{"psgc_code":"051734046","name":"Vigaan","level":"barangay-label","municipality_psgc_code":"051734000","municipality_name":"Sipocot"},"geometry":{"type":"Point","coordinates":[122.9808062735001,13.846912197500046]}},{"type":"Feature","properties":{"psgc_code":"051734048","name":"Yabo","level":"barangay-label","municipality_psgc_code":"051734000","municipality_name":"Sipocot"},"geometry":{"type":"Point","coordinates":[122.93294950450009,13.794152689500038]}}]}
