{"type":"FeatureCollection","features":[{"type":"Feature","properties":{"psgc_code":"051711001","name":"Agaas","level":"barangay-label","municipality_psgc_code":"051711000","municipality_name":"Caramoan"},"geometry":{"type":"Point","coordinates":[123.80206587400006,13.813341979000057]}},{"type":"Feature","properties":{"psgc_code":"051711002","name":"Antolon","level":"barangay-label","municipality_psgc_code":"051711000","municipality_name":"Caramoan"},"geometry":{"type":"Point","coordinates":[123.76038399050009,13.788953227000064]}},{"type":"Feature","properties":{"psgc_code":"051711003","name":"Bacgong","level":"barangay-label","municipality_psgc_code":"051711000","municipality_name":"Caramoan"},"geometry":{"type":"Point","coordinates":[123.76245472850007,13.81116896000003]}},{"type":"Feature","properties":{"psgc_code":"051711004","name":"Bahay","level":"barangay-label","municipality_psgc_code":"051711000","municipality_name":"Caramoan"},"geometry":{"type":"Point","coordinates":[123.80711298200009,13.807126052000056]}},{"type":"Feature","properties":{"psgc_code":"051711005","name":"Bikal","level":"barangay-label","municipality_psgc_code":"051711000","municipality_name":"Caramoan"},"geometry":{"type":"Point","coordinates":[123.85212855750007,13.811002664000057]}},{"type":"Feature","properties":{"psgc_code":"051711006","name":"Binanuahan (Pob.)","level":"barangay-label","municipality_psgc_code":"051711000","municipality_name":"Caramoan"},"geometry":{"type":"Point","coordinates":[123.8575300285001,13.774748403500041]}},{"type":"Feature","properties":{"psgc_code":"051711007","name":"Cabacongan","level":"barangay-label","municipality_psgc_code":"051711000","municipality_name":"Caramoan"},"geometry":{"type":"Point","coordinates":[123.9618517830001,13.746492091500045]}},{"type":"Feature","properties":{"psgc_code":"051711008","name":"Cadong","level":"barangay-label","municipality_psgc_code":"051711000","municipality_name":"Caramoan"},"geometry":{"type":"Point","coordinates":[123.84087415100004,13.784663960000046]}},{"type":"Feature","properties":{"psgc_code":"051711009","name":"Colongcogong","level":"barangay-label","municipality_psgc_code":"051711000","municipality_name":"Caramoan"},"geometry":{"type":"Point","coordinates":[123.97484432100003,13.723036320500054]}},{"type":"Feature","properties":{"psgc_code":"051711010","name":"Canatuan","level":"barangay-label","municipality_psgc_code":"051711000","municipality_name":"Caramoan"},"geometry":{"type":"Point","coordinates":[123.82902164800005,13.719654979000039]}},{"type":"Feature","properties":{"psgc_code":"051711011","name":"Caputatan","level":"barangay-label","municipality_psgc_code":"051711000","municipality_name":"Caramoan"},"geometry":{"type":"Point","coordinates":[123.86837628850003,13.758517557500054]}},{"type":"Feature","properties":{"psgc_code":"051711012","name":"Gogon","level":"barangay-label","municipality_psgc_code":"051711000","municipality_name":"Caramoan"},"geometry":{"type":"Point","coordinates":[123.80911877300002,13.962261473000067]}},{"type":"Feature","properties":{"psgc_code":"051711013","name":"Daraga","level":"barangay-label","municipality_psgc_code":"051711000","municipality_name":"Caramoan"},"geometry":{"type":"Point","coordinates":[123.84885651950009,13.945737605000062]}},{"type":"Feature","properties":{"psgc_code":"051711014","name":"Gata","level":"barangay-label","municipality_psgc_code":"051711000","municipality_name":"Caramoan"},"geometry":{"type":"Point","coordinates":[123.8219445360001,13.915220439000052]}},{"type":"Feature","properties":{"psgc_code":"051711015","name":"Gibgos","level":"barangay-label","municipality_psgc_code":"051711000","municipality_name":"Caramoan"},"geometry":{"type":"Point","coordinates":[123.78673353700003,13.86871158650007]}},{"type":"Feature","properties":{"psgc_code":"051711016","name":"Guijalo","level":"barangay-label","municipality_psgc_code":"051711000","municipality_name":"Caramoan"},"geometry":{"type":"Point","coordinates":[123.87421299500011,13.734970261000058]}},{"type":"Feature","properties":{"psgc_code":"051711017","name":"Hanopol","level":"barangay-label","municipality_psgc_code":"051711000","municipality_name":"Caramoan"},"geometry":{"type":"Point","coordinates":[123.84308531350007,13.742001863500064]}},{"type":"Feature","properties":{"psgc_code":"051711018","name":"Hanoy","level":"barangay-label","municipality_psgc_code":"051711000","municipality_name":"Caramoan"},"geometry":{"type":"Point","coordinates":[123.83588954350006,13.789714839000055]}},{"type":"Feature","properties":{"psgc_code":"051711019","name":"Haponan","level":"barangay-label","municipality_psgc_code":"051711000","municipality_name":"Caramoan"},"geometry":{"type":"Point","coordinates":[123.84760901800007,13.857226594000053]}},{"type":"Feature","properties":{"psgc_code":"051711020","name":"Ilawod","level":"barangay-label","municipality_psgc_code":"051711000","municipality_name":"Caramoan"},"geometry":{"type":"Point","coordinates":[123.88178103200005,13.795911888000035]}},{"type":"Feature","properties":{"psgc_code":"051711022","name":"Ili-Centro (Pob.)","level":"barangay-label","municipality_psgc_code":"051711000","municipality_name":"Caramoan"},"geometry":{"type":"Point","coordinates":[123.8736610320001,13.766466125500074]}},{"type":"Feature","properties":{"psgc_code":"051711023","name":"Lidong","level":"barangay-label","municipality_psgc_code":"051711000","municipality_name":"Caramoan"},"geometry":{"type":"Point","coordinates":[123.73899625700005,13.870379804000038]}},{"type":"Feature","properties":{"psgc_code":"051711024","name":"Lubas","level":"barangay-label","municipality_psgc_code":"051711000","municipality_name":"Caramoan"},"geometry":{"type":"Point","coordinates":[123.83936262800006,13.773685246500065]}},{"type":"Feature","properties":{"psgc_code":"051711025","name":"Malabog","level":"barangay-label","municipality_psgc_code":"051711000","municipality_name":"Caramoan"},"geometry":{"type":"Point","coordinates":[123.80681087400006,13.764427854500067]}},{"type":"Feature","properties":{"psgc_code":"051711026","name":"Maligaya","level":"barangay-label","municipality_psgc_code":"051711000","municipality_name":"Caramoan"},"geometry":{"type":"Point","coordinates":[123.74348653650009,13.829876423000055]}},{"type":"Feature","properties":{"psgc_code":"051711027","name":"Mampirao","level":"barangay-label","municipality_psgc_code":"051711000","municipality_name":"Caramoan"},"geometry":{"type":"Point","coordinates":[123.74008142200006,13.84912692450004]}},{"type":"Feature","properties":{"psgc_code":"051711028","name":"Mandiclum","level":"barangay-label","municipality_psgc_code":"051711000","municipality_name":"Caramoan"},"geometry":{"type":"Point","coordinates":[123.72651105350008,13.817202032000068]}},{"type":"Feature","properties":{"psgc_code":"051711029","name":"Maqueda","level":"barangay-label","municipality_psgc_code":"051711000","municipality_name":"Caramoan"},"geometry":{"type":"Point","coordinates":[123.8325963855001,13.817864562500063]}},{"type":"Feature","properties":{"psgc_code":"051711030","name":"Minalaba","level":"barangay-label","municipality_psgc_code":"051711000","municipality_name":"Caramoan"},"geometry":{"type":"Point","coordinates":[123.82720417150006,13.80726796950006]}},{"type":"Feature","properties":{"psgc_code":"051711031","name":"Oring","level":"barangay-label","municipality_psgc_code":"051711000","municipality_name":"Caramoan"},"geometry":{"type":"Point","coordinates":[123.83477005900005,13.906989985500049]}},{"type":"Feature","properties":{"psgc_code":"051711032","name":"Oroc-Osoc","level":"barangay-label","municipality_psgc_code":"051711000","municipality_name":"Caramoan"},"geometry":{"type":"Point","coordinates":[123.8543803020001,13.79745658450005]}},{"type":"Feature","properties":{"psgc_code":"051711033","name":"Pagolinan","level":"barangay-label","municipality_psgc_code":"051711000","municipality_name":"Caramoan"},"geometry":{"type":"Point","coordinates":[123.84949754350009,13.726798883000043]}},{"type":"Feature","properties":{"psgc_code":"051711034","name":"Pandanan","level":"barangay-label","municipality_psgc_code":"051711000","municipality_name":"Caramoan"},"geometry":{"type":"Point","coordinates":[123.93770450950007,13.776395824500042]}},{"type":"Feature","properties":{"psgc_code":"051711035","name":"Paniman","level":"barangay-label","municipality_psgc_code":"051711000","municipality_name":"Caramoan"},"geometry":{"type":"Point","coordinates":[123.8794558250001,13.811411275500062]}},{"type":"Feature","properties":{"psgc_code":"051711036","name":"Patag-Belen","level":"barangay-label","municipality_psgc_code":"051711000","municipality_name":"Caramoan"},"geometry":{"type":"Point","coordinates":[123.78292921600007,13.775050493500062]}},{"type":"Feature","properties":{"psgc_code":"051711037","name":"Pili-Centro","level":"barangay-label","municipality_psgc_code":"051711000","municipality_name":"Caramoan"},"geometry":{"type":"Point","coordinates":[123.85345258400008,13.764860795000033]}},{"type":"Feature","properties":{"psgc_code":"051711038","name":"Pili-Tabiguian","level":"barangay-label","municipality_psgc_code":"051711000","municipality_name":"Caramoan"},"geometry":{"type":"Point","coordinates":[123.78480936200003,13.811564486500059]}},{"type":"Feature","properties":{"psgc_code":"051711039","name":"Poloan","level":"barangay-label","municipality_psgc_code":"051711000","municipality_name":"Caramoan"},"geometry":{"type":"Point","coordinates":[123.78670224700011,13.796195596500038]}},{"type":"Feature","properties":{"psgc_code":"051711040","name":"Salvacion","level":"barangay-label","municipality_psgc_code":"051711000","municipality_name":"Caramoan"},"geometry":{"type":"Point","coordinates":[123.87100969200003,13.748303674500049]}},{"type":"Feature","properties":{"psgc_code":"051711041","name":"San Roque","level":"barangay-label","municipality_psgc_code":"051711000","municipality_name":"Caramoan"},"geometry":{"type":"Point","coordinates":[123.83723008700008,13.755780672500038]}},{"type":"Feature","properties":{"psgc_code":"051711042","name":"San Vicente","level":"barangay-label","municipality_psgc_code":"051711000","municipality_name":"Caramoan"},"geometry":{"type":"Point","coordinates":[123.92150870650005,13.73471982850006]}},{"type":"Feature","properties":{"psgc_code":"051711043","name":"Santa Cruz","level":"barangay-label","municipality_psgc_code":"051711000","municipality_name":"Caramoan"},"geometry":{"type":"Point","coordinates":[123.76107926500003,13.823389369500033]}},{"type":"Feature","properties":{"psgc_code":"051711044","name":"Solnopan","level":"barangay-label","municipality_psgc_code":"051711000","municipality_name":"Caramoan"},"geometry":{"type":"Point","coordinates":[123.86093036050002,13.76657727400002]}},{"type":"Feature","properties":{"psgc_code":"051711045","name":"Tabgon","level":"barangay-label","municipality_psgc_code":"051711000","municipality_name":"Caramoan"},"geometry":{"type":"Point","coordinates":[123.81027873250008,13.822931498500026]}},{"type":"Feature","properties":{"psgc_code":"051711046","name":"Tabiguian","level":"barangay-label","municipality_psgc_code":"051711000","municipality_name":"Caramoan"},"geometry":{"type":"Point","coordinates":[123.79092482900006,13.832283008500042]}},{"type":"Feature","properties":{"psgc_code":"051711047","name":"Tabog","level":"barangay-label","municipality_psgc_code":"051711000","municipality_name":"Caramoan"},"geometry":{"type":"Point","coordinates":[123.83057148100012,13.793757549000048]}},{"type":"Feature","properties":{"psgc_code":"051711048","name":"Tawog (Pob.)","level":"barangay-label","municipality_psgc_code":"051711000","municipality_name":"Caramoan"},"geometry":{"type":"Point","coordinates":[123.87129239650005,13.778334253500049]}},{"type":"Feature","properties":{"psgc_code":"051711049","name":"Toboan","level":"barangay-label","municipality_psgc_code":"051711000","municipality_name":"Caramoan"},"geometry":{"type":"Point","coordinates":[123.7720601955001,13.840630084000026]}},{"type":"Feature","properties":{"psgc_code":"051711050","name":"Terogo","level":"barangay-label","municipality_psgc_code":"051711000","municipality_name":"Caramoan"},"geometry":{"type":"Point","coordinates":[123.86806455800007,13.791959078000048]}}]}
