{"type":"FeatureCollection","features":[{"type":"Feature","properties":{"psgc_code":"051720001","name":"Barobaybay","level":"barangay-label","municipality_psgc_code":"051720000","municipality_name":"Magarao"},"geometry":{"type":"Point","coordinates":[123.11161112050002,13.668695233500046]}},{"type":"Feature","properties":{"psgc_code":"051720002","name":"Bell (Pob.)","level":"barangay-label","municipality_psgc_code":"051720000","municipality_name":"Magarao"},"geometry":{"type":"Point","coordinates":[123.16391227400004,13.662452120500035]}},{"type":"Feature","properties":{"psgc_code":"051720003","name":"Carangcang","level":"barangay-label","municipality_psgc_code":"051720000","municipality_name":"Magarao"},"geometry":{"type":"Point","coordinates":[123.23930666450002,13.664354487000056]}},{"type":"Feature","properties":{"psgc_code":"051720004","name":"Carigsa","level":"barangay-label","municipality_psgc_code":"051720000","municipality_name":"Magarao"},"geometry":{"type":"Point","coordinates":[123.1436640710001,13.685574408000036]}},{"type":"Feature","properties":{"psgc_code":"051720005","name":"Casuray","level":"barangay-label","municipality_psgc_code":"051720000","municipality_name":"Magarao"},"geometry":{"type":"Point","coordinates":[123.14358447000006,13.675783197500039]}},{"type":"Feature","properties":{"psgc_code":"051720006","name":"Monserrat (Pob.)","level":"barangay-label","municipality_psgc_code":"051720000","municipality_name":"Magarao"},"geometry":{"type":"Point","coordinates":[123.19494956800008,13.66424590200003]}},{"type":"Feature","properties":{"psgc_code":"051720007","name":"Ponong","level":"barangay-label","municipality_psgc_code":"051720000","municipality_name":"Magarao"},"geometry":{"type":"Point","coordinates":[123.11596495350005,13.68046634150005]}},{"type":"Feature","properties":{"psgc_code":"051720008","name":"San Francisco (Pob.)","level":"barangay-label","municipality_psgc_code":"051720000","municipality_name":"Magarao"},"geometry":{"type":"Point","coordinates":[123.17814666050003,13.658619963500058]}},{"type":"Feature","properties":{"psgc_code":"051720009","name":"San Isidro (Pob.)","level":"barangay-label","municipality_psgc_code":"051720000","municipality_name":"Magarao"},"geometry":{"type":"Point","coordinates":[123.18920886750004,13.658516829000064]}},{"type":"Feature","properties":{"psgc_code":"051720010","name":"San Juan (Pob.)","level":"barangay-label","municipality_psgc_code":"051720000","municipality_name":"Magarao"},"geometry":{"type":"Point","coordinates":[123.19103941700007,13.66454772450004]}},{"type":"Feature","properties":{"psgc_code":"051720011","name":"San Miguel","level":"barangay-label","municipality_psgc_code":"051720000","municipality_name":"Magarao"},"geometry":{"type":"Point","coordinates":[123.1836635035001,13.666355835000047]}},{"type":"Feature","properties":{"psgc_code":"051720012","name":"San Pantaleon (Pob.)","level":"barangay-label","municipality_psgc_code":"051720000","municipality_name":"Magarao"},"geometry":{"type":"Point","coordinates":[123.18688629000009,13.665393740500065]}},{"type":"Feature","properties":{"psgc_code":"051720013","name":"Santa Lucia (Pob.)","level":"barangay-label","municipality_psgc_code":"051720000","municipality_name":"Magarao"},"geometry":{"type":"Point","coordinates":[123.20634442500005,13.663919164000045]}},{"type":"Feature","properties":{"psgc_code":"051720014","name":"Santa Rosa","level":"barangay-label","municipality_psgc_code":"051720000","municipality_name":"Magarao"},"geometry":{"type":"Point","coordinates":[123.17038370900002,13.671304222000028]}},{"type":"Feature","properties":{"psgc_code":"051720015","name":"Santo Tomas (Pob.)","level":"barangay-label","municipality_psgc_code":"051720000","municipality_name":"Magarao"},"geometry":{"type":"Point","coordinates":[123.18033135750005,13.66734163500007]}}]}
