{"type":"FeatureCollection","features":[{"type":"Feature","properties":{"psgc_code":"051713001","name":"Cagbunga","level":"barangay-label","municipality_psgc_code":"051713000","municipality_name":"Gainza"},"geometry":{"type":"Point","coordinates":[123.15368171950007,13.615216669000061]}},{"type":"Feature","properties":{"psgc_code":"051713002","name":"Dahilig","level":"barangay-label","municipality_psgc_code":"051713000","municipality_name":"Gainza"},"geometry":{"type":"Point","coordinates":[123.16205149600006,13.615821932500069]}},{"type":"Feature","properties":{"psgc_code":"051713004","name":"Loob","level":"barangay-label","municipality_psgc_code":"051713000","municipality_name":"Gainza"},"geometry":{"type":"Point","coordinates":[123.12395009000005,13.608787985000049]}},{"type":"Feature","properties":{"psgc_code":"051713005","name":"Malbong","level":"barangay-label","municipality_psgc_code":"051713000","municipality_name":"Gainza"},"geometry":{"type":"Point","coordinates":[123.12748475000006,13.61261863900006]}},{"type":"Feature","properties":{"psgc_code":"051713006","name":"Namuat","level":"barangay-label","municipality_psgc_code":"051713000","municipality_name":"Gainza"},"geometry":{"type":"Point","coordinates":[123.15517963000008,13.609322624500038]}},{"type":"Feature","properties":{"psgc_code":"051713007","name":"Sampaloc","level":"barangay-label","municipality_psgc_code":"051713000","municipality_name":"Gainza"},"geometry":{"type":"Point","coordinates":[123.13537501050007,13.594128325500066]}},{"type":"Feature","properties":{"psgc_code":"051713008","name":"District I (Pob.)","level":"barangay-label","municipality_psgc_code":"051713000","municipality_name":"Gainza"},"geometry":{"type":"Point","coordinates":[123.14569429700003,13.61469447400006]}},{"type":"Feature","properties":{"psgc_code":"051713009","name":"District II (Pob.)","level":"barangay-label","municipality_psgc_code":"051713000","municipality_name":"Gainza"},"geometry":{"type":"Point","coordinates":[123.13889878650008,13.613887726000057]}}]}
