{"type":"FeatureCollection","features":[{"type":"Feature","properties":{"psgc_code":"051725001","name":"Ayugan","level":"barangay-label","municipality_psgc_code":"051725000","municipality_name":"Ocampo"},"geometry":{"type":"Point","coordinates":[123.33008101300004,13.550003416000036]}},{"type":"Feature","properties":{"psgc_code":"051725002","name":"Cabariwan","level":"barangay-label","municipality_psgc_code":"051725000","municipality_name":"Ocampo"},"geometry":{"type":"Point","coordinates":[123.34885572850004,13.56290061300004]}},{"type":"Feature","properties":{"psgc_code":"051725003","name":"Cagmanaba","level":"barangay-label","municipality_psgc_code":"051725000","municipality_name":"Ocampo"},"geometry":{"type":"Point","coordinates":[123.34685825150007,13.53976584800006]}},{"type":"Feature","properties":{"psgc_code":"051725004","name":"Del Rosario","level":"barangay-label","municipality_psgc_code":"051725000","municipality_name":"Ocampo"},"geometry":{"type":"Point","coordinates":[123.37439311950004,13.608178529500037]}},{"type":"Feature","properties":{"psgc_code":"051725005","name":"Gatbo","level":"barangay-label","municipality_psgc_code":"051725000","municipality_name":"Ocampo"},"geometry":{"type":"Point","coordinates":[123.38745847550007,13.609191616500027]}},{"type":"Feature","properties":{"psgc_code":"051725006","name":"Guinaban","level":"barangay-label","municipality_psgc_code":"051725000","municipality_name":"Ocampo"},"geometry":{"type":"Point","coordinates":[123.35859406550009,13.608997589000069]}},{"type":"Feature","properties":{"psgc_code":"051725007","name":"Hanawan","level":"barangay-label","municipality_psgc_code":"051725000","municipality_name":"Ocampo"},"geometry":{"type":"Point","coordinates":[123.41849339400005,13.564523140000034]}},{"type":"Feature","properties":{"psgc_code":"051725008","name":"Hibago","level":"barangay-label","municipality_psgc_code":"051725000","municipality_name":"Ocampo"},"geometry":{"type":"Point","coordinates":[123.39642560500005,13.557376680000031]}},{"type":"Feature","properties":{"psgc_code":"051725009","name":"La Purisima Nuevo","level":"barangay-label","municipality_psgc_code":"051725000","municipality_name":"Ocampo"},"geometry":{"type":"Point","coordinates":[123.36349152250006,13.546834704000048]}},{"type":"Feature","properties":{"psgc_code":"051725010","name":"May-Ogob","level":"barangay-label","municipality_psgc_code":"051725000","municipality_name":"Ocampo"},"geometry":{"type":"Point","coordinates":[123.42570836350006,13.548292111000023]}},{"type":"Feature","properties":{"psgc_code":"051725011","name":"New Moriones","level":"barangay-label","municipality_psgc_code":"051725000","municipality_name":"Ocampo"},"geometry":{"type":"Point","coordinates":[123.43761110300005,13.589832502500059]}},{"type":"Feature","properties":{"psgc_code":"051725012","name":"Old Moriones","level":"barangay-label","municipality_psgc_code":"051725000","municipality_name":"Ocampo"},"geometry":{"type":"Point","coordinates":[123.43246464950005,13.585307768500057]}},{"type":"Feature","properties":{"psgc_code":"051725013","name":"Pinit","level":"barangay-label","municipality_psgc_code":"051725000","municipality_name":"Ocampo"},"geometry":{"type":"Point","coordinates":[123.40611561850011,13.565971940000056]}},{"type":"Feature","properties":{"psgc_code":"051725014","name":"Poblacion Central","level":"barangay-label","municipality_psgc_code":"051725000","municipality_name":"Ocampo"},"geometry":{"type":"Point","coordinates":[123.37573323900006,13.558912352000048]}},{"type":"Feature","properties":{"psgc_code":"051725015","name":"Poblacion East","level":"barangay-label","municipality_psgc_code":"051725000","municipality_name":"Ocampo"},"geometry":{"type":"Point","coordinates":[123.37703001100012,13.558770453000047]}},{"type":"Feature","properties":{"psgc_code":"051725016","name":"Poblacion West","level":"barangay-label","municipality_psgc_code":"051725000","municipality_name":"Ocampo"},"geometry":{"type":"Point","coordinates":[123.37253805450007,13.558334732500043]}},{"type":"Feature","properties":{"psgc_code":"051725017","name":"Salvacion","level":"barangay-label","municipality_psgc_code":"051725000","municipality_name":"Ocampo"},"geometry":{"type":"Point","coordinates":[123.36694604450008,13.568159466000054]}},{"type":"Feature","properties":{"psgc_code":"051725018","name":"San Antonio","level":"barangay-label","municipality_psgc_code":"051725000","municipality_name":"Ocampo"},"geometry":{"type":"Point","coordinates":[123.33582946650006,13.569324295000058]}},{"type":"Feature","properties":{"psgc_code":"051725019","name":"San Francisco","level":"barangay-label","municipality_psgc_code":"051725000","municipality_name":"Ocampo"},"geometry":{"type":"Point","coordinates":[123.38386999700003,13.562533555500067]}},{"type":"Feature","properties":{"psgc_code":"051725020","name":"San Jose Oras","level":"barangay-label","municipality_psgc_code":"051725000","municipality_name":"Ocampo"},"geometry":{"type":"Point","coordinates":[123.40414670650006,13.59035326700004]}},{"type":"Feature","properties":{"psgc_code":"051725022","name":"San Roque Commonal","level":"barangay-label","municipality_psgc_code":"051725000","municipality_name":"Ocampo"},"geometry":{"type":"Point","coordinates":[123.43744725150009,13.566284192500063]}},{"type":"Feature","properties":{"psgc_code":"051725023","name":"San Vicente","level":"barangay-label","municipality_psgc_code":"051725000","municipality_name":"Ocampo"},"geometry":{"type":"Point","coordinates":[123.37910375600006,13.548014398500046]}},{"type":"Feature","properties":{"psgc_code":"051725024","name":"Santa Cruz","level":"barangay-label","municipality_psgc_code":"051725000","municipality_name":"Ocampo"},"geometry":{"type":"Point","coordinates":[123.42146920000005,13.596600861000042]}},{"type":"Feature","properties":{"psgc_code":"051725025","name":"Santo Ni\u00f1o","level":"barangay-label","municipality_psgc_code":"051725000","municipality_name":"Ocampo"},"geometry":{"type":"Point","coordinates":[123.34612398250005,13.607461095500042]}},{"type":"Feature","properties":{"psgc_code":"051725026","name":"Villaflorida","level":"barangay-label","municipality_psgc_code":"051725000","municipality_name":"Ocampo"},"geometry":{"type":"Point","coordinates":[123.40787930950006,13.625163127500059]}}]}
