{"type":"FeatureCollection","features":[{"type":"Feature","properties":{"psgc_code":"051727001","name":"Antipolo","level":"barangay-label","municipality_psgc_code":"051727000","municipality_name":"Pasacao"},"geometry":{"type":"Point","coordinates":[122.96483241650004,13.57232151200003]}},{"type":"Feature","properties":{"psgc_code":"051727002","name":"Bagong Silang","level":"barangay-label","municipality_psgc_code":"051727000","municipality_name":"Pasacao"},"geometry":{"type":"Point","coordinates":[122.96313851350004,13.586026996500037]}},{"type":"Feature","properties":{"psgc_code":"051727003","name":"Bahay","level":"barangay-label","municipality_psgc_code":"051727000","municipality_name":"Pasacao"},"geometry":{"type":"Point","coordinates":[123.04241258150006,13.534409164000065]}},{"type":"Feature","properties":{"psgc_code":"051727004","name":"Balogo","level":"barangay-label","municipality_psgc_code":"051727000","municipality_name":"Pasacao"},"geometry":{"type":"Point","coordinates":[123.06727477700002,13.507063951500044]}},{"type":"Feature","properties":{"psgc_code":"051727005","name":"Caranan","level":"barangay-label","municipality_psgc_code":"051727000","municipality_name":"Pasacao"},"geometry":{"type":"Point","coordinates":[123.00810546450009,13.53382464900005]}},{"type":"Feature","properties":{"psgc_code":"051727006","name":"Cuco","level":"barangay-label","municipality_psgc_code":"051727000","municipality_name":"Pasacao"},"geometry":{"type":"Point","coordinates":[123.02105870750006,13.568785204500045]}},{"type":"Feature","properties":{"psgc_code":"051727007","name":"Dalupaon","level":"barangay-label","municipality_psgc_code":"051727000","municipality_name":"Pasacao"},"geometry":{"type":"Point","coordinates":[122.93976304100005,13.551671993500037]}},{"type":"Feature","properties":{"psgc_code":"051727008","name":"Macad","level":"barangay-label","municipality_psgc_code":"051727000","municipality_name":"Pasacao"},"geometry":{"type":"Point","coordinates":[122.98705992100007,13.553635621000069]}},{"type":"Feature","properties":{"psgc_code":"051727009","name":"Hubo","level":"barangay-label","municipality_psgc_code":"051727000","municipality_name":"Pasacao"},"geometry":{"type":"Point","coordinates":[122.99513649150003,13.569988692000038]}},{"type":"Feature","properties":{"psgc_code":"051727010","name":"Itulan","level":"barangay-label","municipality_psgc_code":"051727000","municipality_name":"Pasacao"},"geometry":{"type":"Point","coordinates":[123.03641680250009,13.548299750000039]}},{"type":"Feature","properties":{"psgc_code":"051727011","name":"Odicon","level":"barangay-label","municipality_psgc_code":"051727000","municipality_name":"Pasacao"},"geometry":{"type":"Point","coordinates":[123.07615065950006,13.536778373000033]}},{"type":"Feature","properties":{"psgc_code":"051727012","name":"Quitang","level":"barangay-label","municipality_psgc_code":"051727000","municipality_name":"Pasacao"},"geometry":{"type":"Point","coordinates":[123.05849652200004,13.542824331000048]}},{"type":"Feature","properties":{"psgc_code":"051727013","name":"Salvacion","level":"barangay-label","municipality_psgc_code":"051727000","municipality_name":"Pasacao"},"geometry":{"type":"Point","coordinates":[122.92256633750003,13.600611894500044]}},{"type":"Feature","properties":{"psgc_code":"051727014","name":"San Antonio","level":"barangay-label","municipality_psgc_code":"051727000","municipality_name":"Pasacao"},"geometry":{"type":"Point","coordinates":[122.91368627950004,13.585569369500064]}},{"type":"Feature","properties":{"psgc_code":"051727015","name":"San Cirilo (Pob.)","level":"barangay-label","municipality_psgc_code":"051727000","municipality_name":"Pasacao"},"geometry":{"type":"Point","coordinates":[123.04486613050007,13.511065212500055]}},{"type":"Feature","properties":{"psgc_code":"051727016","name":"Santa Rosa Del Norte (Pob.)","level":"barangay-label","municipality_psgc_code":"051727000","municipality_name":"Pasacao"},"geometry":{"type":"Point","coordinates":[123.04000393700005,13.518264588500044]}},{"type":"Feature","properties":{"psgc_code":"051727017","name":"Santa Rosa Del Sur (Pob.)","level":"barangay-label","municipality_psgc_code":"051727000","municipality_name":"Pasacao"},"geometry":{"type":"Point","coordinates":[123.03649048750009,13.50631779550005]}},{"type":"Feature","properties":{"psgc_code":"051727019","name":"Tilnac","level":"barangay-label","municipality_psgc_code":"051727000","municipality_name":"Pasacao"},"geometry":{"type":"Point","coordinates":[122.93736007650006,13.57958612500005]}},{"type":"Feature","properties":{"psgc_code":"051727020","name":"Tinalmud","level":"barangay-label","municipality_psgc_code":"051727000","municipality_name":"Pasacao"},"geometry":{"type":"Point","coordinates":[122.89111779600006,13.593373310500056]}}]}
