{"type":"FeatureCollection","features":[{"type":"Feature","properties":{"psgc_code":"051721001","name":"Alimbuyog","level":"barangay-label","municipality_psgc_code":"051721000","municipality_name":"Milaor"},"geometry":{"type":"Point","coordinates":[123.18449545500005,13.585162108500041]}},{"type":"Feature","properties":{"psgc_code":"051721002","name":"Amparado (Pob.)","level":"barangay-label","municipality_psgc_code":"051721000","municipality_name":"Milaor"},"geometry":{"type":"Point","coordinates":[123.17841785950004,13.598067082500023]}},{"type":"Feature","properties":{"psgc_code":"051721003","name":"Balagbag","level":"barangay-label","municipality_psgc_code":"051721000","municipality_name":"Milaor"},"geometry":{"type":"Point","coordinates":[123.1626027695001,13.580013396000053]}},{"type":"Feature","properties":{"psgc_code":"051721004","name":"Borongborongan","level":"barangay-label","municipality_psgc_code":"051721000","municipality_name":"Milaor"},"geometry":{"type":"Point","coordinates":[123.17541770700007,13.57868275100006]}},{"type":"Feature","properties":{"psgc_code":"051721005","name":"Cabugao","level":"barangay-label","municipality_psgc_code":"051721000","municipality_name":"Milaor"},"geometry":{"type":"Point","coordinates":[123.20615821900009,13.583820917500047]}},{"type":"Feature","properties":{"psgc_code":"051721006","name":"Capucnasan","level":"barangay-label","municipality_psgc_code":"051721000","municipality_name":"Milaor"},"geometry":{"type":"Point","coordinates":[123.22514120250008,13.604761504500061]}},{"type":"Feature","properties":{"psgc_code":"051721007","name":"Dalipay","level":"barangay-label","municipality_psgc_code":"051721000","municipality_name":"Milaor"},"geometry":{"type":"Point","coordinates":[123.20129791100005,13.601530227000067]}},{"type":"Feature","properties":{"psgc_code":"051721008","name":"Del Rosario (Pob.)","level":"barangay-label","municipality_psgc_code":"051721000","municipality_name":"Milaor"},"geometry":{"type":"Point","coordinates":[123.17834494400006,13.590579652500054]}},{"type":"Feature","properties":{"psgc_code":"051721009","name":"Flordeliz","level":"barangay-label","municipality_psgc_code":"051721000","municipality_name":"Milaor"},"geometry":{"type":"Point","coordinates":[123.15679555750006,13.59110996250004]}},{"type":"Feature","properties":{"psgc_code":"051721010","name":"Lipot","level":"barangay-label","municipality_psgc_code":"051721000","municipality_name":"Milaor"},"geometry":{"type":"Point","coordinates":[123.15677268950003,13.602109789500046]}},{"type":"Feature","properties":{"psgc_code":"051721011","name":"Mayaopayawan","level":"barangay-label","municipality_psgc_code":"051721000","municipality_name":"Milaor"},"geometry":{"type":"Point","coordinates":[123.20943600200007,13.59352158750005]}},{"type":"Feature","properties":{"psgc_code":"051721012","name":"Maycatmon","level":"barangay-label","municipality_psgc_code":"051721000","municipality_name":"Milaor"},"geometry":{"type":"Point","coordinates":[123.23119571350009,13.590722537500056]}},{"type":"Feature","properties":{"psgc_code":"051721013","name":"Maydaso","level":"barangay-label","municipality_psgc_code":"051721000","municipality_name":"Milaor"},"geometry":{"type":"Point","coordinates":[123.22397575150006,13.584215942000043]}},{"type":"Feature","properties":{"psgc_code":"051721014","name":"San Antonio","level":"barangay-label","municipality_psgc_code":"051721000","municipality_name":"Milaor"},"geometry":{"type":"Point","coordinates":[123.22899082800006,13.599418984500062]}},{"type":"Feature","properties":{"psgc_code":"051721015","name":"San Jose (Pob.)","level":"barangay-label","municipality_psgc_code":"051721000","municipality_name":"Milaor"},"geometry":{"type":"Point","coordinates":[123.1771335685001,13.602095728000052]}},{"type":"Feature","properties":{"psgc_code":"051721016","name":"San Miguel (Pob.)","level":"barangay-label","municipality_psgc_code":"051721000","municipality_name":"Milaor"},"geometry":{"type":"Point","coordinates":[123.18882438250006,13.59162386300005]}},{"type":"Feature","properties":{"psgc_code":"051721017","name":"San Roque (Pob.)","level":"barangay-label","municipality_psgc_code":"051721000","municipality_name":"Milaor"},"geometry":{"type":"Point","coordinates":[123.17401997900004,13.596648539000057]}},{"type":"Feature","properties":{"psgc_code":"051721018","name":"San Vicente (Pob.)","level":"barangay-label","municipality_psgc_code":"051721000","municipality_name":"Milaor"},"geometry":{"type":"Point","coordinates":[123.18249491400007,13.602624418500056]}},{"type":"Feature","properties":{"psgc_code":"051721019","name":"Santo Domingo (Pob.)","level":"barangay-label","municipality_psgc_code":"051721000","municipality_name":"Milaor"},"geometry":{"type":"Point","coordinates":[123.18162067300005,13.59735355650005]}},{"type":"Feature","properties":{"psgc_code":"051721020","name":"Tarusanan","level":"barangay-label","municipality_psgc_code":"051721000","municipality_name":"Milaor"},"geometry":{"type":"Point","coordinates":[123.15952622350007,13.606097090500041]}}]}
