{"type":"FeatureCollection","features":[{"type":"Feature","properties":{"psgc_code":"051705001","name":"Antipolo","level":"barangay-label","municipality_psgc_code":"051705000","municipality_name":"Buhi"},"geometry":{"type":"Point","coordinates":[123.53193087750003,13.38354200650005]}},{"type":"Feature","properties":{"psgc_code":"051705002","name":"Burocbusoc","level":"barangay-label","municipality_psgc_code":"051705000","municipality_name":"Buhi"},"geometry":{"type":"Point","coordinates":[123.4792748325001,13.494003304000046]}},{"type":"Feature","properties":{"psgc_code":"051705003","name":"Cabatuan","level":"barangay-label","municipality_psgc_code":"051705000","municipality_name":"Buhi"},"geometry":{"type":"Point","coordinates":[123.47531646550003,13.461634771000035]}},{"type":"Feature","properties":{"psgc_code":"051705004","name":"Cagmaslog","level":"barangay-label","municipality_psgc_code":"051705000","municipality_name":"Buhi"},"geometry":{"type":"Point","coordinates":[123.54229576350002,13.356550175000052]}},{"type":"Feature","properties":{"psgc_code":"051705005","name":"Amlongan","level":"barangay-label","municipality_psgc_code":"051705000","municipality_name":"Buhi"},"geometry":{"type":"Point","coordinates":[123.54971156700009,13.377488476500048]}},{"type":"Feature","properties":{"psgc_code":"051705007","name":"De La Fe","level":"barangay-label","municipality_psgc_code":"051705000","municipality_name":"Buhi"},"geometry":{"type":"Point","coordinates":[123.47837515750007,13.431435144500057]}},{"type":"Feature","properties":{"psgc_code":"051705009","name":"Divino Rostro","level":"barangay-label","municipality_psgc_code":"051705000","municipality_name":"Buhi"},"geometry":{"type":"Point","coordinates":[123.55702099800004,13.394877978000068]}},{"type":"Feature","properties":{"psgc_code":"051705010","name":"Ipil","level":"barangay-label","municipality_psgc_code":"051705000","municipality_name":"Buhi"},"geometry":{"type":"Point","coordinates":[123.5510840235001,13.458371204500054]}},{"type":"Feature","properties":{"psgc_code":"051705011","name":"Gabas","level":"barangay-label","municipality_psgc_code":"051705000","municipality_name":"Buhi"},"geometry":{"type":"Point","coordinates":[123.52901443100006,13.373021488500058]}},{"type":"Feature","properties":{"psgc_code":"051705012","name":"Ibayugan","level":"barangay-label","municipality_psgc_code":"051705000","municipality_name":"Buhi"},"geometry":{"type":"Point","coordinates":[123.52612613650007,13.499405409500044]}},{"type":"Feature","properties":{"psgc_code":"051705013","name":"Igbac","level":"barangay-label","municipality_psgc_code":"051705000","municipality_name":"Buhi"},"geometry":{"type":"Point","coordinates":[123.55394544950002,13.425084661500051]}},{"type":"Feature","properties":{"psgc_code":"051705014","name":"Iraya","level":"barangay-label","municipality_psgc_code":"051705000","municipality_name":"Buhi"},"geometry":{"type":"Point","coordinates":[123.53825802800003,13.476393425000053]}},{"type":"Feature","properties":{"psgc_code":"051705015","name":"Labawon","level":"barangay-label","municipality_psgc_code":"051705000","municipality_name":"Buhi"},"geometry":{"type":"Point","coordinates":[123.55224551100008,13.367392108500042]}},{"type":"Feature","properties":{"psgc_code":"051705016","name":"Delos Angeles","level":"barangay-label","municipality_psgc_code":"051705000","municipality_name":"Buhi"},"geometry":{"type":"Point","coordinates":[123.47960999850005,13.375984756000038]}},{"type":"Feature","properties":{"psgc_code":"051705018","name":"Monte Calvario","level":"barangay-label","municipality_psgc_code":"051705000","municipality_name":"Buhi"},"geometry":{"type":"Point","coordinates":[123.55419992650002,13.414838941000056]}},{"type":"Feature","properties":{"psgc_code":"051705019","name":"Namurabod","level":"barangay-label","municipality_psgc_code":"051705000","municipality_name":"Buhi"},"geometry":{"type":"Point","coordinates":[123.56749941600009,13.383036671000069]}},{"type":"Feature","properties":{"psgc_code":"051705020","name":"Sagrada Familia","level":"barangay-label","municipality_psgc_code":"051705000","municipality_name":"Buhi"},"geometry":{"type":"Point","coordinates":[123.50911921650004,13.419299599000054]}},{"type":"Feature","properties":{"psgc_code":"051705021","name":"Salvacion","level":"barangay-label","municipality_psgc_code":"051705000","municipality_name":"Buhi"},"geometry":{"type":"Point","coordinates":[123.48109400350006,13.43866668500004]}},{"type":"Feature","properties":{"psgc_code":"051705022","name":"San Antonio","level":"barangay-label","municipality_psgc_code":"051705000","municipality_name":"Buhi"},"geometry":{"type":"Point","coordinates":[123.51042906250007,13.35414597250005]}},{"type":"Feature","properties":{"psgc_code":"051705023","name":"San Buenaventura (Pob.)","level":"barangay-label","municipality_psgc_code":"051705000","municipality_name":"Buhi"},"geometry":{"type":"Point","coordinates":[123.52103749650007,13.433197800000045]}},{"type":"Feature","properties":{"psgc_code":"051705024","name":"San Francisco","level":"barangay-label","municipality_psgc_code":"051705000","municipality_name":"Buhi"},"geometry":{"type":"Point","coordinates":[123.50872810200008,13.381372347000053]}},{"type":"Feature","properties":{"psgc_code":"051705025","name":"San Isidro","level":"barangay-label","municipality_psgc_code":"051705000","municipality_name":"Buhi"},"geometry":{"type":"Point","coordinates":[123.50424068950008,13.387407405500053]}},{"type":"Feature","properties":{"psgc_code":"051705026","name":"San Jose Baybayon","level":"barangay-label","municipality_psgc_code":"051705000","municipality_name":"Buhi"},"geometry":{"type":"Point","coordinates":[123.51763632500007,13.421823045500048]}},{"type":"Feature","properties":{"psgc_code":"051705027","name":"San Jose Salay","level":"barangay-label","municipality_psgc_code":"051705000","municipality_name":"Buhi"},"geometry":{"type":"Point","coordinates":[123.48555310700004,13.389282693000041]}},{"type":"Feature","properties":{"psgc_code":"051705028","name":"Macaangay","level":"barangay-label","municipality_psgc_code":"051705000","municipality_name":"Buhi"},"geometry":{"type":"Point","coordinates":[123.55556876750006,13.364186255500044]}},{"type":"Feature","properties":{"psgc_code":"051705029","name":"San Pascual (Pob.)","level":"barangay-label","municipality_psgc_code":"051705000","municipality_name":"Buhi"},"geometry":{"type":"Point","coordinates":[123.52176532650009,13.430497616000054]}},{"type":"Feature","properties":{"psgc_code":"051705030","name":"San Pedro (Pob.)","level":"barangay-label","municipality_psgc_code":"051705000","municipality_name":"Buhi"},"geometry":{"type":"Point","coordinates":[123.51947451250004,13.427683538500046]}},{"type":"Feature","properties":{"psgc_code":"051705031","name":"San Rafael","level":"barangay-label","municipality_psgc_code":"051705000","municipality_name":"Buhi"},"geometry":{"type":"Point","coordinates":[123.52342276450008,13.398548060500048]}},{"type":"Feature","properties":{"psgc_code":"051705032","name":"San Ramon","level":"barangay-label","municipality_psgc_code":"051705000","municipality_name":"Buhi"},"geometry":{"type":"Point","coordinates":[123.47768366850005,13.421011868500072]}},{"type":"Feature","properties":{"psgc_code":"051705033","name":"San Roque (Pob.)","level":"barangay-label","municipality_psgc_code":"051705000","municipality_name":"Buhi"},"geometry":{"type":"Point","coordinates":[123.51650172600006,13.432705683000048]}},{"type":"Feature","properties":{"psgc_code":"051705034","name":"San Vicente","level":"barangay-label","municipality_psgc_code":"051705000","municipality_name":"Buhi"},"geometry":{"type":"Point","coordinates":[123.52158585850002,13.364221683000038]}},{"type":"Feature","properties":{"psgc_code":"051705035","name":"Santa Clara (Pob.)","level":"barangay-label","municipality_psgc_code":"051705000","municipality_name":"Buhi"},"geometry":{"type":"Point","coordinates":[123.51215526050008,13.430990648000034]}},{"type":"Feature","properties":{"psgc_code":"051705036","name":"Santa Cruz","level":"barangay-label","municipality_psgc_code":"051705000","municipality_name":"Buhi"},"geometry":{"type":"Point","coordinates":[123.55460854050006,13.43955877950003]}},{"type":"Feature","properties":{"psgc_code":"051705037","name":"Santa Elena (Pob.)","level":"barangay-label","municipality_psgc_code":"051705000","municipality_name":"Buhi"},"geometry":{"type":"Point","coordinates":[123.51505282350007,13.433759929000043]}},{"type":"Feature","properties":{"psgc_code":"051705038","name":"Santa Isabel","level":"barangay-label","municipality_psgc_code":"051705000","municipality_name":"Buhi"},"geometry":{"type":"Point","coordinates":[123.49723444650004,13.372092117500046]}},{"type":"Feature","properties":{"psgc_code":"051705039","name":"Santa Justina","level":"barangay-label","municipality_psgc_code":"051705000","municipality_name":"Buhi"},"geometry":{"type":"Point","coordinates":[123.48088717700006,13.399645956000057]}},{"type":"Feature","properties":{"psgc_code":"051705040","name":"Lourdes","level":"barangay-label","municipality_psgc_code":"051705000","municipality_name":"Buhi"},"geometry":{"type":"Point","coordinates":[123.50194445300002,13.408729243000039]}},{"type":"Feature","properties":{"psgc_code":"051705041","name":"Tambo","level":"barangay-label","municipality_psgc_code":"051705000","municipality_name":"Buhi"},"geometry":{"type":"Point","coordinates":[123.49742821200005,13.490497304000058]}}]}
