{"type":"FeatureCollection","features":[{"type":"Feature","properties":{"psgc_code":"051712001","name":"Bagong Silang","level":"barangay-label","municipality_psgc_code":"051712000","municipality_name":"Del Gallego"},"geometry":{"type":"Point","coordinates":[122.74907619850006,13.983405086000033]}},{"type":"Feature","properties":{"psgc_code":"051712002","name":"Bucal","level":"barangay-label","municipality_psgc_code":"051712000","municipality_name":"Del Gallego"},"geometry":{"type":"Point","coordinates":[122.58575667750013,13.957840640000057]}},{"type":"Feature","properties":{"psgc_code":"051712003","name":"Cabasag","level":"barangay-label","municipality_psgc_code":"051712000","municipality_name":"Del Gallego"},"geometry":{"type":"Point","coordinates":[122.61475246950005,13.93150956350004]}},{"type":"Feature","properties":{"psgc_code":"051712004","name":"Comadaycaday","level":"barangay-label","municipality_psgc_code":"051712000","municipality_name":"Del Gallego"},"geometry":{"type":"Point","coordinates":[122.61253732900009,13.915728233500058]}},{"type":"Feature","properties":{"psgc_code":"051712005","name":"Domagondong","level":"barangay-label","municipality_psgc_code":"051712000","municipality_name":"Del Gallego"},"geometry":{"type":"Point","coordinates":[122.64563446800008,13.928777442000037]}},{"type":"Feature","properties":{"psgc_code":"051712006","name":"Kinalangan","level":"barangay-label","municipality_psgc_code":"051712000","municipality_name":"Del Gallego"},"geometry":{"type":"Point","coordinates":[122.61537771550007,13.95175811300004]}},{"type":"Feature","properties":{"psgc_code":"051712007","name":"Comadogcadog","level":"barangay-label","municipality_psgc_code":"051712000","municipality_name":"Del Gallego"},"geometry":{"type":"Point","coordinates":[122.59427264000004,13.936709556000064]}},{"type":"Feature","properties":{"psgc_code":"051712008","name":"Mabini","level":"barangay-label","municipality_psgc_code":"051712000","municipality_name":"Del Gallego"},"geometry":{"type":"Point","coordinates":[122.66877376500008,13.91626329050004]}},{"type":"Feature","properties":{"psgc_code":"051712009","name":"Magais I","level":"barangay-label","municipality_psgc_code":"051712000","municipality_name":"Del Gallego"},"geometry":{"type":"Point","coordinates":[122.57220869200006,13.928862592500053]}},{"type":"Feature","properties":{"psgc_code":"051712010","name":"Magais II","level":"barangay-label","municipality_psgc_code":"051712000","municipality_name":"Del Gallego"},"geometry":{"type":"Point","coordinates":[122.57782258000009,13.949481914500067]}},{"type":"Feature","properties":{"psgc_code":"051712011","name":"Mansalaya","level":"barangay-label","municipality_psgc_code":"051712000","municipality_name":"Del Gallego"},"geometry":{"type":"Point","coordinates":[122.64780636050006,13.967808643500035]}},{"type":"Feature","properties":{"psgc_code":"051712012","name":"Nagkalit","level":"barangay-label","municipality_psgc_code":"051712000","municipality_name":"Del Gallego"},"geometry":{"type":"Point","coordinates":[122.67049968000003,13.89900265600005]}},{"type":"Feature","properties":{"psgc_code":"051712013","name":"Palaspas","level":"barangay-label","municipality_psgc_code":"051712000","municipality_name":"Del Gallego"},"geometry":{"type":"Point","coordinates":[122.69347079700009,13.918633121000056]}},{"type":"Feature","properties":{"psgc_code":"051712014","name":"Pamplona","level":"barangay-label","municipality_psgc_code":"051712000","municipality_name":"Del Gallego"},"geometry":{"type":"Point","coordinates":[122.7602884530001,13.952540338500055]}},{"type":"Feature","properties":{"psgc_code":"051712015","name":"Pasay","level":"barangay-label","municipality_psgc_code":"051712000","municipality_name":"Del Gallego"},"geometry":{"type":"Point","coordinates":[122.56222882150007,13.947407261500047]}},{"type":"Feature","properties":{"psgc_code":"051712016","name":"Pinagdapian","level":"barangay-label","municipality_psgc_code":"051712000","municipality_name":"Del Gallego"},"geometry":{"type":"Point","coordinates":[122.62744739950006,13.918494370000046]}},{"type":"Feature","properties":{"psgc_code":"051712017","name":"Pinugusan","level":"barangay-label","municipality_psgc_code":"051712000","municipality_name":"Del Gallego"},"geometry":{"type":"Point","coordinates":[122.59406565000006,13.951002723000046]}},{"type":"Feature","properties":{"psgc_code":"051712018","name":"Zone I Fatima (Pob.)","level":"barangay-label","municipality_psgc_code":"051712000","municipality_name":"Del Gallego"},"geometry":{"type":"Point","coordinates":[122.5956203830001,13.921414724500067]}},{"type":"Feature","properties":{"psgc_code":"051712019","name":"Zone II San Antonio (Pob.)","level":"barangay-label","municipality_psgc_code":"051712000","municipality_name":"Del Gallego"},"geometry":{"type":"Point","coordinates":[122.59174282600009,13.921553145500038]}},{"type":"Feature","properties":{"psgc_code":"051712020","name":"Poblacion Zone III","level":"barangay-label","municipality_psgc_code":"051712000","municipality_name":"Del Gallego"},"geometry":{"type":"Point","coordinates":[122.59945188500006,13.921530198000053]}},{"type":"Feature","properties":{"psgc_code":"051712021","name":"Sabang","level":"barangay-label","municipality_psgc_code":"051712000","municipality_name":"Del Gallego"},"geometry":{"type":"Point","coordinates":[122.57709413200007,13.913683535000047]}},{"type":"Feature","properties":{"psgc_code":"051712022","name":"Salvacion","level":"barangay-label","municipality_psgc_code":"051712000","municipality_name":"Del Gallego"},"geometry":{"type":"Point","coordinates":[122.65075715550006,13.889629500000037]}},{"type":"Feature","properties":{"psgc_code":"051712023","name":"San Juan","level":"barangay-label","municipality_psgc_code":"051712000","municipality_name":"Del Gallego"},"geometry":{"type":"Point","coordinates":[122.59920241300006,13.907535808000034]}},{"type":"Feature","properties":{"psgc_code":"051712024","name":"San Pablo","level":"barangay-label","municipality_psgc_code":"051712000","municipality_name":"Del Gallego"},"geometry":{"type":"Point","coordinates":[122.67552928900005,13.933498071500054]}},{"type":"Feature","properties":{"psgc_code":"051712025","name":"Santa Rita I","level":"barangay-label","municipality_psgc_code":"051712000","municipality_name":"Del Gallego"},"geometry":{"type":"Point","coordinates":[122.64725947500006,13.955693750500046]}},{"type":"Feature","properties":{"psgc_code":"051712026","name":"Santa Rita II","level":"barangay-label","municipality_psgc_code":"051712000","municipality_name":"Del Gallego"},"geometry":{"type":"Point","coordinates":[122.63715378550006,13.94335241300007]}},{"type":"Feature","properties":{"psgc_code":"051712027","name":"Sinagawsawan","level":"barangay-label","municipality_psgc_code":"051712000","municipality_name":"Del Gallego"},"geometry":{"type":"Point","coordinates":[122.62209346250006,13.899619702000052]}},{"type":"Feature","properties":{"psgc_code":"051712028","name":"Sinuknipan I","level":"barangay-label","municipality_psgc_code":"051712000","municipality_name":"Del Gallego"},"geometry":{"type":"Point","coordinates":[122.64331283000007,13.908714012500043]}},{"type":"Feature","properties":{"psgc_code":"051712029","name":"Sinuknipan II","level":"barangay-label","municipality_psgc_code":"051712000","municipality_name":"Del Gallego"},"geometry":{"type":"Point","coordinates":[122.6325548530001,13.89086067350007]}},{"type":"Feature","properties":{"psgc_code":"051712030","name":"Sugsugin","level":"barangay-label","municipality_psgc_code":"051712000","municipality_name":"Del Gallego"},"geometry":{"type":"Point","coordinates":[122.60784813350011,13.955022160000057]}},{"type":"Feature","properties":{"psgc_code":"051712031","name":"Tabion","level":"barangay-label","municipality_psgc_code":"051712000","municipality_name":"Del Gallego"},"geometry":{"type":"Point","coordinates":[122.66691270400008,13.948131192000034]}},{"type":"Feature","properties":{"psgc_code":"051712032","name":"Tomagoktok","level":"barangay-label","municipality_psgc_code":"051712000","municipality_name":"Del Gallego"},"geometry":{"type":"Point","coordinates":[122.65577328400006,13.912900001000054]}}]}
