{"type":"FeatureCollection","features":[{"type":"Feature","properties":{"psgc_code":"051730001","name":"Agao-ao","level":"barangay-label","municipality_psgc_code":"051730000","municipality_name":"Ragay"},"geometry":{"type":"Point","coordinates":[122.85713927500007,13.880545253000065]}},{"type":"Feature","properties":{"psgc_code":"051730002","name":"Agrupacion","level":"barangay-label","municipality_psgc_code":"051730000","municipality_name":"Ragay"},"geometry":{"type":"Point","coordinates":[122.8108219130001,13.79882427000004]}},{"type":"Feature","properties":{"psgc_code":"051730003","name":"Amomokpok","level":"barangay-label","municipality_psgc_code":"051730000","municipality_name":"Ragay"},"geometry":{"type":"Point","coordinates":[122.77076305000008,13.853531301000032]}},{"type":"Feature","properties":{"psgc_code":"051730004","name":"Apad","level":"barangay-label","municipality_psgc_code":"051730000","municipality_name":"Ragay"},"geometry":{"type":"Point","coordinates":[122.75833637450006,13.80323507700004]}},{"type":"Feature","properties":{"psgc_code":"051730005","name":"Apale","level":"barangay-label","municipality_psgc_code":"051730000","municipality_name":"Ragay"},"geometry":{"type":"Point","coordinates":[122.78872970900005,13.800980813500047]}},{"type":"Feature","properties":{"psgc_code":"051730006","name":"Banga Caves","level":"barangay-label","municipality_psgc_code":"051730000","municipality_name":"Ragay"},"geometry":{"type":"Point","coordinates":[122.83487403750007,13.781451597500052]}},{"type":"Feature","properties":{"psgc_code":"051730007","name":"Baya","level":"barangay-label","municipality_psgc_code":"051730000","municipality_name":"Ragay"},"geometry":{"type":"Point","coordinates":[122.80089000300006,13.848944577500047]}},{"type":"Feature","properties":{"psgc_code":"051730008","name":"Binahan Proper","level":"barangay-label","municipality_psgc_code":"051730000","municipality_name":"Ragay"},"geometry":{"type":"Point","coordinates":[122.74772325000004,13.81338758800004]}},{"type":"Feature","properties":{"psgc_code":"051730009","name":"Binahan Upper","level":"barangay-label","municipality_psgc_code":"051730000","municipality_name":"Ragay"},"geometry":{"type":"Point","coordinates":[122.75473678400004,13.849871241000043]}},{"type":"Feature","properties":{"psgc_code":"051730010","name":"Buenasuerte","level":"barangay-label","municipality_psgc_code":"051730000","municipality_name":"Ragay"},"geometry":{"type":"Point","coordinates":[122.76355425250006,13.779454750000042]}},{"type":"Feature","properties":{"psgc_code":"051730011","name":"Cabadisan","level":"barangay-label","municipality_psgc_code":"051730000","municipality_name":"Ragay"},"geometry":{"type":"Point","coordinates":[122.7828300005001,13.935652117500037]}},{"type":"Feature","properties":{"psgc_code":"051730012","name":"Cabinitan","level":"barangay-label","municipality_psgc_code":"051730000","municipality_name":"Ragay"},"geometry":{"type":"Point","coordinates":[122.8056021965001,13.777594970000052]}},{"type":"Feature","properties":{"psgc_code":"051730013","name":"Cabugao","level":"barangay-label","municipality_psgc_code":"051730000","municipality_name":"Ragay"},"geometry":{"type":"Point","coordinates":[122.79469076200002,13.765753718000042]}},{"type":"Feature","properties":{"psgc_code":"051730014","name":"Caditaan","level":"barangay-label","municipality_psgc_code":"051730000","municipality_name":"Ragay"},"geometry":{"type":"Point","coordinates":[122.73723760000007,13.862039730000049]}},{"type":"Feature","properties":{"psgc_code":"051730015","name":"Cale","level":"barangay-label","municipality_psgc_code":"051730000","municipality_name":"Ragay"},"geometry":{"type":"Point","coordinates":[122.77817900800005,13.80283453650003]}},{"type":"Feature","properties":{"psgc_code":"051730016","name":"Godofredo Reyes Sr.","level":"barangay-label","municipality_psgc_code":"051730000","municipality_name":"Ragay"},"geometry":{"type":"Point","coordinates":[122.68763159950002,13.891793668000048]}},{"type":"Feature","properties":{"psgc_code":"051730017","name":"Catabangan Proper","level":"barangay-label","municipality_psgc_code":"051730000","municipality_name":"Ragay"},"geometry":{"type":"Point","coordinates":[122.64836467150002,13.868302183500049]}},{"type":"Feature","properties":{"psgc_code":"051730018","name":"Inandawa","level":"barangay-label","municipality_psgc_code":"051730000","municipality_name":"Ragay"},"geometry":{"type":"Point","coordinates":[122.70319690200006,13.878721406000038]}},{"type":"Feature","properties":{"psgc_code":"051730019","name":"Laguio","level":"barangay-label","municipality_psgc_code":"051730000","municipality_name":"Ragay"},"geometry":{"type":"Point","coordinates":[122.80584440950008,13.830688056500065]}},{"type":"Feature","properties":{"psgc_code":"051730020","name":"Lanipga-Cawayan","level":"barangay-label","municipality_psgc_code":"051730000","municipality_name":"Ragay"},"geometry":{"type":"Point","coordinates":[122.85452525150004,13.83368810600004]}},{"type":"Feature","properties":{"psgc_code":"051730021","name":"Liboro","level":"barangay-label","municipality_psgc_code":"051730000","municipality_name":"Ragay"},"geometry":{"type":"Point","coordinates":[122.73082748550009,13.832736533500025]}},{"type":"Feature","properties":{"psgc_code":"051730022","name":"Lohong","level":"barangay-label","municipality_psgc_code":"051730000","municipality_name":"Ragay"},"geometry":{"type":"Point","coordinates":[122.65357999150007,13.84481511650003]}},{"type":"Feature","properties":{"psgc_code":"051730023","name":"Lower Omon","level":"barangay-label","municipality_psgc_code":"051730000","municipality_name":"Ragay"},"geometry":{"type":"Point","coordinates":[122.66583415150006,13.823567163500059]}},{"type":"Feature","properties":{"psgc_code":"051730024","name":"Lower Santa Cruz","level":"barangay-label","municipality_psgc_code":"051730000","municipality_name":"Ragay"},"geometry":{"type":"Point","coordinates":[122.82004249050004,13.829860846000058]}},{"type":"Feature","properties":{"psgc_code":"051730026","name":"Panaytayan","level":"barangay-label","municipality_psgc_code":"051730000","municipality_name":"Ragay"},"geometry":{"type":"Point","coordinates":[122.7827786435001,13.83454970300005]}},{"type":"Feature","properties":{"psgc_code":"051730027","name":"Panaytayan Nuevo","level":"barangay-label","municipality_psgc_code":"051730000","municipality_name":"Ragay"},"geometry":{"type":"Point","coordinates":[122.81149808550003,13.879904243000055]}},{"type":"Feature","properties":{"psgc_code":"051730028","name":"Patalunan","level":"barangay-label","municipality_psgc_code":"051730000","municipality_name":"Ragay"},"geometry":{"type":"Point","coordinates":[122.84421794050007,13.867341922000035]}},{"type":"Feature","properties":{"psgc_code":"051730029","name":"Poblacion Ilaod","level":"barangay-label","municipality_psgc_code":"051730000","municipality_name":"Ragay"},"geometry":{"type":"Point","coordinates":[122.78391838300007,13.81967661750005]}},{"type":"Feature","properties":{"psgc_code":"051730030","name":"Poblacion Iraya","level":"barangay-label","municipality_psgc_code":"051730000","municipality_name":"Ragay"},"geometry":{"type":"Point","coordinates":[122.79127027700008,13.820663327500025]}},{"type":"Feature","properties":{"psgc_code":"051730031","name":"Port Junction Norte","level":"barangay-label","municipality_psgc_code":"051730000","municipality_name":"Ragay"},"geometry":{"type":"Point","coordinates":[122.67109376600008,13.862492591000034]}},{"type":"Feature","properties":{"psgc_code":"051730032","name":"Port Junction Sur","level":"barangay-label","municipality_psgc_code":"051730000","municipality_name":"Ragay"},"geometry":{"type":"Point","coordinates":[122.67799663400001,13.849243692500039]}},{"type":"Feature","properties":{"psgc_code":"051730034","name":"Salvacion","level":"barangay-label","municipality_psgc_code":"051730000","municipality_name":"Ragay"},"geometry":{"type":"Point","coordinates":[122.81907765000004,13.859091561500064]}},{"type":"Feature","properties":{"psgc_code":"051730035","name":"Samay","level":"barangay-label","municipality_psgc_code":"051730000","municipality_name":"Ragay"},"geometry":{"type":"Point","coordinates":[122.72143810050005,13.867306535000036]}},{"type":"Feature","properties":{"psgc_code":"051730036","name":"San Rafael","level":"barangay-label","municipality_psgc_code":"051730000","municipality_name":"Ragay"},"geometry":{"type":"Point","coordinates":[122.7170675050001,13.822151149500058]}},{"type":"Feature","properties":{"psgc_code":"051730037","name":"F. Simeon","level":"barangay-label","municipality_psgc_code":"051730000","municipality_name":"Ragay"},"geometry":{"type":"Point","coordinates":[122.70902227300007,13.838587527000042]}},{"type":"Feature","properties":{"psgc_code":"051730038","name":"Tagbac","level":"barangay-label","municipality_psgc_code":"051730000","municipality_name":"Ragay"},"geometry":{"type":"Point","coordinates":[122.81538962700006,13.757027382000045]}},{"type":"Feature","properties":{"psgc_code":"051730039","name":"Upper Omon","level":"barangay-label","municipality_psgc_code":"051730000","municipality_name":"Ragay"},"geometry":{"type":"Point","coordinates":[122.68594031400006,13.835815152000066]}},{"type":"Feature","properties":{"psgc_code":"051730040","name":"Upper Santa Cruz","level":"barangay-label","municipality_psgc_code":"051730000","municipality_name":"Ragay"},"geometry":{"type":"Point","coordinates":[122.84401319250004,13.813760168000044]}}]}
