{"type":"FeatureCollection","features":[{"type":"Feature","properties":{"psgc_code":"051718001","name":"Aslong","level":"barangay-label","municipality_psgc_code":"051718000","municipality_name":"Libmanan"},"geometry":{"type":"Point","coordinates":[123.03064640250011,13.685322044500053]}},{"type":"Feature","properties":{"psgc_code":"051718002","name":"Awayan","level":"barangay-label","municipality_psgc_code":"051718000","municipality_name":"Libmanan"},"geometry":{"type":"Point","coordinates":[122.99525365550005,13.743472394000037]}},{"type":"Feature","properties":{"psgc_code":"051718003","name":"Bagacay","level":"barangay-label","municipality_psgc_code":"051718000","municipality_name":"Libmanan"},"geometry":{"type":"Point","coordinates":[123.03126494700001,13.645265231000053]}},{"type":"Feature","properties":{"psgc_code":"051718004","name":"Bagadion","level":"barangay-label","municipality_psgc_code":"051718000","municipality_name":"Libmanan"},"geometry":{"type":"Point","coordinates":[123.05192187150004,13.634203613500063]}},{"type":"Feature","properties":{"psgc_code":"051718005","name":"Bagamelon","level":"barangay-label","municipality_psgc_code":"051718000","municipality_name":"Libmanan"},"geometry":{"type":"Point","coordinates":[123.01534510550005,13.59861551800006]}},{"type":"Feature","properties":{"psgc_code":"051718006","name":"Bagumbayan","level":"barangay-label","municipality_psgc_code":"051718000","municipality_name":"Libmanan"},"geometry":{"type":"Point","coordinates":[123.05594151950004,13.701943071000045]}},{"type":"Feature","properties":{"psgc_code":"051718007","name":"Bahao","level":"barangay-label","municipality_psgc_code":"051718000","municipality_name":"Libmanan"},"geometry":{"type":"Point","coordinates":[122.83284055550007,13.647600936000032]}},{"type":"Feature","properties":{"psgc_code":"051718008","name":"Bahay","level":"barangay-label","municipality_psgc_code":"051718000","municipality_name":"Libmanan"},"geometry":{"type":"Point","coordinates":[123.03460292600005,13.667712093000034]}},{"type":"Feature","properties":{"psgc_code":"051718009","name":"Beguito Nuevo","level":"barangay-label","municipality_psgc_code":"051718000","municipality_name":"Libmanan"},"geometry":{"type":"Point","coordinates":[122.98346950600006,13.73229420550004]}},{"type":"Feature","properties":{"psgc_code":"051718010","name":"Beguito Viejo","level":"barangay-label","municipality_psgc_code":"051718000","municipality_name":"Libmanan"},"geometry":{"type":"Point","coordinates":[122.97275290950007,13.73251246400005]}},{"type":"Feature","properties":{"psgc_code":"051718012","name":"Begajo Norte","level":"barangay-label","municipality_psgc_code":"051718000","municipality_name":"Libmanan"},"geometry":{"type":"Point","coordinates":[123.06500116900003,13.700142993500037]}},{"type":"Feature","properties":{"psgc_code":"051718013","name":"Begajo Sur","level":"barangay-label","municipality_psgc_code":"051718000","municipality_name":"Libmanan"},"geometry":{"type":"Point","coordinates":[123.06991189750006,13.698436335500048]}},{"type":"Feature","properties":{"psgc_code":"051718014","name":"Bikal","level":"barangay-label","municipality_psgc_code":"051718000","municipality_name":"Libmanan"},"geometry":{"type":"Point","coordinates":[122.98196741850006,13.720898257000043]}},{"type":"Feature","properties":{"psgc_code":"051718015","name":"Busak","level":"barangay-label","municipality_psgc_code":"051718000","municipality_name":"Libmanan"},"geometry":{"type":"Point","coordinates":[122.98139752750006,13.624512430000037]}},{"type":"Feature","properties":{"psgc_code":"051718016","name":"Caima","level":"barangay-label","municipality_psgc_code":"051718000","municipality_name":"Libmanan"},"geometry":{"type":"Point","coordinates":[122.88320330100004,13.673260356000043]}},{"type":"Feature","properties":{"psgc_code":"051718017","name":"Calabnigan","level":"barangay-label","municipality_psgc_code":"051718000","municipality_name":"Libmanan"},"geometry":{"type":"Point","coordinates":[122.92860601600006,13.693763714000056]}},{"type":"Feature","properties":{"psgc_code":"051718018","name":"Camambugan","level":"barangay-label","municipality_psgc_code":"051718000","municipality_name":"Libmanan"},"geometry":{"type":"Point","coordinates":[123.04143795100009,13.71536750250004]}},{"type":"Feature","properties":{"psgc_code":"051718019","name":"Cambalidio","level":"barangay-label","municipality_psgc_code":"051718000","municipality_name":"Libmanan"},"geometry":{"type":"Point","coordinates":[122.89653234250005,13.627734225500033]}},{"type":"Feature","properties":{"psgc_code":"051718020","name":"Candami","level":"barangay-label","municipality_psgc_code":"051718000","municipality_name":"Libmanan"},"geometry":{"type":"Point","coordinates":[123.01619425750006,13.753502074500034]}},{"type":"Feature","properties":{"psgc_code":"051718021","name":"Candato","level":"barangay-label","municipality_psgc_code":"051718000","municipality_name":"Libmanan"},"geometry":{"type":"Point","coordinates":[123.06178499150008,13.713619662500065]}},{"type":"Feature","properties":{"psgc_code":"051718022","name":"Cawayan","level":"barangay-label","municipality_psgc_code":"051718000","municipality_name":"Libmanan"},"geometry":{"type":"Point","coordinates":[122.88349708900006,13.649943939500048]}},{"type":"Feature","properties":{"psgc_code":"051718023","name":"Concepcion","level":"barangay-label","municipality_psgc_code":"051718000","municipality_name":"Libmanan"},"geometry":{"type":"Point","coordinates":[123.08325422350003,13.68515548600004]}},{"type":"Feature","properties":{"psgc_code":"051718024","name":"Cuyapi","level":"barangay-label","municipality_psgc_code":"051718000","municipality_name":"Libmanan"},"geometry":{"type":"Point","coordinates":[123.11302453200005,13.696091467500054]}},{"type":"Feature","properties":{"psgc_code":"051718025","name":"Danawan","level":"barangay-label","municipality_psgc_code":"051718000","municipality_name":"Libmanan"},"geometry":{"type":"Point","coordinates":[123.07367873850006,13.642732019500041]}},{"type":"Feature","properties":{"psgc_code":"051718026","name":"Duang Niog","level":"barangay-label","municipality_psgc_code":"051718000","municipality_name":"Libmanan"},"geometry":{"type":"Point","coordinates":[122.99972842050005,13.61197210700007]}},{"type":"Feature","properties":{"psgc_code":"051718027","name":"Handong","level":"barangay-label","municipality_psgc_code":"051718000","municipality_name":"Libmanan"},"geometry":{"type":"Point","coordinates":[123.07305497500005,13.682607172000045]}},{"type":"Feature","properties":{"psgc_code":"051718028","name":"Ibid","level":"barangay-label","municipality_psgc_code":"051718000","municipality_name":"Libmanan"},"geometry":{"type":"Point","coordinates":[123.09334637500001,13.703237183500049]}},{"type":"Feature","properties":{"psgc_code":"051718029","name":"Inalahan","level":"barangay-label","municipality_psgc_code":"051718000","municipality_name":"Libmanan"},"geometry":{"type":"Point","coordinates":[123.06311957450009,13.68299260200007]}},{"type":"Feature","properties":{"psgc_code":"051718030","name":"Labao","level":"barangay-label","municipality_psgc_code":"051718000","municipality_name":"Libmanan"},"geometry":{"type":"Point","coordinates":[123.08333447400003,13.70811669500003]}},{"type":"Feature","properties":{"psgc_code":"051718031","name":"Libod I","level":"barangay-label","municipality_psgc_code":"051718000","municipality_name":"Libmanan"},"geometry":{"type":"Point","coordinates":[123.06146788400008,13.69539608450006]}},{"type":"Feature","properties":{"psgc_code":"051718032","name":"Libod II","level":"barangay-label","municipality_psgc_code":"051718000","municipality_name":"Libmanan"},"geometry":{"type":"Point","coordinates":[123.06420498000006,13.694891058000023]}},{"type":"Feature","properties":{"psgc_code":"051718033","name":"Loba-loba","level":"barangay-label","municipality_psgc_code":"051718000","municipality_name":"Libmanan"},"geometry":{"type":"Point","coordinates":[122.99485196800002,13.684432586000042]}},{"type":"Feature","properties":{"psgc_code":"051718035","name":"Mabini","level":"barangay-label","municipality_psgc_code":"051718000","municipality_name":"Libmanan"},"geometry":{"type":"Point","coordinates":[122.9971286505001,13.679504684000047]}},{"type":"Feature","properties":{"psgc_code":"051718036","name":"Malansad Nuevo","level":"barangay-label","municipality_psgc_code":"051718000","municipality_name":"Libmanan"},"geometry":{"type":"Point","coordinates":[123.06163621600001,13.64432675450004]}},{"type":"Feature","properties":{"psgc_code":"051718037","name":"Malansad Viejo","level":"barangay-label","municipality_psgc_code":"051718000","municipality_name":"Libmanan"},"geometry":{"type":"Point","coordinates":[123.06180125650008,13.65279069350003]}},{"type":"Feature","properties":{"psgc_code":"051718038","name":"Malbogon","level":"barangay-label","municipality_psgc_code":"051718000","municipality_name":"Libmanan"},"geometry":{"type":"Point","coordinates":[123.0792179440001,13.669168049000035]}},{"type":"Feature","properties":{"psgc_code":"051718039","name":"Malinao","level":"barangay-label","municipality_psgc_code":"051718000","municipality_name":"Libmanan"},"geometry":{"type":"Point","coordinates":[122.97862115300006,13.675306029500064]}},{"type":"Feature","properties":{"psgc_code":"051718040","name":"Mambalite","level":"barangay-label","municipality_psgc_code":"051718000","municipality_name":"Libmanan"},"geometry":{"type":"Point","coordinates":[123.0117153710001,13.703840399000057]}},{"type":"Feature","properties":{"psgc_code":"051718041","name":"Mambayawas","level":"barangay-label","municipality_psgc_code":"051718000","municipality_name":"Libmanan"},"geometry":{"type":"Point","coordinates":[123.00044115750006,13.724888502000056]}},{"type":"Feature","properties":{"psgc_code":"051718042","name":"Mambulo Nuevo","level":"barangay-label","municipality_psgc_code":"051718000","municipality_name":"Libmanan"},"geometry":{"type":"Point","coordinates":[123.03940707050009,13.617745682500043]}},{"type":"Feature","properties":{"psgc_code":"051718043","name":"Mambulo Viejo","level":"barangay-label","municipality_psgc_code":"051718000","municipality_name":"Libmanan"},"geometry":{"type":"Point","coordinates":[123.0678426935001,13.621762330000053]}},{"type":"Feature","properties":{"psgc_code":"051718044","name":"Mancawayan","level":"barangay-label","municipality_psgc_code":"051718000","municipality_name":"Libmanan"},"geometry":{"type":"Point","coordinates":[123.06010316600009,13.673802235000068]}},{"type":"Feature","properties":{"psgc_code":"051718045","name":"Mandacanan","level":"barangay-label","municipality_psgc_code":"051718000","municipality_name":"Libmanan"},"geometry":{"type":"Point","coordinates":[123.02867321600002,13.656750993500054]}},{"type":"Feature","properties":{"psgc_code":"051718046","name":"Mantalisay","level":"barangay-label","municipality_psgc_code":"051718000","municipality_name":"Libmanan"},"geometry":{"type":"Point","coordinates":[123.02116375850005,13.736330217000045]}},{"type":"Feature","properties":{"psgc_code":"051718047","name":"Padlos","level":"barangay-label","municipality_psgc_code":"051718000","municipality_name":"Libmanan"},"geometry":{"type":"Point","coordinates":[123.02951783750007,13.704365077000036]}},{"type":"Feature","properties":{"psgc_code":"051718048","name":"Pag-Oring Nuevo","level":"barangay-label","municipality_psgc_code":"051718000","municipality_name":"Libmanan"},"geometry":{"type":"Point","coordinates":[122.97990345100004,13.655023911500052]}},{"type":"Feature","properties":{"psgc_code":"051718049","name":"Pag-Oring Viejo","level":"barangay-label","municipality_psgc_code":"051718000","municipality_name":"Libmanan"},"geometry":{"type":"Point","coordinates":[122.99799327750009,13.656666106000074]}},{"type":"Feature","properties":{"psgc_code":"051718050","name":"Palangon","level":"barangay-label","municipality_psgc_code":"051718000","municipality_name":"Libmanan"},"geometry":{"type":"Point","coordinates":[123.01690645200006,13.690315273500062]}},{"type":"Feature","properties":{"psgc_code":"051718051","name":"Palong","level":"barangay-label","municipality_psgc_code":"051718000","municipality_name":"Libmanan"},"geometry":{"type":"Point","coordinates":[122.96625556400005,13.633834002000043]}},{"type":"Feature","properties":{"psgc_code":"051718052","name":"Patag","level":"barangay-label","municipality_psgc_code":"051718000","municipality_name":"Libmanan"},"geometry":{"type":"Point","coordinates":[123.06315607350008,13.724820234000049]}},{"type":"Feature","properties":{"psgc_code":"051718053","name":"Planza","level":"barangay-label","municipality_psgc_code":"051718000","municipality_name":"Libmanan"},"geometry":{"type":"Point","coordinates":[123.05038789450009,13.675211680000045]}},{"type":"Feature","properties":{"psgc_code":"051718054","name":"Poblacion","level":"barangay-label","municipality_psgc_code":"051718000","municipality_name":"Libmanan"},"geometry":{"type":"Point","coordinates":[123.06214707550009,13.692464837000045]}},{"type":"Feature","properties":{"psgc_code":"051718055","name":"Potot","level":"barangay-label","municipality_psgc_code":"051718000","municipality_name":"Libmanan"},"geometry":{"type":"Point","coordinates":[123.04767384650006,13.682424920500036]}},{"type":"Feature","properties":{"psgc_code":"051718056","name":"Puro-Batia","level":"barangay-label","municipality_psgc_code":"051718000","municipality_name":"Libmanan"},"geometry":{"type":"Point","coordinates":[123.04258929300005,13.694984317000063]}},{"type":"Feature","properties":{"psgc_code":"051718057","name":"Rongos","level":"barangay-label","municipality_psgc_code":"051718000","municipality_name":"Libmanan"},"geometry":{"type":"Point","coordinates":[123.0642000630001,13.662644317500025]}},{"type":"Feature","properties":{"psgc_code":"051718058","name":"Salvacion","level":"barangay-label","municipality_psgc_code":"051718000","municipality_name":"Libmanan"},"geometry":{"type":"Point","coordinates":[122.84964465500008,13.66246578600004]}},{"type":"Feature","properties":{"psgc_code":"051718060","name":"San Isidro","level":"barangay-label","municipality_psgc_code":"051718000","municipality_name":"Libmanan"},"geometry":{"type":"Point","coordinates":[123.00784744300006,13.671494633000064]}},{"type":"Feature","properties":{"psgc_code":"051718061","name":"San Juan","level":"barangay-label","municipality_psgc_code":"051718000","municipality_name":"Libmanan"},"geometry":{"type":"Point","coordinates":[123.07277489950003,13.693193812500056]}},{"type":"Feature","properties":{"psgc_code":"051718062","name":"San Pablo","level":"barangay-label","municipality_psgc_code":"051718000","municipality_name":"Libmanan"},"geometry":{"type":"Point","coordinates":[123.04516522400007,13.650699067000062]}},{"type":"Feature","properties":{"psgc_code":"051718063","name":"San Vicente","level":"barangay-label","municipality_psgc_code":"051718000","municipality_name":"Libmanan"},"geometry":{"type":"Point","coordinates":[123.0802904890001,13.637013092500037]}},{"type":"Feature","properties":{"psgc_code":"051718064","name":"Sibujo","level":"barangay-label","municipality_psgc_code":"051718000","municipality_name":"Libmanan"},"geometry":{"type":"Point","coordinates":[122.99201756100005,13.690138880000063]}},{"type":"Feature","properties":{"psgc_code":"051718065","name":"Sigamot","level":"barangay-label","municipality_psgc_code":"051718000","municipality_name":"Libmanan"},"geometry":{"type":"Point","coordinates":[122.98703659650005,13.704111413000046]}},{"type":"Feature","properties":{"psgc_code":"051718066","name":"Station-Church Site","level":"barangay-label","municipality_psgc_code":"051718000","municipality_name":"Libmanan"},"geometry":{"type":"Point","coordinates":[123.05902304600012,13.692338975500036]}},{"type":"Feature","properties":{"psgc_code":"051718067","name":"Taban-Fundado","level":"barangay-label","municipality_psgc_code":"051718000","municipality_name":"Libmanan"},"geometry":{"type":"Point","coordinates":[123.05282443050008,13.696284511500036]}},{"type":"Feature","properties":{"psgc_code":"051718068","name":"Tampuhan","level":"barangay-label","municipality_psgc_code":"051718000","municipality_name":"Libmanan"},"geometry":{"type":"Point","coordinates":[123.00196208250003,13.70507436750003]}},{"type":"Feature","properties":{"psgc_code":"051718069","name":"Tanag","level":"barangay-label","municipality_psgc_code":"051718000","municipality_name":"Libmanan"},"geometry":{"type":"Point","coordinates":[122.9449620380001,13.639146761500058]}},{"type":"Feature","properties":{"psgc_code":"051718070","name":"Tarum","level":"barangay-label","municipality_psgc_code":"051718000","municipality_name":"Libmanan"},"geometry":{"type":"Point","coordinates":[123.0413418285001,13.73573874750005]}},{"type":"Feature","properties":{"psgc_code":"051718071","name":"Tinalmud Nuevo","level":"barangay-label","municipality_psgc_code":"051718000","municipality_name":"Libmanan"},"geometry":{"type":"Point","coordinates":[122.85927448250004,13.624260344500044]}},{"type":"Feature","properties":{"psgc_code":"051718072","name":"Tinalmud Viejo","level":"barangay-label","municipality_psgc_code":"051718000","municipality_name":"Libmanan"},"geometry":{"type":"Point","coordinates":[122.8804809080001,13.60439972800006]}},{"type":"Feature","properties":{"psgc_code":"051718073","name":"Tinangkihan","level":"barangay-label","municipality_psgc_code":"051718000","municipality_name":"Libmanan"},"geometry":{"type":"Point","coordinates":[123.03550763200008,13.631039908500071]}},{"type":"Feature","properties":{"psgc_code":"051718074","name":"Udoc","level":"barangay-label","municipality_psgc_code":"051718000","municipality_name":"Libmanan"},"geometry":{"type":"Point","coordinates":[122.95832974100006,13.709621790000057]}},{"type":"Feature","properties":{"psgc_code":"051718075","name":"Umalo","level":"barangay-label","municipality_psgc_code":"051718000","municipality_name":"Libmanan"},"geometry":{"type":"Point","coordinates":[123.0965668925001,13.680221354000055]}},{"type":"Feature","properties":{"psgc_code":"051718076","name":"Uson","level":"barangay-label","municipality_psgc_code":"051718000","municipality_name":"Libmanan"},"geometry":{"type":"Point","coordinates":[123.01940925100007,13.715057930000054]}},{"type":"Feature","properties":{"psgc_code":"051718077","name":"Villasocorro","level":"barangay-label","municipality_psgc_code":"051718000","municipality_name":"Libmanan"},"geometry":{"type":"Point","coordinates":[122.93531617150006,13.665174639500037]}},{"type":"Feature","properties":{"psgc_code":"051718078","name":"Villadima","level":"barangay-label","municipality_psgc_code":"051718000","municipality_name":"Libmanan"},"geometry":{"type":"Point","coordinates":[122.86139053300008,13.665064071000046]}}]}
