{"type":"FeatureCollection","features":[{"type":"Feature","properties":{"psgc_code":"051724001","name":"Abella","level":"barangay-label","municipality_psgc_code":"051724000","municipality_name":"City of Naga"},"geometry":{"type":"Point","coordinates":[123.17936744700006,13.624390830000038]}},{"type":"Feature","properties":{"psgc_code":"051724002","name":"Bagumbayan Norte","level":"barangay-label","municipality_psgc_code":"051724000","municipality_name":"City of Naga"},"geometry":{"type":"Point","coordinates":[123.18339326550013,13.636211924000037]}},{"type":"Feature","properties":{"psgc_code":"051724003","name":"Bagumbayan Sur","level":"barangay-label","municipality_psgc_code":"051724000","municipality_name":"City of Naga"},"geometry":{"type":"Point","coordinates":[123.18408185200008,13.631605014500053]}},{"type":"Feature","properties":{"psgc_code":"051724004","name":"Balatas","level":"barangay-label","municipality_psgc_code":"051724000","municipality_name":"City of Naga"},"geometry":{"type":"Point","coordinates":[123.20617667800002,13.63110019000004]}},{"type":"Feature","properties":{"psgc_code":"051724006","name":"Calauag","level":"barangay-label","municipality_psgc_code":"051724000","municipality_name":"City of Naga"},"geometry":{"type":"Point","coordinates":[123.18939935450004,13.641022344500044]}},{"type":"Feature","properties":{"psgc_code":"051724007","name":"Cararayan","level":"barangay-label","municipality_psgc_code":"051724000","municipality_name":"City of Naga"},"geometry":{"type":"Point","coordinates":[123.24204821300003,13.634473745000065]}},{"type":"Feature","properties":{"psgc_code":"051724008","name":"Carolina","level":"barangay-label","municipality_psgc_code":"051724000","municipality_name":"City of Naga"},"geometry":{"type":"Point","coordinates":[123.28433559550001,13.654751884000035]}},{"type":"Feature","properties":{"psgc_code":"051724009","name":"Concepcion Grande","level":"barangay-label","municipality_psgc_code":"051724000","municipality_name":"City of Naga"},"geometry":{"type":"Point","coordinates":[123.22083809250007,13.62018936250007]}},{"type":"Feature","properties":{"psgc_code":"051724010","name":"Concepcion Peque\u00f1a","level":"barangay-label","municipality_psgc_code":"051724000","municipality_name":"City of Naga"},"geometry":{"type":"Point","coordinates":[123.20565587900006,13.617798931500062]}},{"type":"Feature","properties":{"psgc_code":"051724011","name":"Dayangdang","level":"barangay-label","municipality_psgc_code":"051724000","municipality_name":"City of Naga"},"geometry":{"type":"Point","coordinates":[123.19331095550007,13.628048299000024]}},{"type":"Feature","properties":{"psgc_code":"051724012","name":"Del Rosario","level":"barangay-label","municipality_psgc_code":"051724000","municipality_name":"City of Naga"},"geometry":{"type":"Point","coordinates":[123.23844951750006,13.618865038500047]}},{"type":"Feature","properties":{"psgc_code":"051724013","name":"Dinaga","level":"barangay-label","municipality_psgc_code":"051724000","municipality_name":"City of Naga"},"geometry":{"type":"Point","coordinates":[123.18542075900008,13.622165854500054]}},{"type":"Feature","properties":{"psgc_code":"051724014","name":"Igualdad Interior","level":"barangay-label","municipality_psgc_code":"051724000","municipality_name":"City of Naga"},"geometry":{"type":"Point","coordinates":[123.18127140050007,13.621135230500041]}},{"type":"Feature","properties":{"psgc_code":"051724017","name":"Lerma","level":"barangay-label","municipality_psgc_code":"051724000","municipality_name":"City of Naga"},"geometry":{"type":"Point","coordinates":[123.18779506450011,13.621704753000044]}},{"type":"Feature","properties":{"psgc_code":"051724018","name":"Liboton","level":"barangay-label","municipality_psgc_code":"051724000","municipality_name":"City of Naga"},"geometry":{"type":"Point","coordinates":[123.19225838650004,13.636693786000055]}},{"type":"Feature","properties":{"psgc_code":"051724019","name":"Mabolo","level":"barangay-label","municipality_psgc_code":"051724000","municipality_name":"City of Naga"},"geometry":{"type":"Point","coordinates":[123.18143174500005,13.60961131350004]}},{"type":"Feature","properties":{"psgc_code":"051724020","name":"Pacol","level":"barangay-label","municipality_psgc_code":"051724000","municipality_name":"City of Naga"},"geometry":{"type":"Point","coordinates":[123.24177807150005,13.65045573150007]}},{"type":"Feature","properties":{"psgc_code":"051724023","name":"Panicuason","level":"barangay-label","municipality_psgc_code":"051724000","municipality_name":"City of Naga"},"geometry":{"type":"Point","coordinates":[123.33958434750008,13.659533604000075]}},{"type":"Feature","properties":{"psgc_code":"051724024","name":"Pe\u00f1afrancia","level":"barangay-label","municipality_psgc_code":"051724000","municipality_name":"City of Naga"},"geometry":{"type":"Point","coordinates":[123.19240900250009,13.631620900500051]}},{"type":"Feature","properties":{"psgc_code":"051724025","name":"Sabang","level":"barangay-label","municipality_psgc_code":"051724000","municipality_name":"City of Naga"},"geometry":{"type":"Point","coordinates":[123.18046660650003,13.618777779000027]}},{"type":"Feature","properties":{"psgc_code":"051724026","name":"San Felipe","level":"barangay-label","municipality_psgc_code":"051724000","municipality_name":"City of Naga"},"geometry":{"type":"Point","coordinates":[123.20735562400006,13.645375554000054]}},{"type":"Feature","properties":{"psgc_code":"051724027","name":"San Francisco (Pob.)","level":"barangay-label","municipality_psgc_code":"051724000","municipality_name":"City of Naga"},"geometry":{"type":"Point","coordinates":[123.18723518750005,13.625521112500053]}},{"type":"Feature","properties":{"psgc_code":"051724028","name":"San Isidro","level":"barangay-label","municipality_psgc_code":"051724000","municipality_name":"City of Naga"},"geometry":{"type":"Point","coordinates":[123.26761744900011,13.628207870000068]}},{"type":"Feature","properties":{"psgc_code":"051724029","name":"Santa Cruz","level":"barangay-label","municipality_psgc_code":"051724000","municipality_name":"City of Naga"},"geometry":{"type":"Point","coordinates":[123.18074651100005,13.626822128000043]}},{"type":"Feature","properties":{"psgc_code":"051724030","name":"Tabuco","level":"barangay-label","municipality_psgc_code":"051724000","municipality_name":"City of Naga"},"geometry":{"type":"Point","coordinates":[123.18314219550007,13.61599181300005]}},{"type":"Feature","properties":{"psgc_code":"051724031","name":"Tinago","level":"barangay-label","municipality_psgc_code":"051724000","municipality_name":"City of Naga"},"geometry":{"type":"Point","coordinates":[123.19107162900009,13.624631948000058]}},{"type":"Feature","properties":{"psgc_code":"051724032","name":"Triangulo","level":"barangay-label","municipality_psgc_code":"051724000","municipality_name":"City of Naga"},"geometry":{"type":"Point","coordinates":[123.19147024400007,13.612677966500058]}}]}
