{"type":"FeatureCollection","features":[{"type":"Feature","properties":{"psgc_code":"051726001","name":"Batang","level":"barangay-label","municipality_psgc_code":"051726000","municipality_name":"Pamplona"},"geometry":{"type":"Point","coordinates":[123.05361575450002,13.570138300500076]}},{"type":"Feature","properties":{"psgc_code":"051726002","name":"Burabod","level":"barangay-label","municipality_psgc_code":"051726000","municipality_name":"Pamplona"},"geometry":{"type":"Point","coordinates":[123.10484672500007,13.590456164000074]}},{"type":"Feature","properties":{"psgc_code":"051726003","name":"Cagbibi","level":"barangay-label","municipality_psgc_code":"051726000","municipality_name":"Pamplona"},"geometry":{"type":"Point","coordinates":[123.09642864700004,13.627617922500036]}},{"type":"Feature","properties":{"psgc_code":"051726004","name":"Cagbunga","level":"barangay-label","municipality_psgc_code":"051726000","municipality_name":"Pamplona"},"geometry":{"type":"Point","coordinates":[123.09934533500007,13.640479058000068]}},{"type":"Feature","properties":{"psgc_code":"051726005","name":"Calawat","level":"barangay-label","municipality_psgc_code":"051726000","municipality_name":"Pamplona"},"geometry":{"type":"Point","coordinates":[123.03296365100006,13.587454023000047]}},{"type":"Feature","properties":{"psgc_code":"051726006","name":"Del Rosario","level":"barangay-label","municipality_psgc_code":"051726000","municipality_name":"Pamplona"},"geometry":{"type":"Point","coordinates":[123.08197694700004,13.565407953000062]}},{"type":"Feature","properties":{"psgc_code":"051726007","name":"Patong","level":"barangay-label","municipality_psgc_code":"051726000","municipality_name":"Pamplona"},"geometry":{"type":"Point","coordinates":[123.09063332800008,13.614539401500053]}},{"type":"Feature","properties":{"psgc_code":"051726009","name":"Poblacion","level":"barangay-label","municipality_psgc_code":"051726000","municipality_name":"Pamplona"},"geometry":{"type":"Point","coordinates":[123.07992921500005,13.595950129500068]}},{"type":"Feature","properties":{"psgc_code":"051726010","name":"Salvacion","level":"barangay-label","municipality_psgc_code":"051726000","municipality_name":"Pamplona"},"geometry":{"type":"Point","coordinates":[123.06461969950004,13.587765089000044]}},{"type":"Feature","properties":{"psgc_code":"051726011","name":"San Gabriel","level":"barangay-label","municipality_psgc_code":"051726000","municipality_name":"Pamplona"},"geometry":{"type":"Point","coordinates":[123.09521744450007,13.56655363750005]}},{"type":"Feature","properties":{"psgc_code":"051726012","name":"San Isidro","level":"barangay-label","municipality_psgc_code":"051726000","municipality_name":"Pamplona"},"geometry":{"type":"Point","coordinates":[123.10756797500005,13.56554584950004]}},{"type":"Feature","properties":{"psgc_code":"051726013","name":"San Rafael","level":"barangay-label","municipality_psgc_code":"051726000","municipality_name":"Pamplona"},"geometry":{"type":"Point","coordinates":[123.11611688350007,13.591947300500038]}},{"type":"Feature","properties":{"psgc_code":"051726014","name":"San Ramon","level":"barangay-label","municipality_psgc_code":"051726000","municipality_name":"Pamplona"},"geometry":{"type":"Point","coordinates":[123.05774724600008,13.604508495500054]}},{"type":"Feature","properties":{"psgc_code":"051726015","name":"San Vicente","level":"barangay-label","municipality_psgc_code":"051726000","municipality_name":"Pamplona"},"geometry":{"type":"Point","coordinates":[123.05517587950004,13.595565231500046]}},{"type":"Feature","properties":{"psgc_code":"051726016","name":"Veneracion","level":"barangay-label","municipality_psgc_code":"051726000","municipality_name":"Pamplona"},"geometry":{"type":"Point","coordinates":[123.06248099050003,13.556074316500059]}},{"type":"Feature","properties":{"psgc_code":"051726017","name":"Tambo","level":"barangay-label","municipality_psgc_code":"051726000","municipality_name":"Pamplona"},"geometry":{"type":"Point","coordinates":[123.05988922900009,13.576997752000068]}},{"type":"Feature","properties":{"psgc_code":"051726018","name":"Tampadong","level":"barangay-label","municipality_psgc_code":"051726000","municipality_name":"Pamplona"},"geometry":{"type":"Point","coordinates":[123.04477203500005,13.562460819000052]}}]}
