{"type":"FeatureCollection","features":[{"type":"Feature","properties":{"psgc_code":"051710001","name":"Baras (Pob.)","level":"barangay-label","municipality_psgc_code":"051710000","municipality_name":"Canaman"},"geometry":{"type":"Point","coordinates":[123.18319230150009,13.649499403000048]}},{"type":"Feature","properties":{"psgc_code":"051710002","name":"Del Rosario","level":"barangay-label","municipality_psgc_code":"051710000","municipality_name":"Canaman"},"geometry":{"type":"Point","coordinates":[123.16508588050004,13.634468933000047]}},{"type":"Feature","properties":{"psgc_code":"051710003","name":"Dinaga (Pob.)","level":"barangay-label","municipality_psgc_code":"051710000","municipality_name":"Canaman"},"geometry":{"type":"Point","coordinates":[123.1728746170001,13.645309826500041]}},{"type":"Feature","properties":{"psgc_code":"051710004","name":"Fundado","level":"barangay-label","municipality_psgc_code":"051710000","municipality_name":"Canaman"},"geometry":{"type":"Point","coordinates":[123.11886940500011,13.660301738500037]}},{"type":"Feature","properties":{"psgc_code":"051710005","name":"Haring","level":"barangay-label","municipality_psgc_code":"051710000","municipality_name":"Canaman"},"geometry":{"type":"Point","coordinates":[123.18288314600005,13.641703268500038]}},{"type":"Feature","properties":{"psgc_code":"051710006","name":"Iquin","level":"barangay-label","municipality_psgc_code":"051710000","municipality_name":"Canaman"},"geometry":{"type":"Point","coordinates":[123.11048836750001,13.62328503300003]}},{"type":"Feature","properties":{"psgc_code":"051710007","name":"Linaga","level":"barangay-label","municipality_psgc_code":"051710000","municipality_name":"Canaman"},"geometry":{"type":"Point","coordinates":[123.12989664400004,13.644684205000061]}},{"type":"Feature","properties":{"psgc_code":"051710008","name":"Mangayawan","level":"barangay-label","municipality_psgc_code":"051710000","municipality_name":"Canaman"},"geometry":{"type":"Point","coordinates":[123.12381328050003,13.623451992500065]}},{"type":"Feature","properties":{"psgc_code":"051710009","name":"Palo","level":"barangay-label","municipality_psgc_code":"051710000","municipality_name":"Canaman"},"geometry":{"type":"Point","coordinates":[123.09300934250007,13.654693518500068]}},{"type":"Feature","properties":{"psgc_code":"051710010","name":"Pangpang (Pob.)","level":"barangay-label","municipality_psgc_code":"051710000","municipality_name":"Canaman"},"geometry":{"type":"Point","coordinates":[123.16866006200001,13.644691894500054]}},{"type":"Feature","properties":{"psgc_code":"051710011","name":"Poro","level":"barangay-label","municipality_psgc_code":"051710000","municipality_name":"Canaman"},"geometry":{"type":"Point","coordinates":[123.14766600750005,13.642016570000067]}},{"type":"Feature","properties":{"psgc_code":"051710012","name":"San Agustin","level":"barangay-label","municipality_psgc_code":"051710000","municipality_name":"Canaman"},"geometry":{"type":"Point","coordinates":[123.18578555900008,13.647724363000034]}},{"type":"Feature","properties":{"psgc_code":"051710014","name":"San Francisco","level":"barangay-label","municipality_psgc_code":"051710000","municipality_name":"Canaman"},"geometry":{"type":"Point","coordinates":[123.11766877800005,13.651905116500043]}},{"type":"Feature","properties":{"psgc_code":"051710015","name":"San Jose East","level":"barangay-label","municipality_psgc_code":"051710000","municipality_name":"Canaman"},"geometry":{"type":"Point","coordinates":[123.12928927400003,13.636694683000057]}},{"type":"Feature","properties":{"psgc_code":"051710016","name":"San Jose West","level":"barangay-label","municipality_psgc_code":"051710000","municipality_name":"Canaman"},"geometry":{"type":"Point","coordinates":[123.11702559200006,13.636269868500051]}},{"type":"Feature","properties":{"psgc_code":"051710017","name":"San Juan","level":"barangay-label","municipality_psgc_code":"051710000","municipality_name":"Canaman"},"geometry":{"type":"Point","coordinates":[123.07900771550004,13.653883086000063]}},{"type":"Feature","properties":{"psgc_code":"051710018","name":"San Nicolas","level":"barangay-label","municipality_psgc_code":"051710000","municipality_name":"Canaman"},"geometry":{"type":"Point","coordinates":[123.1049971325001,13.656972329500036]}},{"type":"Feature","properties":{"psgc_code":"051710019","name":"San Roque","level":"barangay-label","municipality_psgc_code":"051710000","municipality_name":"Canaman"},"geometry":{"type":"Point","coordinates":[123.13826042450006,13.657007208000037]}},{"type":"Feature","properties":{"psgc_code":"051710020","name":"San Vicente","level":"barangay-label","municipality_psgc_code":"051710000","municipality_name":"Canaman"},"geometry":{"type":"Point","coordinates":[123.17951251400007,13.638435290000045]}},{"type":"Feature","properties":{"psgc_code":"051710021","name":"Santa Cruz (Pob.)","level":"barangay-label","municipality_psgc_code":"051710000","municipality_name":"Canaman"},"geometry":{"type":"Point","coordinates":[123.1702155110001,13.651748870000063]}},{"type":"Feature","properties":{"psgc_code":"051710022","name":"Santa Teresita","level":"barangay-label","municipality_psgc_code":"051710000","municipality_name":"Canaman"},"geometry":{"type":"Point","coordinates":[123.15578285450006,13.646448438000048]}},{"type":"Feature","properties":{"psgc_code":"051710023","name":"Sua","level":"barangay-label","municipality_psgc_code":"051710000","municipality_name":"Canaman"},"geometry":{"type":"Point","coordinates":[123.13190493850004,13.62378565350005]}},{"type":"Feature","properties":{"psgc_code":"051710024","name":"Talidtid","level":"barangay-label","municipality_psgc_code":"051710000","municipality_name":"Canaman"},"geometry":{"type":"Point","coordinates":[123.15875852800009,13.655723837000039]}},{"type":"Feature","properties":{"psgc_code":"051710025","name":"Tibgao (Pob.)","level":"barangay-label","municipality_psgc_code":"051710000","municipality_name":"Canaman"},"geometry":{"type":"Point","coordinates":[123.16477832700009,13.647411967000068]}}]}
