{"type":"FeatureCollection","features":[{"type":"Feature","properties":{"psgc_code":"051722001","name":"Antipolo","level":"barangay-label","municipality_psgc_code":"051722000","municipality_name":"Minalabac"},"geometry":{"type":"Point","coordinates":[123.16486649400008,13.520336190000052]}},{"type":"Feature","properties":{"psgc_code":"051722002","name":"Bagolatao","level":"barangay-label","municipality_psgc_code":"051722000","municipality_name":"Minalabac"},"geometry":{"type":"Point","coordinates":[123.16089592800012,13.46303261300005]}},{"type":"Feature","properties":{"psgc_code":"051722003","name":"Bagongbong","level":"barangay-label","municipality_psgc_code":"051722000","municipality_name":"Minalabac"},"geometry":{"type":"Point","coordinates":[123.18716083900006,13.542671386500045]}},{"type":"Feature","properties":{"psgc_code":"051722004","name":"Baliuag Nuevo","level":"barangay-label","municipality_psgc_code":"051722000","municipality_name":"Minalabac"},"geometry":{"type":"Point","coordinates":[123.19466075650007,13.502861472000063]}},{"type":"Feature","properties":{"psgc_code":"051722005","name":"Baliuag Viejo","level":"barangay-label","municipality_psgc_code":"051722000","municipality_name":"Minalabac"},"geometry":{"type":"Point","coordinates":[123.21331993550007,13.515602549500045]}},{"type":"Feature","properties":{"psgc_code":"051722006","name":"Catanusan","level":"barangay-label","municipality_psgc_code":"051722000","municipality_name":"Minalabac"},"geometry":{"type":"Point","coordinates":[123.21128137000004,13.535445351500043]}},{"type":"Feature","properties":{"psgc_code":"051722007","name":"Del Carmen-Del Rosario (Pob.)","level":"barangay-label","municipality_psgc_code":"051722000","municipality_name":"Minalabac"},"geometry":{"type":"Point","coordinates":[123.19414464350007,13.56778470450007]}},{"type":"Feature","properties":{"psgc_code":"051722008","name":"Del Socorro","level":"barangay-label","municipality_psgc_code":"051722000","municipality_name":"Minalabac"},"geometry":{"type":"Point","coordinates":[123.16824807050006,13.48257798350005]}},{"type":"Feature","properties":{"psgc_code":"051722009","name":"Hamoraon","level":"barangay-label","municipality_psgc_code":"051722000","municipality_name":"Minalabac"},"geometry":{"type":"Point","coordinates":[123.20418240550003,13.421456462000037]}},{"type":"Feature","properties":{"psgc_code":"051722010","name":"Hobo","level":"barangay-label","municipality_psgc_code":"051722000","municipality_name":"Minalabac"},"geometry":{"type":"Point","coordinates":[123.17665933250004,13.504210098000044]}},{"type":"Feature","properties":{"psgc_code":"051722011","name":"Irayang Solong","level":"barangay-label","municipality_psgc_code":"051722000","municipality_name":"Minalabac"},"geometry":{"type":"Point","coordinates":[123.16866784950001,13.551906256000054]}},{"type":"Feature","properties":{"psgc_code":"051722012","name":"Magadap","level":"barangay-label","municipality_psgc_code":"051722000","municipality_name":"Minalabac"},"geometry":{"type":"Point","coordinates":[123.20029785750006,13.484459288500062]}},{"type":"Feature","properties":{"psgc_code":"051722013","name":"Malitbog","level":"barangay-label","municipality_psgc_code":"051722000","municipality_name":"Minalabac"},"geometry":{"type":"Point","coordinates":[123.20685219850003,13.56178030250004]}},{"type":"Feature","properties":{"psgc_code":"051722014","name":"Manapao","level":"barangay-label","municipality_psgc_code":"051722000","municipality_name":"Minalabac"},"geometry":{"type":"Point","coordinates":[123.23104341450005,13.553171393000042]}},{"type":"Feature","properties":{"psgc_code":"051722015","name":"Mataoroc","level":"barangay-label","municipality_psgc_code":"051722000","municipality_name":"Minalabac"},"geometry":{"type":"Point","coordinates":[123.23808800650005,13.533284330500038]}},{"type":"Feature","properties":{"psgc_code":"051722016","name":"Sagrada","level":"barangay-label","municipality_psgc_code":"051722000","municipality_name":"Minalabac"},"geometry":{"type":"Point","coordinates":[123.24480865050003,13.513430176500066]}},{"type":"Feature","properties":{"psgc_code":"051722017","name":"Salingogon","level":"barangay-label","municipality_psgc_code":"051722000","municipality_name":"Minalabac"},"geometry":{"type":"Point","coordinates":[123.18883785050008,13.451966435500054]}},{"type":"Feature","properties":{"psgc_code":"051722018","name":"San Antonio","level":"barangay-label","municipality_psgc_code":"051722000","municipality_name":"Minalabac"},"geometry":{"type":"Point","coordinates":[123.1737274835001,13.45104631500007]}},{"type":"Feature","properties":{"psgc_code":"051722019","name":"San Felipe-Santiago (Pob.)","level":"barangay-label","municipality_psgc_code":"051722000","municipality_name":"Minalabac"},"geometry":{"type":"Point","coordinates":[123.18418816850006,13.561013160000073]}},{"type":"Feature","properties":{"psgc_code":"051722020","name":"San Francisco (Pob.)","level":"barangay-label","municipality_psgc_code":"051722000","municipality_name":"Minalabac"},"geometry":{"type":"Point","coordinates":[123.18330110000005,13.568615658000056]}},{"type":"Feature","properties":{"psgc_code":"051722021","name":"San Jose","level":"barangay-label","municipality_psgc_code":"051722000","municipality_name":"Minalabac"},"geometry":{"type":"Point","coordinates":[123.22192031150007,13.503135513000046]}},{"type":"Feature","properties":{"psgc_code":"051722022","name":"San Juan-San Lorenzo (Pob.)","level":"barangay-label","municipality_psgc_code":"051722000","municipality_name":"Minalabac"},"geometry":{"type":"Point","coordinates":[123.17503298650009,13.569554478500065]}},{"type":"Feature","properties":{"psgc_code":"051722023","name":"Taban","level":"barangay-label","municipality_psgc_code":"051722000","municipality_name":"Minalabac"},"geometry":{"type":"Point","coordinates":[123.20524618300004,13.551703976000056]}},{"type":"Feature","properties":{"psgc_code":"051722024","name":"Tariric","level":"barangay-label","municipality_psgc_code":"051722000","municipality_name":"Minalabac"},"geometry":{"type":"Point","coordinates":[123.22365068500005,13.569565597000063]}},{"type":"Feature","properties":{"psgc_code":"051722025","name":"Timbang","level":"barangay-label","municipality_psgc_code":"051722000","municipality_name":"Minalabac"},"geometry":{"type":"Point","coordinates":[123.18310106300005,13.526962240500069]}}]}
