{"type":"FeatureCollection","features":[{"type":"Feature","properties":{"psgc_code":"052005001","name":"Biong","level":"barangay-label","municipality_psgc_code":"052005000","municipality_name":"Gigmoto"},"geometry":{"type":"Point","coordinates":[124.34445406000009,13.769581027500038]}},{"type":"Feature","properties":{"psgc_code":"052005002","name":"Dororian","level":"barangay-label","municipality_psgc_code":"052005000","municipality_name":"Gigmoto"},"geometry":{"type":"Point","coordinates":[124.35489195450005,13.749270985000067]}},{"type":"Feature","properties":{"psgc_code":"052005003","name":"Poblacion District I","level":"barangay-label","municipality_psgc_code":"052005000","municipality_name":"Gigmoto"},"geometry":{"type":"Point","coordinates":[124.3933020830001,13.78079038200005]}},{"type":"Feature","properties":{"psgc_code":"052005004","name":"Poblacion District II","level":"barangay-label","municipality_psgc_code":"052005000","municipality_name":"Gigmoto"},"geometry":{"type":"Point","coordinates":[124.38821983750006,13.77858425900007]}},{"type":"Feature","properties":{"psgc_code":"052005005","name":"Poblacion District III","level":"barangay-label","municipality_psgc_code":"052005000","municipality_name":"Gigmoto"},"geometry":{"type":"Point","coordinates":[124.38902307700005,13.773896327500044]}},{"type":"Feature","properties":{"psgc_code":"052005006","name":"San Pedro","level":"barangay-label","municipality_psgc_code":"052005000","municipality_name":"Gigmoto"},"geometry":{"type":"Point","coordinates":[124.33975880550003,13.789469475000061]}},{"type":"Feature","properties":{"psgc_code":"052005007","name":"San Vicente","level":"barangay-label","municipality_psgc_code":"052005000","municipality_name":"Gigmoto"},"geometry":{"type":"Point","coordinates":[124.40440967550006,13.785534225000049]}},{"type":"Feature","properties":{"psgc_code":"052005008","name":"Sicmil","level":"barangay-label","municipality_psgc_code":"052005000","municipality_name":"Gigmoto"},"geometry":{"type":"Point","coordinates":[124.35823763150006,13.82063889200006]}},{"type":"Feature","properties":{"psgc_code":"052005009","name":"Sioron","level":"barangay-label","municipality_psgc_code":"052005000","municipality_name":"Gigmoto"},"geometry":{"type":"Point","coordinates":[124.36306186450003,13.80804832550001]}}]}
