{"type":"FeatureCollection","features":[{"type":"Feature","properties":{"psgc_code":"052004001","name":"Baybay (Pob.)","level":"barangay-label","municipality_psgc_code":"052004000","municipality_name":"Caramoran"},"geometry":{"type":"Point","coordinates":[124.13098337850005,13.981264224000057]}},{"type":"Feature","properties":{"psgc_code":"052004002","name":"Bocon","level":"barangay-label","municipality_psgc_code":"052004000","municipality_name":"Caramoran"},"geometry":{"type":"Point","coordinates":[124.13964603200003,13.870070178000049]}},{"type":"Feature","properties":{"psgc_code":"052004003","name":"Bothoan (Pob.)","level":"barangay-label","municipality_psgc_code":"052004000","municipality_name":"Caramoran"},"geometry":{"type":"Point","coordinates":[124.1415900205,13.984831011000068]}},{"type":"Feature","properties":{"psgc_code":"052004004","name":"Buenavista","level":"barangay-label","municipality_psgc_code":"052004000","municipality_name":"Caramoran"},"geometry":{"type":"Point","coordinates":[124.1976136615001,13.981018762000048]}},{"type":"Feature","properties":{"psgc_code":"052004005","name":"Bulalacao","level":"barangay-label","municipality_psgc_code":"052004000","municipality_name":"Caramoran"},"geometry":{"type":"Point","coordinates":[124.19397573750007,13.787920220000043]}},{"type":"Feature","properties":{"psgc_code":"052004006","name":"Camburo","level":"barangay-label","municipality_psgc_code":"052004000","municipality_name":"Caramoran"},"geometry":{"type":"Point","coordinates":[124.15182766850006,14.000529527000054]}},{"type":"Feature","properties":{"psgc_code":"052004007","name":"Dariao","level":"barangay-label","municipality_psgc_code":"052004000","municipality_name":"Caramoran"},"geometry":{"type":"Point","coordinates":[124.15437382700003,13.961857454000068]}},{"type":"Feature","properties":{"psgc_code":"052004008","name":"Datag East","level":"barangay-label","municipality_psgc_code":"052004000","municipality_name":"Caramoran"},"geometry":{"type":"Point","coordinates":[124.14378025450003,13.882538440000047]}},{"type":"Feature","properties":{"psgc_code":"052004009","name":"Datag West","level":"barangay-label","municipality_psgc_code":"052004000","municipality_name":"Caramoran"},"geometry":{"type":"Point","coordinates":[124.13735628250004,13.881976728500035]}},{"type":"Feature","properties":{"psgc_code":"052004010","name":"Guiamlong","level":"barangay-label","municipality_psgc_code":"052004000","municipality_name":"Caramoran"},"geometry":{"type":"Point","coordinates":[124.1857061495001,13.815245156500055]}},{"type":"Feature","properties":{"psgc_code":"052004011","name":"Hitoma","level":"barangay-label","municipality_psgc_code":"052004000","municipality_name":"Caramoran"},"geometry":{"type":"Point","coordinates":[124.13424336000003,13.782775449500036]}},{"type":"Feature","properties":{"psgc_code":"052004012","name":"Icanbato (Pob.)","level":"barangay-label","municipality_psgc_code":"052004000","municipality_name":"Caramoran"},"geometry":{"type":"Point","coordinates":[124.13475145850005,13.980516881000057]}},{"type":"Feature","properties":{"psgc_code":"052004013","name":"Inalmasinan","level":"barangay-label","municipality_psgc_code":"052004000","municipality_name":"Caramoran"},"geometry":{"type":"Point","coordinates":[124.18947312100005,13.797147068000044]}},{"type":"Feature","properties":{"psgc_code":"052004014","name":"Iyao","level":"barangay-label","municipality_psgc_code":"052004000","municipality_name":"Caramoran"},"geometry":{"type":"Point","coordinates":[124.17953492700008,13.772359108000046]}},{"type":"Feature","properties":{"psgc_code":"052004015","name":"Mabini","level":"barangay-label","municipality_psgc_code":"052004000","municipality_name":"Caramoran"},"geometry":{"type":"Point","coordinates":[124.16579186100006,13.906110697500054]}},{"type":"Feature","properties":{"psgc_code":"052004017","name":"Maui","level":"barangay-label","municipality_psgc_code":"052004000","municipality_name":"Caramoran"},"geometry":{"type":"Point","coordinates":[124.14426315900005,13.897903314500068]}},{"type":"Feature","properties":{"psgc_code":"052004018","name":"Maysuran","level":"barangay-label","municipality_psgc_code":"052004000","municipality_name":"Caramoran"},"geometry":{"type":"Point","coordinates":[124.18742423650008,13.962600779500033]}},{"type":"Feature","properties":{"psgc_code":"052004019","name":"Milaviga","level":"barangay-label","municipality_psgc_code":"052004000","municipality_name":"Caramoran"},"geometry":{"type":"Point","coordinates":[124.19748951750006,13.847299772000044]}},{"type":"Feature","properties":{"psgc_code":"052004020","name":"Panique","level":"barangay-label","municipality_psgc_code":"052004000","municipality_name":"Caramoran"},"geometry":{"type":"Point","coordinates":[124.14562169650004,13.91359553950005]}},{"type":"Feature","properties":{"psgc_code":"052004021","name":"Sabangan","level":"barangay-label","municipality_psgc_code":"052004000","municipality_name":"Caramoran"},"geometry":{"type":"Point","coordinates":[124.19040862800006,13.921908848500038]}},{"type":"Feature","properties":{"psgc_code":"052004022","name":"Sabloyon","level":"barangay-label","municipality_psgc_code":"052004000","municipality_name":"Caramoran"},"geometry":{"type":"Point","coordinates":[124.2016415510001,13.892240783500057]}},{"type":"Feature","properties":{"psgc_code":"052004023","name":"Salvacion","level":"barangay-label","municipality_psgc_code":"052004000","municipality_name":"Caramoran"},"geometry":{"type":"Point","coordinates":[124.19554230800003,13.781307617000067]}},{"type":"Feature","properties":{"psgc_code":"052004024","name":"Supang","level":"barangay-label","municipality_psgc_code":"052004000","municipality_name":"Caramoran"},"geometry":{"type":"Point","coordinates":[124.13135153700007,13.879052864000041]}},{"type":"Feature","properties":{"psgc_code":"052004025","name":"Toytoy (Pob.)","level":"barangay-label","municipality_psgc_code":"052004000","municipality_name":"Caramoran"},"geometry":{"type":"Point","coordinates":[124.07957743500003,14.009152630000045]}},{"type":"Feature","properties":{"psgc_code":"052004026","name":"Tubli","level":"barangay-label","municipality_psgc_code":"052004000","municipality_name":"Caramoran"},"geometry":{"type":"Point","coordinates":[124.18670481700008,13.936348147500041]}},{"type":"Feature","properties":{"psgc_code":"052004027","name":"Tucao","level":"barangay-label","municipality_psgc_code":"052004000","municipality_name":"Caramoran"},"geometry":{"type":"Point","coordinates":[124.15651329600007,13.98928734100005]}},{"type":"Feature","properties":{"psgc_code":"052004028","name":"Obi","level":"barangay-label","municipality_psgc_code":"052004000","municipality_name":"Caramoran"},"geometry":{"type":"Point","coordinates":[124.16760794350006,13.747554336000064]}}]}
