{"type":"FeatureCollection","features":[{"type":"Feature","properties":{"psgc_code":"052001001","name":"Antipolo","level":"barangay-label","municipality_psgc_code":"052001000","municipality_name":"Bagamanoc"},"geometry":{"type":"Point","coordinates":[124.28112268000007,13.935489229500032]}},{"type":"Feature","properties":{"psgc_code":"052001002","name":"Bacak","level":"barangay-label","municipality_psgc_code":"052001000","municipality_name":"Bagamanoc"},"geometry":{"type":"Point","coordinates":[124.28227972650006,13.95516348250004]}},{"type":"Feature","properties":{"psgc_code":"052001003","name":"Bagatabao","level":"barangay-label","municipality_psgc_code":"052001000","municipality_name":"Bagamanoc"},"geometry":{"type":"Point","coordinates":[124.29535622200007,13.941857931000044]}},{"type":"Feature","properties":{"psgc_code":"052001004","name":"Bugao","level":"barangay-label","municipality_psgc_code":"052001000","municipality_name":"Bagamanoc"},"geometry":{"type":"Point","coordinates":[124.27704050500006,13.997037465500057]}},{"type":"Feature","properties":{"psgc_code":"052001005","name":"Cahan","level":"barangay-label","municipality_psgc_code":"052001000","municipality_name":"Bagamanoc"},"geometry":{"type":"Point","coordinates":[124.24676358850002,13.967994532000034]}},{"type":"Feature","properties":{"psgc_code":"052001006","name":"Hinipaan","level":"barangay-label","municipality_psgc_code":"052001000","municipality_name":"Bagamanoc"},"geometry":{"type":"Point","coordinates":[124.27008538450008,13.969595939500039]}},{"type":"Feature","properties":{"psgc_code":"052001007","name":"Magsaysay","level":"barangay-label","municipality_psgc_code":"052001000","municipality_name":"Bagamanoc"},"geometry":{"type":"Point","coordinates":[124.26806045850009,13.98639486700003]}},{"type":"Feature","properties":{"psgc_code":"052001008","name":"Poblacion","level":"barangay-label","municipality_psgc_code":"052001000","municipality_name":"Bagamanoc"},"geometry":{"type":"Point","coordinates":[124.28762123750009,13.941450502500032]}},{"type":"Feature","properties":{"psgc_code":"052001010","name":"Quigaray","level":"barangay-label","municipality_psgc_code":"052001000","municipality_name":"Bagamanoc"},"geometry":{"type":"Point","coordinates":[124.31036819600007,13.966095001000042]}},{"type":"Feature","properties":{"psgc_code":"052001011","name":"Quezon","level":"barangay-label","municipality_psgc_code":"052001000","municipality_name":"Bagamanoc"},"geometry":{"type":"Point","coordinates":[124.27091964950007,13.923190559500057]}},{"type":"Feature","properties":{"psgc_code":"052001012","name":"Sagrada","level":"barangay-label","municipality_psgc_code":"052001000","municipality_name":"Bagamanoc"},"geometry":{"type":"Point","coordinates":[124.23809296950003,14.003026310500076]}},{"type":"Feature","properties":{"psgc_code":"052001013","name":"Salvacion","level":"barangay-label","municipality_psgc_code":"052001000","municipality_name":"Bagamanoc"},"geometry":{"type":"Point","coordinates":[124.25524442950007,13.930566318500041]}},{"type":"Feature","properties":{"psgc_code":"052001014","name":"San Isidro","level":"barangay-label","municipality_psgc_code":"052001000","municipality_name":"Bagamanoc"},"geometry":{"type":"Point","coordinates":[124.26253541050005,14.004317458500054]}},{"type":"Feature","properties":{"psgc_code":"052001015","name":"San Rafael","level":"barangay-label","municipality_psgc_code":"052001000","municipality_name":"Bagamanoc"},"geometry":{"type":"Point","coordinates":[124.28049126200006,13.943809231500069]}},{"type":"Feature","properties":{"psgc_code":"052001016","name":"San Vicente","level":"barangay-label","municipality_psgc_code":"052001000","municipality_name":"Bagamanoc"},"geometry":{"type":"Point","coordinates":[124.24904373200003,14.004112939500033]}},{"type":"Feature","properties":{"psgc_code":"052001017","name":"Santa Mesa","level":"barangay-label","municipality_psgc_code":"052001000","municipality_name":"Bagamanoc"},"geometry":{"type":"Point","coordinates":[124.29547576450007,13.940086890500055]}},{"type":"Feature","properties":{"psgc_code":"052001018","name":"Santa Teresa","level":"barangay-label","municipality_psgc_code":"052001000","municipality_name":"Bagamanoc"},"geometry":{"type":"Point","coordinates":[124.28499691100006,13.935344173000061]}},{"type":"Feature","properties":{"psgc_code":"052001019","name":"Suchan","level":"barangay-label","municipality_psgc_code":"052001000","municipality_name":"Bagamanoc"},"geometry":{"type":"Point","coordinates":[124.33206509000007,13.967534908500028]}}]}
