{"type":"FeatureCollection","features":[{"type":"Feature","properties":{"psgc_code":"052008001","name":"Agojo","level":"barangay-label","municipality_psgc_code":"052008000","municipality_name":"San Andres"},"geometry":{"type":"Point","coordinates":[124.05867463600003,13.603810846000044]}},{"type":"Feature","properties":{"psgc_code":"052008002","name":"Alibuag","level":"barangay-label","municipality_psgc_code":"052008000","municipality_name":"San Andres"},"geometry":{"type":"Point","coordinates":[124.08077520350008,13.60574115800003]}},{"type":"Feature","properties":{"psgc_code":"052008003","name":"Asgad","level":"barangay-label","municipality_psgc_code":"052008000","municipality_name":"San Andres"},"geometry":{"type":"Point","coordinates":[124.04950213450007,13.67386755150002]}},{"type":"Feature","properties":{"psgc_code":"052008004","name":"Bagong Sirang","level":"barangay-label","municipality_psgc_code":"052008000","municipality_name":"San Andres"},"geometry":{"type":"Point","coordinates":[124.06339682600009,13.635526156000054]}},{"type":"Feature","properties":{"psgc_code":"052008005","name":"Barihay","level":"barangay-label","municipality_psgc_code":"052008000","municipality_name":"San Andres"},"geometry":{"type":"Point","coordinates":[124.1336550370001,13.691225674000036]}},{"type":"Feature","properties":{"psgc_code":"052008006","name":"Batong Paloway","level":"barangay-label","municipality_psgc_code":"052008000","municipality_name":"San Andres"},"geometry":{"type":"Point","coordinates":[124.09125704100008,13.614844034500067]}},{"type":"Feature","properties":{"psgc_code":"052008007","name":"Belmonte (Pob.)","level":"barangay-label","municipality_psgc_code":"052008000","municipality_name":"San Andres"},"geometry":{"type":"Point","coordinates":[124.10501740100011,13.598894364000044]}},{"type":"Feature","properties":{"psgc_code":"052008008","name":"Bislig","level":"barangay-label","municipality_psgc_code":"052008000","municipality_name":"San Andres"},"geometry":{"type":"Point","coordinates":[124.04524809250006,13.643396946500047]}},{"type":"Feature","properties":{"psgc_code":"052008009","name":"Bon-ot","level":"barangay-label","municipality_psgc_code":"052008000","municipality_name":"San Andres"},"geometry":{"type":"Point","coordinates":[124.11303503700003,13.592196914000056]}},{"type":"Feature","properties":{"psgc_code":"052008010","name":"Cabungahan","level":"barangay-label","municipality_psgc_code":"052008000","municipality_name":"San Andres"},"geometry":{"type":"Point","coordinates":[124.14078269950005,13.730966830500051]}},{"type":"Feature","properties":{"psgc_code":"052008011","name":"Cabcab","level":"barangay-label","municipality_psgc_code":"052008000","municipality_name":"San Andres"},"geometry":{"type":"Point","coordinates":[124.05579743950007,13.637322422000036]}},{"type":"Feature","properties":{"psgc_code":"052008012","name":"Carangag","level":"barangay-label","municipality_psgc_code":"052008000","municipality_name":"San Andres"},"geometry":{"type":"Point","coordinates":[124.11481407350004,13.630147364500061]}},{"type":"Feature","properties":{"psgc_code":"052008013","name":"Catagbacan","level":"barangay-label","municipality_psgc_code":"052008000","municipality_name":"San Andres"},"geometry":{"type":"Point","coordinates":[124.06659082100003,13.624374172500069]}},{"type":"Feature","properties":{"psgc_code":"052008014","name":"Codon","level":"barangay-label","municipality_psgc_code":"052008000","municipality_name":"San Andres"},"geometry":{"type":"Point","coordinates":[124.04653590550004,13.659517858500038]}},{"type":"Feature","properties":{"psgc_code":"052008015","name":"Comagaycay","level":"barangay-label","municipality_psgc_code":"052008000","municipality_name":"San Andres"},"geometry":{"type":"Point","coordinates":[124.08781848000007,13.602988796000034]}},{"type":"Feature","properties":{"psgc_code":"052008016","name":"Datag","level":"barangay-label","municipality_psgc_code":"052008000","municipality_name":"San Andres"},"geometry":{"type":"Point","coordinates":[124.07495010000008,13.61862614100005]}},{"type":"Feature","properties":{"psgc_code":"052008017","name":"Divino Rostro (Pob.)","level":"barangay-label","municipality_psgc_code":"052008000","municipality_name":"San Andres"},"geometry":{"type":"Point","coordinates":[124.09476978150002,13.599841914500047]}},{"type":"Feature","properties":{"psgc_code":"052008018","name":"Esperanza (Pob.)","level":"barangay-label","municipality_psgc_code":"052008000","municipality_name":"San Andres"},"geometry":{"type":"Point","coordinates":[124.09837767900008,13.595411808000051]}},{"type":"Feature","properties":{"psgc_code":"052008019","name":"Hilawan","level":"barangay-label","municipality_psgc_code":"052008000","municipality_name":"San Andres"},"geometry":{"type":"Point","coordinates":[124.13422832700007,13.70014510200005]}},{"type":"Feature","properties":{"psgc_code":"052008020","name":"Lictin","level":"barangay-label","municipality_psgc_code":"052008000","municipality_name":"San Andres"},"geometry":{"type":"Point","coordinates":[124.13337989200005,13.623777221500033]}},{"type":"Feature","properties":{"psgc_code":"052008021","name":"Lubas","level":"barangay-label","municipality_psgc_code":"052008000","municipality_name":"San Andres"},"geometry":{"type":"Point","coordinates":[124.13386030600003,13.764720496000052]}},{"type":"Feature","properties":{"psgc_code":"052008022","name":"Manambrag","level":"barangay-label","municipality_psgc_code":"052008000","municipality_name":"San Andres"},"geometry":{"type":"Point","coordinates":[124.13489764150006,13.720459581000057]}},{"type":"Feature","properties":{"psgc_code":"052008023","name":"Mayngaway","level":"barangay-label","municipality_psgc_code":"052008000","municipality_name":"San Andres"},"geometry":{"type":"Point","coordinates":[124.06247161700003,13.683568350000026]}},{"type":"Feature","properties":{"psgc_code":"052008024","name":"Palawig","level":"barangay-label","municipality_psgc_code":"052008000","municipality_name":"San Andres"},"geometry":{"type":"Point","coordinates":[124.14370570700005,13.574273241500064]}},{"type":"Feature","properties":{"psgc_code":"052008025","name":"Puting Baybay","level":"barangay-label","municipality_psgc_code":"052008000","municipality_name":"San Andres"},"geometry":{"type":"Point","coordinates":[124.07409947650007,13.692162422000052]}},{"type":"Feature","properties":{"psgc_code":"052008026","name":"Rizal","level":"barangay-label","municipality_psgc_code":"052008000","municipality_name":"San Andres"},"geometry":{"type":"Point","coordinates":[124.14364440350006,13.610557211000069]}},{"type":"Feature","properties":{"psgc_code":"052008027","name":"Salvacion (Pob.)","level":"barangay-label","municipality_psgc_code":"052008000","municipality_name":"San Andres"},"geometry":{"type":"Point","coordinates":[124.09839652400007,13.598727552500065]}},{"type":"Feature","properties":{"psgc_code":"052008028","name":"San Isidro","level":"barangay-label","municipality_psgc_code":"052008000","municipality_name":"San Andres"},"geometry":{"type":"Point","coordinates":[124.10135047000007,13.674858632500047]}},{"type":"Feature","properties":{"psgc_code":"052008029","name":"San Jose","level":"barangay-label","municipality_psgc_code":"052008000","municipality_name":"San Andres"},"geometry":{"type":"Point","coordinates":[124.14927916500007,13.591400819500052]}},{"type":"Feature","properties":{"psgc_code":"052008030","name":"San Roque (Pob.)","level":"barangay-label","municipality_psgc_code":"052008000","municipality_name":"San Andres"},"geometry":{"type":"Point","coordinates":[124.0985330855001,13.59669254000005]}},{"type":"Feature","properties":{"psgc_code":"052008031","name":"San Vicente","level":"barangay-label","municipality_psgc_code":"052008000","municipality_name":"San Andres"},"geometry":{"type":"Point","coordinates":[124.09526923600004,13.642973953500045]}},{"type":"Feature","properties":{"psgc_code":"052008032","name":"Santa Cruz (Pob.)","level":"barangay-label","municipality_psgc_code":"052008000","municipality_name":"San Andres"},"geometry":{"type":"Point","coordinates":[124.09869371950009,13.597267989500038]}},{"type":"Feature","properties":{"psgc_code":"052008033","name":"Sapang Palay (Pob.)","level":"barangay-label","municipality_psgc_code":"052008000","municipality_name":"San Andres"},"geometry":{"type":"Point","coordinates":[124.09936610100004,13.600398677000044]}},{"type":"Feature","properties":{"psgc_code":"052008034","name":"Tibang","level":"barangay-label","municipality_psgc_code":"052008000","municipality_name":"San Andres"},"geometry":{"type":"Point","coordinates":[124.12567680650005,13.686847347500048]}},{"type":"Feature","properties":{"psgc_code":"052008035","name":"Timbaan","level":"barangay-label","municipality_psgc_code":"052008000","municipality_name":"San Andres"},"geometry":{"type":"Point","coordinates":[124.12763799350006,13.627115897500031]}},{"type":"Feature","properties":{"psgc_code":"052008036","name":"Tominawog","level":"barangay-label","municipality_psgc_code":"052008000","municipality_name":"San Andres"},"geometry":{"type":"Point","coordinates":[124.07059845300006,13.608447102500037]}},{"type":"Feature","properties":{"psgc_code":"052008037","name":"Wagdas (Pob.)","level":"barangay-label","municipality_psgc_code":"052008000","municipality_name":"San Andres"},"geometry":{"type":"Point","coordinates":[124.10472460250008,13.594859726000035]}},{"type":"Feature","properties":{"psgc_code":"052008038","name":"Yocti","level":"barangay-label","municipality_psgc_code":"052008000","municipality_name":"San Andres"},"geometry":{"type":"Point","coordinates":[124.1313693955001,13.588001994000052]}}]}
