{"type":"FeatureCollection","features":[{"type":"Feature","properties":{"psgc_code":"052010001","name":"Almojuela","level":"barangay-label","municipality_psgc_code":"052010000","municipality_name":"Viga"},"geometry":{"type":"Point","coordinates":[124.2370022395001,13.847299772000044]}},{"type":"Feature","properties":{"psgc_code":"052010002","name":"Ananong","level":"barangay-label","municipality_psgc_code":"052010000","municipality_name":"Viga"},"geometry":{"type":"Point","coordinates":[124.3378390795001,13.854199117000064]}},{"type":"Feature","properties":{"psgc_code":"052010003","name":"Asuncion (Pob.)","level":"barangay-label","municipality_psgc_code":"052010000","municipality_name":"Viga"},"geometry":{"type":"Point","coordinates":[124.3070500280001,13.872086557500069]}},{"type":"Feature","properties":{"psgc_code":"052010004","name":"Batohonan","level":"barangay-label","municipality_psgc_code":"052010000","municipality_name":"Viga"},"geometry":{"type":"Point","coordinates":[124.35176350450007,13.905102767000045]}},{"type":"Feature","properties":{"psgc_code":"052010005","name":"Begonia","level":"barangay-label","municipality_psgc_code":"052010000","municipality_name":"Viga"},"geometry":{"type":"Point","coordinates":[124.34604327500006,13.891537280500073]}},{"type":"Feature","properties":{"psgc_code":"052010006","name":"Botinagan","level":"barangay-label","municipality_psgc_code":"052010000","municipality_name":"Viga"},"geometry":{"type":"Point","coordinates":[124.40276943950005,13.881590935500038]}},{"type":"Feature","properties":{"psgc_code":"052010007","name":"Buenavista","level":"barangay-label","municipality_psgc_code":"052010000","municipality_name":"Viga"},"geometry":{"type":"Point","coordinates":[124.37501294900005,13.883179564000045]}},{"type":"Feature","properties":{"psgc_code":"052010008","name":"Burgos","level":"barangay-label","municipality_psgc_code":"052010000","municipality_name":"Viga"},"geometry":{"type":"Point","coordinates":[124.27098330350009,13.858801088500027]}},{"type":"Feature","properties":{"psgc_code":"052010009","name":"Del Pilar","level":"barangay-label","municipality_psgc_code":"052010000","municipality_name":"Viga"},"geometry":{"type":"Point","coordinates":[124.29389891900001,13.861282732000063]}},{"type":"Feature","properties":{"psgc_code":"052010010","name":"Mabini","level":"barangay-label","municipality_psgc_code":"052010000","municipality_name":"Viga"},"geometry":{"type":"Point","coordinates":[124.34696457100006,13.829795789000059]}},{"type":"Feature","properties":{"psgc_code":"052010011","name":"Magsaysay","level":"barangay-label","municipality_psgc_code":"052010000","municipality_name":"Viga"},"geometry":{"type":"Point","coordinates":[124.35028687950012,13.865742792000047]}},{"type":"Feature","properties":{"psgc_code":"052010012","name":"Ogbong","level":"barangay-label","municipality_psgc_code":"052010000","municipality_name":"Viga"},"geometry":{"type":"Point","coordinates":[124.3293732730001,13.880866721000043]}},{"type":"Feature","properties":{"psgc_code":"052010013","name":"Osme\u00f1a","level":"barangay-label","municipality_psgc_code":"052010000","municipality_name":"Viga"},"geometry":{"type":"Point","coordinates":[124.29219387750004,13.849413482000049]}},{"type":"Feature","properties":{"psgc_code":"052010014","name":"Pedro Vera","level":"barangay-label","municipality_psgc_code":"052010000","municipality_name":"Viga"},"geometry":{"type":"Point","coordinates":[124.26318921400002,13.803302355500051]}},{"type":"Feature","properties":{"psgc_code":"052010015","name":"Pe\u00f1afrancia (Pob.)","level":"barangay-label","municipality_psgc_code":"052010000","municipality_name":"Viga"},"geometry":{"type":"Point","coordinates":[124.31196854800004,13.88600389550007]}},{"type":"Feature","properties":{"psgc_code":"052010016","name":"Quezon","level":"barangay-label","municipality_psgc_code":"052010000","municipality_name":"Viga"},"geometry":{"type":"Point","coordinates":[124.2795380230001,13.865752491000052]}},{"type":"Feature","properties":{"psgc_code":"052010017","name":"Quirino","level":"barangay-label","municipality_psgc_code":"052010000","municipality_name":"Viga"},"geometry":{"type":"Point","coordinates":[124.36340541750008,13.870637845000033]}},{"type":"Feature","properties":{"psgc_code":"052010018","name":"Rizal","level":"barangay-label","municipality_psgc_code":"052010000","municipality_name":"Viga"},"geometry":{"type":"Point","coordinates":[124.30438607900003,13.84661461500005]}},{"type":"Feature","properties":{"psgc_code":"052010019","name":"Roxas","level":"barangay-label","municipality_psgc_code":"052010000","municipality_name":"Viga"},"geometry":{"type":"Point","coordinates":[124.28925198550007,13.84340889300003]}},{"type":"Feature","properties":{"psgc_code":"052010020","name":"Sagrada","level":"barangay-label","municipality_psgc_code":"052010000","municipality_name":"Viga"},"geometry":{"type":"Point","coordinates":[124.26206475350006,13.831960090000052]}},{"type":"Feature","properties":{"psgc_code":"052010021","name":"San Isidro (Pob.)","level":"barangay-label","municipality_psgc_code":"052010000","municipality_name":"Viga"},"geometry":{"type":"Point","coordinates":[124.30469064600004,13.865683729500063]}},{"type":"Feature","properties":{"psgc_code":"052010022","name":"San Jose Poblacion","level":"barangay-label","municipality_psgc_code":"052010000","municipality_name":"Viga"},"geometry":{"type":"Point","coordinates":[124.30815943400006,13.87485628750005]}},{"type":"Feature","properties":{"psgc_code":"052010023","name":"San Jose Oco","level":"barangay-label","municipality_psgc_code":"052010000","municipality_name":"Viga"},"geometry":{"type":"Point","coordinates":[124.28376841950005,13.853759599500053]}},{"type":"Feature","properties":{"psgc_code":"052010024","name":"San Pedro (Pob.)","level":"barangay-label","municipality_psgc_code":"052010000","municipality_name":"Viga"},"geometry":{"type":"Point","coordinates":[124.31411075800003,13.874530509000039]}},{"type":"Feature","properties":{"psgc_code":"052010025","name":"San Roque (Pob.)","level":"barangay-label","municipality_psgc_code":"052010000","municipality_name":"Viga"},"geometry":{"type":"Point","coordinates":[124.29615748950005,13.878814132500054]}},{"type":"Feature","properties":{"psgc_code":"052010026","name":"San Vicente (Pob.)","level":"barangay-label","municipality_psgc_code":"052010000","municipality_name":"Viga"},"geometry":{"type":"Point","coordinates":[124.31301341950007,13.85543193150005]}},{"type":"Feature","properties":{"psgc_code":"052010027","name":"Santa Rosa","level":"barangay-label","municipality_psgc_code":"052010000","municipality_name":"Viga"},"geometry":{"type":"Point","coordinates":[124.32282794700006,13.861259081500062]}},{"type":"Feature","properties":{"psgc_code":"052010028","name":"Soboc","level":"barangay-label","municipality_psgc_code":"052010000","municipality_name":"Viga"},"geometry":{"type":"Point","coordinates":[124.37873212300002,13.870109031000027]}},{"type":"Feature","properties":{"psgc_code":"052010029","name":"Tambongon","level":"barangay-label","municipality_psgc_code":"052010000","municipality_name":"Viga"},"geometry":{"type":"Point","coordinates":[124.36456264950004,13.893439474000047]}},{"type":"Feature","properties":{"psgc_code":"052010030","name":"Tinago","level":"barangay-label","municipality_psgc_code":"052010000","municipality_name":"Viga"},"geometry":{"type":"Point","coordinates":[124.40354717750006,13.858217640500044]}},{"type":"Feature","properties":{"psgc_code":"052010031","name":"Villa Aurora","level":"barangay-label","municipality_psgc_code":"052010000","municipality_name":"Viga"},"geometry":{"type":"Point","coordinates":[124.39981925000006,13.851125103500038]}}]}
