{"type":"FeatureCollection","features":[{"type":"Feature","properties":{"psgc_code":"052009001","name":"Balatohan","level":"barangay-label","municipality_psgc_code":"052009000","municipality_name":"San Miguel"},"geometry":{"type":"Point","coordinates":[124.29805213150007,13.72485307650004]}},{"type":"Feature","properties":{"psgc_code":"052009002","name":"Salvacion","level":"barangay-label","municipality_psgc_code":"052009000","municipality_name":"San Miguel"},"geometry":{"type":"Point","coordinates":[124.32673800150008,13.67111666800005]}},{"type":"Feature","properties":{"psgc_code":"052009003","name":"Boton","level":"barangay-label","municipality_psgc_code":"052009000","municipality_name":"San Miguel"},"geometry":{"type":"Point","coordinates":[124.30820155750001,13.650694869000063]}},{"type":"Feature","properties":{"psgc_code":"052009004","name":"Buhi","level":"barangay-label","municipality_psgc_code":"052009000","municipality_name":"San Miguel"},"geometry":{"type":"Point","coordinates":[124.24297009850005,13.673519617000037]}},{"type":"Feature","properties":{"psgc_code":"052009005","name":"Dayawa","level":"barangay-label","municipality_psgc_code":"052009000","municipality_name":"San Miguel"},"geometry":{"type":"Point","coordinates":[124.3240329090001,13.687962794000043]}},{"type":"Feature","properties":{"psgc_code":"052009006","name":"Atsan","level":"barangay-label","municipality_psgc_code":"052009000","municipality_name":"San Miguel"},"geometry":{"type":"Point","coordinates":[124.28288654500005,13.636158585000059]}},{"type":"Feature","properties":{"psgc_code":"052009007","name":"Poblacion District II","level":"barangay-label","municipality_psgc_code":"052009000","municipality_name":"San Miguel"},"geometry":{"type":"Point","coordinates":[124.27555656000004,13.637696756500047]}},{"type":"Feature","properties":{"psgc_code":"052009008","name":"Poblacion District III","level":"barangay-label","municipality_psgc_code":"052009000","municipality_name":"San Miguel"},"geometry":{"type":"Point","coordinates":[124.26754370800006,13.643429453500062]}},{"type":"Feature","properties":{"psgc_code":"052009009","name":"J. M. Alberto","level":"barangay-label","municipality_psgc_code":"052009000","municipality_name":"San Miguel"},"geometry":{"type":"Point","coordinates":[124.2107946615,13.739447281000054]}},{"type":"Feature","properties":{"psgc_code":"052009010","name":"Katipunan","level":"barangay-label","municipality_psgc_code":"052009000","municipality_name":"San Miguel"},"geometry":{"type":"Point","coordinates":[124.25179659100007,13.659759064000042]}},{"type":"Feature","properties":{"psgc_code":"052009011","name":"Kilikilihan","level":"barangay-label","municipality_psgc_code":"052009000","municipality_name":"San Miguel"},"geometry":{"type":"Point","coordinates":[124.26612542150008,13.70451739300006]}},{"type":"Feature","properties":{"psgc_code":"052009012","name":"Mabato","level":"barangay-label","municipality_psgc_code":"052009000","municipality_name":"San Miguel"},"geometry":{"type":"Point","coordinates":[124.28100557650004,13.688889633500052]}},{"type":"Feature","properties":{"psgc_code":"052009013","name":"Obo","level":"barangay-label","municipality_psgc_code":"052009000","municipality_name":"San Miguel"},"geometry":{"type":"Point","coordinates":[124.3240329090001,13.677384892500072]}},{"type":"Feature","properties":{"psgc_code":"052009014","name":"Pacogon","level":"barangay-label","municipality_psgc_code":"052009000","municipality_name":"San Miguel"},"geometry":{"type":"Point","coordinates":[124.31283784950011,13.70486744550007]}},{"type":"Feature","properties":{"psgc_code":"052009015","name":"Pagsangahan","level":"barangay-label","municipality_psgc_code":"052009000","municipality_name":"San Miguel"},"geometry":{"type":"Point","coordinates":[124.29103682100009,13.732123753000053]}},{"type":"Feature","properties":{"psgc_code":"052009016","name":"Pangilao","level":"barangay-label","municipality_psgc_code":"052009000","municipality_name":"San Miguel"},"geometry":{"type":"Point","coordinates":[124.24654409800002,13.667389097500033]}},{"type":"Feature","properties":{"psgc_code":"052009017","name":"Paraiso","level":"barangay-label","municipality_psgc_code":"052009000","municipality_name":"San Miguel"},"geometry":{"type":"Point","coordinates":[124.28644778900008,13.74728916650005]}},{"type":"Feature","properties":{"psgc_code":"052009018","name":"Santa Elena","level":"barangay-label","municipality_psgc_code":"052009000","municipality_name":"San Miguel"},"geometry":{"type":"Point","coordinates":[124.32535386500007,13.654918364000055]}},{"type":"Feature","properties":{"psgc_code":"052009019","name":"Progreso","level":"barangay-label","municipality_psgc_code":"052009000","municipality_name":"San Miguel"},"geometry":{"type":"Point","coordinates":[124.26469356100006,13.774204096500057]}},{"type":"Feature","properties":{"psgc_code":"052009020","name":"San Juan","level":"barangay-label","municipality_psgc_code":"052009000","municipality_name":"San Miguel"},"geometry":{"type":"Point","coordinates":[124.31891977750007,13.640975720000057]}},{"type":"Feature","properties":{"psgc_code":"052009021","name":"San Marcos","level":"barangay-label","municipality_psgc_code":"052009000","municipality_name":"San Miguel"},"geometry":{"type":"Point","coordinates":[124.21859703450001,13.698781033000046]}},{"type":"Feature","properties":{"psgc_code":"052009022","name":"Siay","level":"barangay-label","municipality_psgc_code":"052009000","municipality_name":"San Miguel"},"geometry":{"type":"Point","coordinates":[124.3125613465001,13.691065627000029]}},{"type":"Feature","properties":{"psgc_code":"052009023","name":"Solong","level":"barangay-label","municipality_psgc_code":"052009000","municipality_name":"San Miguel"},"geometry":{"type":"Point","coordinates":[124.25054168950004,13.649194681500063]}},{"type":"Feature","properties":{"psgc_code":"052009024","name":"Tobrehon","level":"barangay-label","municipality_psgc_code":"052009000","municipality_name":"San Miguel"},"geometry":{"type":"Point","coordinates":[124.25519379200006,13.726823249000063]}}]}
