{"type":"FeatureCollection","features":[{"type":"Feature","properties":{"psgc_code":"052003001","name":"Aroyao Peque\u00f1o","level":"barangay-label","municipality_psgc_code":"052003000","municipality_name":"Bato"},"geometry":{"type":"Point","coordinates":[124.30977216850005,13.627766938500056]}},{"type":"Feature","properties":{"psgc_code":"052003002","name":"Bagumbayan","level":"barangay-label","municipality_psgc_code":"052003000","municipality_name":"Bato"},"geometry":{"type":"Point","coordinates":[124.32059879000008,13.62389359900004]}},{"type":"Feature","properties":{"psgc_code":"052003003","name":"Banawang","level":"barangay-label","municipality_psgc_code":"052003000","municipality_name":"Bato"},"geometry":{"type":"Point","coordinates":[124.29471467650006,13.598781293000057]}},{"type":"Feature","properties":{"psgc_code":"052003004","name":"Batalay","level":"barangay-label","municipality_psgc_code":"052003000","municipality_name":"Bato"},"geometry":{"type":"Point","coordinates":[124.31228241300005,13.59001859800003]}},{"type":"Feature","properties":{"psgc_code":"052003005","name":"Binanuahan","level":"barangay-label","municipality_psgc_code":"052003000","municipality_name":"Bato"},"geometry":{"type":"Point","coordinates":[124.27265996050005,13.614610646500036]}},{"type":"Feature","properties":{"psgc_code":"052003006","name":"Bote","level":"barangay-label","municipality_psgc_code":"052003000","municipality_name":"Bato"},"geometry":{"type":"Point","coordinates":[124.3327127180001,13.560080282000028]}},{"type":"Feature","properties":{"psgc_code":"052003007","name":"Buenavista","level":"barangay-label","municipality_psgc_code":"052003000","municipality_name":"Bato"},"geometry":{"type":"Point","coordinates":[124.32919650100007,13.626354873500048]}},{"type":"Feature","properties":{"psgc_code":"052003008","name":"Cabugao","level":"barangay-label","municipality_psgc_code":"052003000","municipality_name":"Bato"},"geometry":{"type":"Point","coordinates":[124.28122298600005,13.598213593500047]}},{"type":"Feature","properties":{"psgc_code":"052003009","name":"Cagraray","level":"barangay-label","municipality_psgc_code":"052003000","municipality_name":"Bato"},"geometry":{"type":"Point","coordinates":[124.34019325100007,13.61577633050004]}},{"type":"Feature","properties":{"psgc_code":"052003010","name":"Carorian","level":"barangay-label","municipality_psgc_code":"052003000","municipality_name":"Bato"},"geometry":{"type":"Point","coordinates":[124.33499185650004,13.586141839500042]}},{"type":"Feature","properties":{"psgc_code":"052003011","name":"Guinobatan","level":"barangay-label","municipality_psgc_code":"052003000","municipality_name":"Bato"},"geometry":{"type":"Point","coordinates":[124.28539304200007,13.60541659550006]}},{"type":"Feature","properties":{"psgc_code":"052003012","name":"Libjo","level":"barangay-label","municipality_psgc_code":"052003000","municipality_name":"Bato"},"geometry":{"type":"Point","coordinates":[124.31501384150005,13.616208667000022]}},{"type":"Feature","properties":{"psgc_code":"052003013","name":"Marinawa","level":"barangay-label","municipality_psgc_code":"052003000","municipality_name":"Bato"},"geometry":{"type":"Point","coordinates":[124.26616073650007,13.61397902900006]}},{"type":"Feature","properties":{"psgc_code":"052003014","name":"Mintay","level":"barangay-label","municipality_psgc_code":"052003000","municipality_name":"Bato"},"geometry":{"type":"Point","coordinates":[124.3104148325001,13.615608086500032]}},{"type":"Feature","properties":{"psgc_code":"052003015","name":"Oguis","level":"barangay-label","municipality_psgc_code":"052003000","municipality_name":"Bato"},"geometry":{"type":"Point","coordinates":[124.30176786950005,13.62369430700005]}},{"type":"Feature","properties":{"psgc_code":"052003016","name":"Pananaogan","level":"barangay-label","municipality_psgc_code":"052003000","municipality_name":"Bato"},"geometry":{"type":"Point","coordinates":[124.31913910700001,13.565633110500073]}},{"type":"Feature","properties":{"psgc_code":"052003017","name":"Libod Poblacion","level":"barangay-label","municipality_psgc_code":"052003000","municipality_name":"Bato"},"geometry":{"type":"Point","coordinates":[124.2980032910001,13.609197139000027]}},{"type":"Feature","properties":{"psgc_code":"052003018","name":"San Andres","level":"barangay-label","municipality_psgc_code":"052003000","municipality_name":"Bato"},"geometry":{"type":"Point","coordinates":[124.28283122250006,13.60096615450004]}},{"type":"Feature","properties":{"psgc_code":"052003019","name":"San Pedro","level":"barangay-label","municipality_psgc_code":"052003000","municipality_name":"Bato"},"geometry":{"type":"Point","coordinates":[124.32469104200004,13.609137819000038]}},{"type":"Feature","properties":{"psgc_code":"052003020","name":"San Roque","level":"barangay-label","municipality_psgc_code":"052003000","municipality_name":"Bato"},"geometry":{"type":"Point","coordinates":[124.32260700400002,13.601314174500033]}},{"type":"Feature","properties":{"psgc_code":"052003021","name":"Santa Isabel","level":"barangay-label","municipality_psgc_code":"052003000","municipality_name":"Bato"},"geometry":{"type":"Point","coordinates":[124.32513224750005,13.615243232000036]}},{"type":"Feature","properties":{"psgc_code":"052003022","name":"Sibacungan","level":"barangay-label","municipality_psgc_code":"052003000","municipality_name":"Bato"},"geometry":{"type":"Point","coordinates":[124.29055696950007,13.626639454000042]}},{"type":"Feature","properties":{"psgc_code":"052003023","name":"Sipi","level":"barangay-label","municipality_psgc_code":"052003000","municipality_name":"Bato"},"geometry":{"type":"Point","coordinates":[124.28666421800004,13.613083191000044]}},{"type":"Feature","properties":{"psgc_code":"052003024","name":"Talisay","level":"barangay-label","municipality_psgc_code":"052003000","municipality_name":"Bato"},"geometry":{"type":"Point","coordinates":[124.31149847300003,13.605186979000027]}},{"type":"Feature","properties":{"psgc_code":"052003025","name":"Tamburan","level":"barangay-label","municipality_psgc_code":"052003000","municipality_name":"Bato"},"geometry":{"type":"Point","coordinates":[124.30559080850003,13.605059490500025]}},{"type":"Feature","properties":{"psgc_code":"052003026","name":"Tilis","level":"barangay-label","municipality_psgc_code":"052003000","municipality_name":"Bato"},"geometry":{"type":"Point","coordinates":[124.30074632200007,13.61517128400004]}},{"type":"Feature","properties":{"psgc_code":"052003027","name":"Ilawod (Pob.)","level":"barangay-label","municipality_psgc_code":"052003000","municipality_name":"Bato"},"geometry":{"type":"Point","coordinates":[124.29769758400005,13.605923859500052]}}]}
