{"type":"FeatureCollection","features":[{"type":"Feature","properties":{"psgc_code":"052002001","name":"Abihao","level":"barangay-label","municipality_psgc_code":"052002000","municipality_name":"Baras"},"geometry":{"type":"Point","coordinates":[124.39502536650002,13.662744825500027]}},{"type":"Feature","properties":{"psgc_code":"052002002","name":"Agban","level":"barangay-label","municipality_psgc_code":"052002000","municipality_name":"Baras"},"geometry":{"type":"Point","coordinates":[124.36528428150005,13.716932180500038]}},{"type":"Feature","properties":{"psgc_code":"052002003","name":"Bagong Sirang","level":"barangay-label","municipality_psgc_code":"052002000","municipality_name":"Baras"},"geometry":{"type":"Point","coordinates":[124.37426460700004,13.663110246500025]}},{"type":"Feature","properties":{"psgc_code":"052002004","name":"Benticayan","level":"barangay-label","municipality_psgc_code":"052002000","municipality_name":"Baras"},"geometry":{"type":"Point","coordinates":[124.36699004650006,13.695457889000068]}},{"type":"Feature","properties":{"psgc_code":"052002005","name":"Buenavista","level":"barangay-label","municipality_psgc_code":"052002000","municipality_name":"Baras"},"geometry":{"type":"Point","coordinates":[124.36647288200004,13.65887159750005]}},{"type":"Feature","properties":{"psgc_code":"052002006","name":"Caragumihan","level":"barangay-label","municipality_psgc_code":"052002000","municipality_name":"Baras"},"geometry":{"type":"Point","coordinates":[124.35703137500003,13.673499008000048]}},{"type":"Feature","properties":{"psgc_code":"052002007","name":"Batolinao","level":"barangay-label","municipality_psgc_code":"052002000","municipality_name":"Baras"},"geometry":{"type":"Point","coordinates":[124.34010288250009,13.637448901000056]}},{"type":"Feature","properties":{"psgc_code":"052002008","name":"Danao","level":"barangay-label","municipality_psgc_code":"052002000","municipality_name":"Baras"},"geometry":{"type":"Point","coordinates":[124.38320539950007,13.649815021500045]}},{"type":"Feature","properties":{"psgc_code":"052002009","name":"Sagrada","level":"barangay-label","municipality_psgc_code":"052002000","municipality_name":"Baras"},"geometry":{"type":"Point","coordinates":[124.35075329350008,13.663146023000053]}},{"type":"Feature","properties":{"psgc_code":"052002010","name":"Ginitligan","level":"barangay-label","municipality_psgc_code":"052002000","municipality_name":"Baras"},"geometry":{"type":"Point","coordinates":[124.35800595150005,13.735657906000057]}},{"type":"Feature","properties":{"psgc_code":"052002011","name":"Guinsaanan","level":"barangay-label","municipality_psgc_code":"052002000","municipality_name":"Baras"},"geometry":{"type":"Point","coordinates":[124.40187828650005,13.668063021000048]}},{"type":"Feature","properties":{"psgc_code":"052002012","name":"J. M. Alberto","level":"barangay-label","municipality_psgc_code":"052002000","municipality_name":"Baras"},"geometry":{"type":"Point","coordinates":[124.35940048900011,13.70350765650005]}},{"type":"Feature","properties":{"psgc_code":"052002013","name":"Macutal","level":"barangay-label","municipality_psgc_code":"052002000","municipality_name":"Baras"},"geometry":{"type":"Point","coordinates":[124.35533653950006,13.680802826500072]}},{"type":"Feature","properties":{"psgc_code":"052002014","name":"Moning","level":"barangay-label","municipality_psgc_code":"052002000","municipality_name":"Baras"},"geometry":{"type":"Point","coordinates":[124.35787339450007,13.655470880500076]}},{"type":"Feature","properties":{"psgc_code":"052002015","name":"Nagbarorong","level":"barangay-label","municipality_psgc_code":"052002000","municipality_name":"Baras"},"geometry":{"type":"Point","coordinates":[124.35389756400001,13.66734903650004]}},{"type":"Feature","properties":{"psgc_code":"052002016","name":"Osme\u00f1a","level":"barangay-label","municipality_psgc_code":"052002000","municipality_name":"Baras"},"geometry":{"type":"Point","coordinates":[124.35357617950007,13.66548939550006]}},{"type":"Feature","properties":{"psgc_code":"052002017","name":"P. Teston","level":"barangay-label","municipality_psgc_code":"052002000","municipality_name":"Baras"},"geometry":{"type":"Point","coordinates":[124.38284210050004,13.663861295500055]}},{"type":"Feature","properties":{"psgc_code":"052002018","name":"Paniquihan","level":"barangay-label","municipality_psgc_code":"052002000","municipality_name":"Baras"},"geometry":{"type":"Point","coordinates":[124.38253971800009,13.673741334000052]}},{"type":"Feature","properties":{"psgc_code":"052002019","name":"Eastern Poblacion","level":"barangay-label","municipality_psgc_code":"052002000","municipality_name":"Baras"},"geometry":{"type":"Point","coordinates":[124.37175106550006,13.658959888000027]}},{"type":"Feature","properties":{"psgc_code":"052002020","name":"Puraran","level":"barangay-label","municipality_psgc_code":"052002000","municipality_name":"Baras"},"geometry":{"type":"Point","coordinates":[124.38913504400006,13.685599879000051]}},{"type":"Feature","properties":{"psgc_code":"052002021","name":"Putsan","level":"barangay-label","municipality_psgc_code":"052002000","municipality_name":"Baras"},"geometry":{"type":"Point","coordinates":[124.38310697250006,13.656715710000043]}},{"type":"Feature","properties":{"psgc_code":"052002022","name":"Quezon","level":"barangay-label","municipality_psgc_code":"052002000","municipality_name":"Baras"},"geometry":{"type":"Point","coordinates":[124.36885532750006,13.659998405000067]}},{"type":"Feature","properties":{"psgc_code":"052002023","name":"Rizal","level":"barangay-label","municipality_psgc_code":"052002000","municipality_name":"Baras"},"geometry":{"type":"Point","coordinates":[124.37523272550004,13.676814861500079]}},{"type":"Feature","properties":{"psgc_code":"052002024","name":"Salvacion","level":"barangay-label","municipality_psgc_code":"052002000","municipality_name":"Baras"},"geometry":{"type":"Point","coordinates":[124.34488145450007,13.631873627500028]}},{"type":"Feature","properties":{"psgc_code":"052002025","name":"San Lorenzo","level":"barangay-label","municipality_psgc_code":"052002000","municipality_name":"Baras"},"geometry":{"type":"Point","coordinates":[124.36960868900003,13.659739088000066]}},{"type":"Feature","properties":{"psgc_code":"052002026","name":"San Miguel","level":"barangay-label","municipality_psgc_code":"052002000","municipality_name":"Baras"},"geometry":{"type":"Point","coordinates":[124.40042015200008,13.681121185000052]}},{"type":"Feature","properties":{"psgc_code":"052002027","name":"Santa Maria","level":"barangay-label","municipality_psgc_code":"052002000","municipality_name":"Baras"},"geometry":{"type":"Point","coordinates":[124.34504164250006,13.659473735500029]}},{"type":"Feature","properties":{"psgc_code":"052002028","name":"Tilod","level":"barangay-label","municipality_psgc_code":"052002000","municipality_name":"Baras"},"geometry":{"type":"Point","coordinates":[124.34543750900008,13.651231975000059]}},{"type":"Feature","properties":{"psgc_code":"052002029","name":"Western Poblacion","level":"barangay-label","municipality_psgc_code":"052002000","municipality_name":"Baras"},"geometry":{"type":"Point","coordinates":[124.36910571950007,13.65859206750005]}}]}
