{"type":"FeatureCollection","features":[{"type":"Feature","properties":{"psgc_code":"052011001","name":"Antipolo Del Norte","level":"barangay-label","municipality_psgc_code":"052011000","municipality_name":"Virac"},"geometry":{"type":"Point","coordinates":[124.20791950150004,13.556148897000043]}},{"type":"Feature","properties":{"psgc_code":"052011002","name":"Antipolo Del Sur","level":"barangay-label","municipality_psgc_code":"052011000","municipality_name":"Virac"},"geometry":{"type":"Point","coordinates":[124.20096839350009,13.546239045500073]}},{"type":"Feature","properties":{"psgc_code":"052011003","name":"Balite","level":"barangay-label","municipality_psgc_code":"052011000","municipality_name":"Virac"},"geometry":{"type":"Point","coordinates":[124.16081674650007,13.553868946000051]}},{"type":"Feature","properties":{"psgc_code":"052011004","name":"Batag","level":"barangay-label","municipality_psgc_code":"052011000","municipality_name":"Virac"},"geometry":{"type":"Point","coordinates":[124.1666488680001,13.545358846000056]}},{"type":"Feature","properties":{"psgc_code":"052011005","name":"Bigaa","level":"barangay-label","municipality_psgc_code":"052011000","municipality_name":"Virac"},"geometry":{"type":"Point","coordinates":[124.19276555350008,13.595469352500032]}},{"type":"Feature","properties":{"psgc_code":"052011006","name":"Buenavista","level":"barangay-label","municipality_psgc_code":"052011000","municipality_name":"Virac"},"geometry":{"type":"Point","coordinates":[124.17751799200005,13.548179090000048]}},{"type":"Feature","properties":{"psgc_code":"052011007","name":"Buyo","level":"barangay-label","municipality_psgc_code":"052011000","municipality_name":"Virac"},"geometry":{"type":"Point","coordinates":[124.1807401330001,13.621515857500043]}},{"type":"Feature","properties":{"psgc_code":"052011008","name":"Cabihian","level":"barangay-label","municipality_psgc_code":"052011000","municipality_name":"Virac"},"geometry":{"type":"Point","coordinates":[124.16572875500009,13.57462006750006]}},{"type":"Feature","properties":{"psgc_code":"052011009","name":"Calabnigan","level":"barangay-label","municipality_psgc_code":"052011000","municipality_name":"Virac"},"geometry":{"type":"Point","coordinates":[124.17299774250004,13.593652011500067]}},{"type":"Feature","properties":{"psgc_code":"052011010","name":"Calampong","level":"barangay-label","municipality_psgc_code":"052011000","municipality_name":"Virac"},"geometry":{"type":"Point","coordinates":[124.18983846700007,13.54806806700003]}},{"type":"Feature","properties":{"psgc_code":"052011011","name":"Calatagan Proper","level":"barangay-label","municipality_psgc_code":"052011000","municipality_name":"Virac"},"geometry":{"type":"Point","coordinates":[124.21259248800004,13.585970146500046]}},{"type":"Feature","properties":{"psgc_code":"052011012","name":"Calatagan Tibang","level":"barangay-label","municipality_psgc_code":"052011000","municipality_name":"Virac"},"geometry":{"type":"Point","coordinates":[124.20844783600006,13.620750318500058]}},{"type":"Feature","properties":{"psgc_code":"052011013","name":"Capilihan","level":"barangay-label","municipality_psgc_code":"052011000","municipality_name":"Virac"},"geometry":{"type":"Point","coordinates":[124.24051873500002,13.59612131800003]}},{"type":"Feature","properties":{"psgc_code":"052011014","name":"Casoocan","level":"barangay-label","municipality_psgc_code":"052011000","municipality_name":"Virac"},"geometry":{"type":"Point","coordinates":[124.19495018050009,13.536471639000068]}},{"type":"Feature","properties":{"psgc_code":"052011015","name":"Cavinitan","level":"barangay-label","municipality_psgc_code":"052011000","municipality_name":"Virac"},"geometry":{"type":"Point","coordinates":[124.19899032900008,13.578240256000043]}},{"type":"Feature","properties":{"psgc_code":"052011016","name":"Gogon Sirangan","level":"barangay-label","municipality_psgc_code":"052011000","municipality_name":"Virac"},"geometry":{"type":"Point","coordinates":[124.22795297600004,13.579489506500039]}},{"type":"Feature","properties":{"psgc_code":"052011017","name":"Concepcion (Pob.)","level":"barangay-label","municipality_psgc_code":"052011000","municipality_name":"Virac"},"geometry":{"type":"Point","coordinates":[124.22899226300001,13.577274811500047]}},{"type":"Feature","properties":{"psgc_code":"052011018","name":"Constantino (Pob.)","level":"barangay-label","municipality_psgc_code":"052011000","municipality_name":"Virac"},"geometry":{"type":"Point","coordinates":[124.22970199000008,13.585938387000056]}},{"type":"Feature","properties":{"psgc_code":"052011019","name":"Danicop","level":"barangay-label","municipality_psgc_code":"052011000","municipality_name":"Virac"},"geometry":{"type":"Point","coordinates":[124.21690700000005,13.615993901500048]}},{"type":"Feature","properties":{"psgc_code":"052011020","name":"Dugui San Vicente","level":"barangay-label","municipality_psgc_code":"052011000","municipality_name":"Virac"},"geometry":{"type":"Point","coordinates":[124.15467112850008,13.650494344500059]}},{"type":"Feature","properties":{"psgc_code":"052011021","name":"Dugui San Isidro","level":"barangay-label","municipality_psgc_code":"052011000","municipality_name":"Virac"},"geometry":{"type":"Point","coordinates":[124.16499527600007,13.652096881000034]}},{"type":"Feature","properties":{"psgc_code":"052011023","name":"Dugui Too","level":"barangay-label","municipality_psgc_code":"052011000","municipality_name":"Virac"},"geometry":{"type":"Point","coordinates":[124.18616048050006,13.652915811500037]}},{"type":"Feature","properties":{"psgc_code":"052011024","name":"F. Tacorda Village","level":"barangay-label","municipality_psgc_code":"052011000","municipality_name":"Virac"},"geometry":{"type":"Point","coordinates":[124.18520469250008,13.557102852000043]}},{"type":"Feature","properties":{"psgc_code":"052011025","name":"Francia (Pob.)","level":"barangay-label","municipality_psgc_code":"052011000","municipality_name":"Virac"},"geometry":{"type":"Point","coordinates":[124.23965363450003,13.588226812000073]}},{"type":"Feature","properties":{"psgc_code":"052011026","name":"Gogon Centro","level":"barangay-label","municipality_psgc_code":"052011000","municipality_name":"Virac"},"geometry":{"type":"Point","coordinates":[124.22517681550005,13.577944165500039]}},{"type":"Feature","properties":{"psgc_code":"052011027","name":"Hawan Grande","level":"barangay-label","municipality_psgc_code":"052011000","municipality_name":"Virac"},"geometry":{"type":"Point","coordinates":[124.17551110400007,13.561705217500045]}},{"type":"Feature","properties":{"psgc_code":"052011028","name":"Hawan Ilaya","level":"barangay-label","municipality_psgc_code":"052011000","municipality_name":"Virac"},"geometry":{"type":"Point","coordinates":[124.16445499150007,13.563891011500022]}},{"type":"Feature","properties":{"psgc_code":"052011029","name":"Hicming","level":"barangay-label","municipality_psgc_code":"052011000","municipality_name":"Virac"},"geometry":{"type":"Point","coordinates":[124.19263402250012,13.617160340000025]}},{"type":"Feature","properties":{"psgc_code":"052011030","name":"Igang","level":"barangay-label","municipality_psgc_code":"052011000","municipality_name":"Virac"},"geometry":{"type":"Point","coordinates":[124.2077787610001,13.531083701000057]}},{"type":"Feature","properties":{"psgc_code":"052011031","name":"Juan M. Alberto","level":"barangay-label","municipality_psgc_code":"052011000","municipality_name":"Virac"},"geometry":{"type":"Point","coordinates":[124.17638000500011,13.598957541500056]}},{"type":"Feature","properties":{"psgc_code":"052011032","name":"Lanao (Pob.)","level":"barangay-label","municipality_psgc_code":"052011000","municipality_name":"Virac"},"geometry":{"type":"Point","coordinates":[124.23501485650007,13.58839229700007]}},{"type":"Feature","properties":{"psgc_code":"052011033","name":"Magnesia Del Norte","level":"barangay-label","municipality_psgc_code":"052011000","municipality_name":"Virac"},"geometry":{"type":"Point","coordinates":[124.18012991550006,13.537097615500043]}},{"type":"Feature","properties":{"psgc_code":"052011034","name":"Magnesia Del Sur","level":"barangay-label","municipality_psgc_code":"052011000","municipality_name":"Virac"},"geometry":{"type":"Point","coordinates":[124.18606743650008,13.528745581500033]}},{"type":"Feature","properties":{"psgc_code":"052011035","name":"Marcelo Alberto (Pob.)","level":"barangay-label","municipality_psgc_code":"052011000","municipality_name":"Virac"},"geometry":{"type":"Point","coordinates":[124.23401890950005,13.586069342000059]}},{"type":"Feature","properties":{"psgc_code":"052011036","name":"Marilima","level":"barangay-label","municipality_psgc_code":"052011000","municipality_name":"Virac"},"geometry":{"type":"Point","coordinates":[124.17025467500004,13.537785712500067]}},{"type":"Feature","properties":{"psgc_code":"052011037","name":"Pajo Baguio","level":"barangay-label","municipality_psgc_code":"052011000","municipality_name":"Virac"},"geometry":{"type":"Point","coordinates":[124.20041899100005,13.557734223500034]}},{"type":"Feature","properties":{"psgc_code":"052011038","name":"Pajo San Isidro","level":"barangay-label","municipality_psgc_code":"052011000","municipality_name":"Virac"},"geometry":{"type":"Point","coordinates":[124.20020465500005,13.565477533500054]}},{"type":"Feature","properties":{"psgc_code":"052011039","name":"Palnab Del Norte","level":"barangay-label","municipality_psgc_code":"052011000","municipality_name":"Virac"},"geometry":{"type":"Point","coordinates":[124.22224948100006,13.575110789500059]}},{"type":"Feature","properties":{"psgc_code":"052011040","name":"Palnab Del Sur","level":"barangay-label","municipality_psgc_code":"052011000","municipality_name":"Virac"},"geometry":{"type":"Point","coordinates":[124.21905157850006,13.570382308000063]}},{"type":"Feature","properties":{"psgc_code":"052011041","name":"Palta Big","level":"barangay-label","municipality_psgc_code":"052011000","municipality_name":"Virac"},"geometry":{"type":"Point","coordinates":[124.15724176550009,13.57099302000006]}},{"type":"Feature","properties":{"psgc_code":"052011042","name":"Palta Salvacion","level":"barangay-label","municipality_psgc_code":"052011000","municipality_name":"Virac"},"geometry":{"type":"Point","coordinates":[124.15664042250006,13.57452277750005]}},{"type":"Feature","properties":{"psgc_code":"052011043","name":"Palta Small","level":"barangay-label","municipality_psgc_code":"052011000","municipality_name":"Virac"},"geometry":{"type":"Point","coordinates":[124.1603931305001,13.59199567850004]}},{"type":"Feature","properties":{"psgc_code":"052011044","name":"Rawis (Pob.)","level":"barangay-label","municipality_psgc_code":"052011000","municipality_name":"Virac"},"geometry":{"type":"Point","coordinates":[124.23802098500005,13.583801116500041]}},{"type":"Feature","properties":{"psgc_code":"052011045","name":"Salvacion","level":"barangay-label","municipality_psgc_code":"052011000","municipality_name":"Virac"},"geometry":{"type":"Point","coordinates":[124.23261929050005,13.58100508350006]}},{"type":"Feature","properties":{"psgc_code":"052011046","name":"San Isidro Village","level":"barangay-label","municipality_psgc_code":"052011000","municipality_name":"Virac"},"geometry":{"type":"Point","coordinates":[124.20739274650003,13.576598769500066]}},{"type":"Feature","properties":{"psgc_code":"052011047","name":"San Jose (Pob.)","level":"barangay-label","municipality_psgc_code":"052011000","municipality_name":"Virac"},"geometry":{"type":"Point","coordinates":[124.23179203050006,13.581233172500049]}},{"type":"Feature","properties":{"psgc_code":"052011048","name":"San Juan (Pob.)","level":"barangay-label","municipality_psgc_code":"052011000","municipality_name":"Virac"},"geometry":{"type":"Point","coordinates":[124.22960882050006,13.577397362000028]}},{"type":"Feature","properties":{"psgc_code":"052011049","name":"San Pablo (Pob.)","level":"barangay-label","municipality_psgc_code":"052011000","municipality_name":"Virac"},"geometry":{"type":"Point","coordinates":[124.23078611400007,13.577624174500073]}},{"type":"Feature","properties":{"psgc_code":"052011050","name":"San Pedro (Pob.)","level":"barangay-label","municipality_psgc_code":"052011000","municipality_name":"Virac"},"geometry":{"type":"Point","coordinates":[124.23163974150009,13.58153591700005]}},{"type":"Feature","properties":{"psgc_code":"052011051","name":"San Roque (Pob.)","level":"barangay-label","municipality_psgc_code":"052011000","municipality_name":"Virac"},"geometry":{"type":"Point","coordinates":[124.22812560100004,13.582797080500058]}},{"type":"Feature","properties":{"psgc_code":"052011052","name":"San Vicente","level":"barangay-label","municipality_psgc_code":"052011000","municipality_name":"Virac"},"geometry":{"type":"Point","coordinates":[124.25451406500008,13.614912217500061]}},{"type":"Feature","properties":{"psgc_code":"052011053","name":"Ibong Sapa","level":"barangay-label","municipality_psgc_code":"052011000","municipality_name":"Virac"},"geometry":{"type":"Point","coordinates":[124.2457666740001,13.614734142500025]}},{"type":"Feature","properties":{"psgc_code":"052011054","name":"Santa Cruz","level":"barangay-label","municipality_psgc_code":"052011000","municipality_name":"Virac"},"geometry":{"type":"Point","coordinates":[124.23488874250006,13.583485910500059]}},{"type":"Feature","properties":{"psgc_code":"052011055","name":"Santa Elena (Pob.)","level":"barangay-label","municipality_psgc_code":"052011000","municipality_name":"Virac"},"geometry":{"type":"Point","coordinates":[124.23439297500005,13.584853621000034]}},{"type":"Feature","properties":{"psgc_code":"052011056","name":"Santo Cristo","level":"barangay-label","municipality_psgc_code":"052011000","municipality_name":"Virac"},"geometry":{"type":"Point","coordinates":[124.1795428085,13.57754690800003]}},{"type":"Feature","properties":{"psgc_code":"052011057","name":"Santo Domingo","level":"barangay-label","municipality_psgc_code":"052011000","municipality_name":"Virac"},"geometry":{"type":"Point","coordinates":[124.18157935650004,13.588648813500043]}},{"type":"Feature","properties":{"psgc_code":"052011058","name":"Santo Ni\u00f1o","level":"barangay-label","municipality_psgc_code":"052011000","municipality_name":"Virac"},"geometry":{"type":"Point","coordinates":[124.23605423850006,13.615598331000058]}},{"type":"Feature","properties":{"psgc_code":"052011059","name":"Simamla","level":"barangay-label","municipality_psgc_code":"052011000","municipality_name":"Virac"},"geometry":{"type":"Point","coordinates":[124.16495543850004,13.616502085000036]}},{"type":"Feature","properties":{"psgc_code":"052011061","name":"Sogod-Simamla","level":"barangay-label","municipality_psgc_code":"052011000","municipality_name":"Virac"},"geometry":{"type":"Point","coordinates":[124.15470180300008,13.615997888500033]}},{"type":"Feature","properties":{"psgc_code":"052011062","name":"Talisoy","level":"barangay-label","municipality_psgc_code":"052011000","municipality_name":"Virac"},"geometry":{"type":"Point","coordinates":[124.2016523210001,13.52620735700006]}},{"type":"Feature","properties":{"psgc_code":"052011063","name":"Sogod-Tibgao","level":"barangay-label","municipality_psgc_code":"052011000","municipality_name":"Virac"},"geometry":{"type":"Point","coordinates":[124.22510008150006,13.615998944000069]}},{"type":"Feature","properties":{"psgc_code":"052011064","name":"Tubaon","level":"barangay-label","municipality_psgc_code":"052011000","municipality_name":"Virac"},"geometry":{"type":"Point","coordinates":[124.17577342600009,13.606717355500052]}},{"type":"Feature","properties":{"psgc_code":"052011065","name":"Valencia","level":"barangay-label","municipality_psgc_code":"052011000","municipality_name":"Virac"},"geometry":{"type":"Point","coordinates":[124.19290881150012,13.583250397000057]}}]}
