{"type":"FeatureCollection","features":[{"type":"Feature","properties":{"psgc_code":"052006001","name":"Bagawang","level":"barangay-label","municipality_psgc_code":"052006000","municipality_name":"Pandan"},"geometry":{"type":"Point","coordinates":[124.17463610400006,14.032097324000032]}},{"type":"Feature","properties":{"psgc_code":"052006002","name":"Balag\u00f1onan","level":"barangay-label","municipality_psgc_code":"052006000","municipality_name":"Pandan"},"geometry":{"type":"Point","coordinates":[124.1358327530001,14.048384780500072]}},{"type":"Feature","properties":{"psgc_code":"052006003","name":"Baldoc","level":"barangay-label","municipality_psgc_code":"052006000","municipality_name":"Pandan"},"geometry":{"type":"Point","coordinates":[124.21099771200007,14.08226493750004]}},{"type":"Feature","properties":{"psgc_code":"052006004","name":"Canlubi","level":"barangay-label","municipality_psgc_code":"052006000","municipality_name":"Pandan"},"geometry":{"type":"Point","coordinates":[124.18405993800008,14.064862918000044]}},{"type":"Feature","properties":{"psgc_code":"052006005","name":"Santa Cruz","level":"barangay-label","municipality_psgc_code":"052006000","municipality_name":"Pandan"},"geometry":{"type":"Point","coordinates":[124.16126814000002,14.028080450500026]}},{"type":"Feature","properties":{"psgc_code":"052006006","name":"Catamban","level":"barangay-label","municipality_psgc_code":"052006000","municipality_name":"Pandan"},"geometry":{"type":"Point","coordinates":[124.14663929600005,14.026406043500028]}},{"type":"Feature","properties":{"psgc_code":"052006007","name":"Cobo","level":"barangay-label","municipality_psgc_code":"052006000","municipality_name":"Pandan"},"geometry":{"type":"Point","coordinates":[124.14361261050004,14.013426494500038]}},{"type":"Feature","properties":{"psgc_code":"052006009","name":"Hiyop","level":"barangay-label","municipality_psgc_code":"052006000","municipality_name":"Pandan"},"geometry":{"type":"Point","coordinates":[124.19515460850005,14.07736220150005]}},{"type":"Feature","properties":{"psgc_code":"052006010","name":"Libod (Pob.)","level":"barangay-label","municipality_psgc_code":"052006000","municipality_name":"Pandan"},"geometry":{"type":"Point","coordinates":[124.17226799650001,14.04137536400003]}},{"type":"Feature","properties":{"psgc_code":"052006011","name":"Lourdes","level":"barangay-label","municipality_psgc_code":"052006000","municipality_name":"Pandan"},"geometry":{"type":"Point","coordinates":[124.24308393450008,14.037066547500075]}},{"type":"Feature","properties":{"psgc_code":"052006012","name":"Lumabao","level":"barangay-label","municipality_psgc_code":"052006000","municipality_name":"Pandan"},"geometry":{"type":"Point","coordinates":[124.17123354800003,14.013822870500062]}},{"type":"Feature","properties":{"psgc_code":"052006013","name":"Marambong","level":"barangay-label","municipality_psgc_code":"052006000","municipality_name":"Pandan"},"geometry":{"type":"Point","coordinates":[124.21776622700008,14.062962991000035]}},{"type":"Feature","properties":{"psgc_code":"052006014","name":"Napo (Pob.)","level":"barangay-label","municipality_psgc_code":"052006000","municipality_name":"Pandan"},"geometry":{"type":"Point","coordinates":[124.17226799650001,14.048519980000037]}},{"type":"Feature","properties":{"psgc_code":"052006015","name":"Oga","level":"barangay-label","municipality_psgc_code":"052006000","municipality_name":"Pandan"},"geometry":{"type":"Point","coordinates":[124.15254676200004,14.043709294000013]}},{"type":"Feature","properties":{"psgc_code":"052006016","name":"Pandan Del Norte (Pob.)","level":"barangay-label","municipality_psgc_code":"052006000","municipality_name":"Pandan"},"geometry":{"type":"Point","coordinates":[124.16382984900002,14.049340734000054]}},{"type":"Feature","properties":{"psgc_code":"052006017","name":"Pandan Del Sur (Pob.)","level":"barangay-label","municipality_psgc_code":"052006000","municipality_name":"Pandan"},"geometry":{"type":"Point","coordinates":[124.16437753200006,14.04159885200005]}},{"type":"Feature","properties":{"psgc_code":"052006018","name":"Panuto","level":"barangay-label","municipality_psgc_code":"052006000","municipality_name":"Pandan"},"geometry":{"type":"Point","coordinates":[124.16579147750002,14.00065198550007]}},{"type":"Feature","properties":{"psgc_code":"052006019","name":"Salvacion","level":"barangay-label","municipality_psgc_code":"052006000","municipality_name":"Pandan"},"geometry":{"type":"Point","coordinates":[124.19317578300007,14.04533711350004]}},{"type":"Feature","properties":{"psgc_code":"052006020","name":"San Andres","level":"barangay-label","municipality_psgc_code":"052006000","municipality_name":"Pandan"},"geometry":{"type":"Point","coordinates":[124.13479614350007,14.02638481400004]}},{"type":"Feature","properties":{"psgc_code":"052006021","name":"San Isidro","level":"barangay-label","municipality_psgc_code":"052006000","municipality_name":"Pandan"},"geometry":{"type":"Point","coordinates":[124.20699639650005,13.999809872000043]}},{"type":"Feature","properties":{"psgc_code":"052006022","name":"Porot","level":"barangay-label","municipality_psgc_code":"052006000","municipality_name":"Pandan"},"geometry":{"type":"Point","coordinates":[124.22651390950006,14.03972945600006]}},{"type":"Feature","properties":{"psgc_code":"052006023","name":"San Rafael","level":"barangay-label","municipality_psgc_code":"052006000","municipality_name":"Pandan"},"geometry":{"type":"Point","coordinates":[124.15237032300007,14.014841824500053]}},{"type":"Feature","properties":{"psgc_code":"052006024","name":"San Roque","level":"barangay-label","municipality_psgc_code":"052006000","municipality_name":"Pandan"},"geometry":{"type":"Point","coordinates":[124.22494425650007,14.056742137500066]}},{"type":"Feature","properties":{"psgc_code":"052006025","name":"Tabugoc","level":"barangay-label","municipality_psgc_code":"052006000","municipality_name":"Pandan"},"geometry":{"type":"Point","coordinates":[124.24211647250007,14.049568279500049]}},{"type":"Feature","properties":{"psgc_code":"052006026","name":"Tokio","level":"barangay-label","municipality_psgc_code":"052006000","municipality_name":"Pandan"},"geometry":{"type":"Point","coordinates":[124.23815376350007,14.02106005850004]}},{"type":"Feature","properties":{"psgc_code":"052006027","name":"Wagdas","level":"barangay-label","municipality_psgc_code":"052006000","municipality_name":"Pandan"},"geometry":{"type":"Point","coordinates":[124.24744828900009,14.039944609500026]}}]}
