{"type":"FeatureCollection","features":[{"type":"Feature","properties":{"psgc_code":"052007001","name":"Alinawan","level":"barangay-label","municipality_psgc_code":"052007000","municipality_name":"Panganiban"},"geometry":{"type":"Point","coordinates":[124.33094991800004,13.908893534000041]}},{"type":"Feature","properties":{"psgc_code":"052007002","name":"Babaguan","level":"barangay-label","municipality_psgc_code":"052007000","municipality_name":"Panganiban"},"geometry":{"type":"Point","coordinates":[124.32893816200004,13.94747501550006]}},{"type":"Feature","properties":{"psgc_code":"052007003","name":"Bagong Bayan","level":"barangay-label","municipality_psgc_code":"052007000","municipality_name":"Panganiban"},"geometry":{"type":"Point","coordinates":[124.29244946250003,13.907237287000044]}},{"type":"Feature","properties":{"psgc_code":"052007005","name":"Burabod","level":"barangay-label","municipality_psgc_code":"052007000","municipality_name":"Panganiban"},"geometry":{"type":"Point","coordinates":[124.28138532100002,13.913382379000037]}},{"type":"Feature","properties":{"psgc_code":"052007006","name":"Cabuyoan","level":"barangay-label","municipality_psgc_code":"052007000","municipality_name":"Panganiban"},"geometry":{"type":"Point","coordinates":[124.28483891600008,13.88717342800004]}},{"type":"Feature","properties":{"psgc_code":"052007007","name":"Cagdarao","level":"barangay-label","municipality_psgc_code":"052007000","municipality_name":"Panganiban"},"geometry":{"type":"Point","coordinates":[124.35136500400006,13.926325624000043]}},{"type":"Feature","properties":{"psgc_code":"052007008","name":"Mabini","level":"barangay-label","municipality_psgc_code":"052007000","municipality_name":"Panganiban"},"geometry":{"type":"Point","coordinates":[124.27671648650005,13.90811575500004]}},{"type":"Feature","properties":{"psgc_code":"052007009","name":"Maculiw","level":"barangay-label","municipality_psgc_code":"052007000","municipality_name":"Panganiban"},"geometry":{"type":"Point","coordinates":[124.33424224750007,13.925486199500055]}},{"type":"Feature","properties":{"psgc_code":"052007010","name":"Panay","level":"barangay-label","municipality_psgc_code":"052007000","municipality_name":"Panganiban"},"geometry":{"type":"Point","coordinates":[124.34241102150008,13.952509777000044]}},{"type":"Feature","properties":{"psgc_code":"052007011","name":"Taopon","level":"barangay-label","municipality_psgc_code":"052007000","municipality_name":"Panganiban"},"geometry":{"type":"Point","coordinates":[124.29619275900006,13.923886872500047]}},{"type":"Feature","properties":{"psgc_code":"052007013","name":"Salvacion (Pob.)","level":"barangay-label","municipality_psgc_code":"052007000","municipality_name":"Panganiban"},"geometry":{"type":"Point","coordinates":[124.29493958650005,13.896990051500069]}},{"type":"Feature","properties":{"psgc_code":"052007014","name":"San Antonio","level":"barangay-label","municipality_psgc_code":"052007000","municipality_name":"Panganiban"},"geometry":{"type":"Point","coordinates":[124.32461067650007,13.905214695000069]}},{"type":"Feature","properties":{"psgc_code":"052007015","name":"San Joaquin (Pob.)","level":"barangay-label","municipality_psgc_code":"052007000","municipality_name":"Panganiban"},"geometry":{"type":"Point","coordinates":[124.30270930850008,13.906354209500051]}},{"type":"Feature","properties":{"psgc_code":"052007016","name":"San Jose (Pob.)","level":"barangay-label","municipality_psgc_code":"052007000","municipality_name":"Panganiban"},"geometry":{"type":"Point","coordinates":[124.30292556300009,13.907218964500059]}},{"type":"Feature","properties":{"psgc_code":"052007017","name":"San Juan (Pob.)","level":"barangay-label","municipality_psgc_code":"052007000","municipality_name":"Panganiban"},"geometry":{"type":"Point","coordinates":[124.3029324740001,13.907675102500036]}},{"type":"Feature","properties":{"psgc_code":"052007018","name":"San Miguel","level":"barangay-label","municipality_psgc_code":"052007000","municipality_name":"Panganiban"},"geometry":{"type":"Point","coordinates":[124.25686966900008,13.893701008500045]}},{"type":"Feature","properties":{"psgc_code":"052007019","name":"San Nicolas (Pob.)","level":"barangay-label","municipality_psgc_code":"052007000","municipality_name":"Panganiban"},"geometry":{"type":"Point","coordinates":[124.29867906800007,13.910917382000036]}},{"type":"Feature","properties":{"psgc_code":"052007020","name":"San Pedro (Pob.)","level":"barangay-label","municipality_psgc_code":"052007000","municipality_name":"Panganiban"},"geometry":{"type":"Point","coordinates":[124.30947161050005,13.91084686900004]}},{"type":"Feature","properties":{"psgc_code":"052007021","name":"San Vicente (Pob.)","level":"barangay-label","municipality_psgc_code":"052007000","municipality_name":"Panganiban"},"geometry":{"type":"Point","coordinates":[124.29776365050003,13.906549151500059]}},{"type":"Feature","properties":{"psgc_code":"052007022","name":"Santa Ana (Pob.)","level":"barangay-label","municipality_psgc_code":"052007000","municipality_name":"Panganiban"},"geometry":{"type":"Point","coordinates":[124.30967913150005,13.899053123000044]}},{"type":"Feature","properties":{"psgc_code":"052007023","name":"Santa Maria (Pob.)","level":"barangay-label","municipality_psgc_code":"052007000","municipality_name":"Panganiban"},"geometry":{"type":"Point","coordinates":[124.29772677850008,13.907608511000063]}},{"type":"Feature","properties":{"psgc_code":"052007024","name":"Santo Santiago (Pob.)","level":"barangay-label","municipality_psgc_code":"052007000","municipality_name":"Panganiban"},"geometry":{"type":"Point","coordinates":[124.29770318650009,13.90707563050006]}},{"type":"Feature","properties":{"psgc_code":"052007026","name":"Tibo","level":"barangay-label","municipality_psgc_code":"052007000","municipality_name":"Panganiban"},"geometry":{"type":"Point","coordinates":[124.34489731250005,13.905350653000056]}}]}
