{"type":"FeatureCollection","features":[{"type":"Feature","properties":{"psgc_code":"054104001","name":"Burgos","level":"barangay-label","municipality_psgc_code":"054104000","municipality_name":"Batuan"},"geometry":{"type":"Point","coordinates":[123.75232610150005,12.391358729500041]}},{"type":"Feature","properties":{"psgc_code":"054104002","name":"Canares","level":"barangay-label","municipality_psgc_code":"054104000","municipality_name":"Batuan"},"geometry":{"type":"Point","coordinates":[123.75312249750004,12.40656294200005]}},{"type":"Feature","properties":{"psgc_code":"054104003","name":"Camba\u00f1ez","level":"barangay-label","municipality_psgc_code":"054104000","municipality_name":"Batuan"},"geometry":{"type":"Point","coordinates":[123.77465784500009,12.431146609500045]}},{"type":"Feature","properties":{"psgc_code":"054104004","name":"Costa Rica","level":"barangay-label","municipality_psgc_code":"054104000","municipality_name":"Batuan"},"geometry":{"type":"Point","coordinates":[123.72254866100008,12.428737340000053]}},{"type":"Feature","properties":{"psgc_code":"054104005","name":"Danao","level":"barangay-label","municipality_psgc_code":"054104000","municipality_name":"Batuan"},"geometry":{"type":"Point","coordinates":[123.73365691300006,12.409472713000042]}},{"type":"Feature","properties":{"psgc_code":"054104006","name":"Gibraltar","level":"barangay-label","municipality_psgc_code":"054104000","municipality_name":"Batuan"},"geometry":{"type":"Point","coordinates":[123.79158042000006,12.35554650450004]}},{"type":"Feature","properties":{"psgc_code":"054104007","name":"Mabuhay","level":"barangay-label","municipality_psgc_code":"054104000","municipality_name":"Batuan"},"geometry":{"type":"Point","coordinates":[123.75345787050009,12.430275807500067]}},{"type":"Feature","properties":{"psgc_code":"054104008","name":"Matabao","level":"barangay-label","municipality_psgc_code":"054104000","municipality_name":"Batuan"},"geometry":{"type":"Point","coordinates":[123.80158073600006,12.321036396500034]}},{"type":"Feature","properties":{"psgc_code":"054104009","name":"Nasandig","level":"barangay-label","municipality_psgc_code":"054104000","municipality_name":"Batuan"},"geometry":{"type":"Point","coordinates":[123.76458977100003,12.429332027500065]}},{"type":"Feature","properties":{"psgc_code":"054104010","name":"Panisihan","level":"barangay-label","municipality_psgc_code":"054104000","municipality_name":"Batuan"},"geometry":{"type":"Point","coordinates":[123.77794523500006,12.407370525500056]}},{"type":"Feature","properties":{"psgc_code":"054104011","name":"Poblacion","level":"barangay-label","municipality_psgc_code":"054104000","municipality_name":"Batuan"},"geometry":{"type":"Point","coordinates":[123.77763114550004,12.421472427000053]}},{"type":"Feature","properties":{"psgc_code":"054104013","name":"Rizal","level":"barangay-label","municipality_psgc_code":"054104000","municipality_name":"Batuan"},"geometry":{"type":"Point","coordinates":[123.74015089850008,12.431257765500046]}},{"type":"Feature","properties":{"psgc_code":"054104014","name":"Royroy","level":"barangay-label","municipality_psgc_code":"054104000","municipality_name":"Batuan"},"geometry":{"type":"Point","coordinates":[123.78361015900003,12.381428637000056]}},{"type":"Feature","properties":{"psgc_code":"054104015","name":"Sawang","level":"barangay-label","municipality_psgc_code":"054104000","municipality_name":"Batuan"},"geometry":{"type":"Point","coordinates":[123.77292017400009,12.368448938500052]}}]}
