{"type":"FeatureCollection","features":[{"type":"Feature","properties":{"psgc_code":"054107001","name":"Albasan","level":"barangay-label","municipality_psgc_code":"054107000","municipality_name":"Claveria"},"geometry":{"type":"Point","coordinates":[123.13052395750003,12.92077801800005]}},{"type":"Feature","properties":{"psgc_code":"054107002","name":"Boca Enga\u00f1o","level":"barangay-label","municipality_psgc_code":"054107000","municipality_name":"Claveria"},"geometry":{"type":"Point","coordinates":[123.31626426350005,12.769183539000068]}},{"type":"Feature","properties":{"psgc_code":"054107003","name":"Buyo","level":"barangay-label","municipality_psgc_code":"054107000","municipality_name":"Claveria"},"geometry":{"type":"Point","coordinates":[123.27075231050003,12.852804879000047]}},{"type":"Feature","properties":{"psgc_code":"054107004","name":"Calpi","level":"barangay-label","municipality_psgc_code":"054107000","municipality_name":"Claveria"},"geometry":{"type":"Point","coordinates":[123.12531120000011,12.948061952000046]}},{"type":"Feature","properties":{"psgc_code":"054107005","name":"Canomay","level":"barangay-label","municipality_psgc_code":"054107000","municipality_name":"Claveria"},"geometry":{"type":"Point","coordinates":[123.26433111100005,12.87392661000004]}},{"type":"Feature","properties":{"psgc_code":"054107006","name":"Cawayan","level":"barangay-label","municipality_psgc_code":"054107000","municipality_name":"Claveria"},"geometry":{"type":"Point","coordinates":[123.13964133450008,12.961682725000058]}},{"type":"Feature","properties":{"psgc_code":"054107007","name":"Poblacion District I","level":"barangay-label","municipality_psgc_code":"054107000","municipality_name":"Claveria"},"geometry":{"type":"Point","coordinates":[123.24729208200006,12.884454521000066]}},{"type":"Feature","properties":{"psgc_code":"054107008","name":"Poblacion District II","level":"barangay-label","municipality_psgc_code":"054107000","municipality_name":"Claveria"},"geometry":{"type":"Point","coordinates":[123.22547645650002,12.890543808000047]}},{"type":"Feature","properties":{"psgc_code":"054107009","name":"Mababang Baybay","level":"barangay-label","municipality_psgc_code":"054107000","municipality_name":"Claveria"},"geometry":{"type":"Point","coordinates":[123.10525651600005,12.956634278500072]}},{"type":"Feature","properties":{"psgc_code":"054107010","name":"Mabiton","level":"barangay-label","municipality_psgc_code":"054107000","municipality_name":"Claveria"},"geometry":{"type":"Point","coordinates":[123.26129591250009,12.83881791500005]}},{"type":"Feature","properties":{"psgc_code":"054107011","name":"Manapao","level":"barangay-label","municipality_psgc_code":"054107000","municipality_name":"Claveria"},"geometry":{"type":"Point","coordinates":[123.22972872550008,12.853166392000048]}},{"type":"Feature","properties":{"psgc_code":"054107012","name":"Nabasagan","level":"barangay-label","municipality_psgc_code":"054107000","municipality_name":"Claveria"},"geometry":{"type":"Point","coordinates":[123.20295032750005,12.85890393800005]}},{"type":"Feature","properties":{"psgc_code":"054107013","name":"Nonoc","level":"barangay-label","municipality_psgc_code":"054107000","municipality_name":"Claveria"},"geometry":{"type":"Point","coordinates":[123.1624966175001,12.925872773000036]}},{"type":"Feature","properties":{"psgc_code":"054107014","name":"Osme\u00f1a","level":"barangay-label","municipality_psgc_code":"054107000","municipality_name":"Claveria"},"geometry":{"type":"Point","coordinates":[123.3351751260001,12.73553121650005]}},{"type":"Feature","properties":{"psgc_code":"054107015","name":"Pasig","level":"barangay-label","municipality_psgc_code":"054107000","municipality_name":"Claveria"},"geometry":{"type":"Point","coordinates":[123.18149084750002,12.882823188500055]}},{"type":"Feature","properties":{"psgc_code":"054107016","name":"Pe\u00f1afrancia","level":"barangay-label","municipality_psgc_code":"054107000","municipality_name":"Claveria"},"geometry":{"type":"Point","coordinates":[123.37293715400006,12.705031354000056]}},{"type":"Feature","properties":{"psgc_code":"054107017","name":"Quezon","level":"barangay-label","municipality_psgc_code":"054107000","municipality_name":"Claveria"},"geometry":{"type":"Point","coordinates":[123.3530296415001,12.733413012000057]}},{"type":"Feature","properties":{"psgc_code":"054107018","name":"San Isidro","level":"barangay-label","municipality_psgc_code":"054107000","municipality_name":"Claveria"},"geometry":{"type":"Point","coordinates":[123.28968456100006,12.804709355500021]}},{"type":"Feature","properties":{"psgc_code":"054107019","name":"San Ramon","level":"barangay-label","municipality_psgc_code":"054107000","municipality_name":"Claveria"},"geometry":{"type":"Point","coordinates":[123.14918856100009,12.906178861500052]}},{"type":"Feature","properties":{"psgc_code":"054107020","name":"San Vicente","level":"barangay-label","municipality_psgc_code":"054107000","municipality_name":"Claveria"},"geometry":{"type":"Point","coordinates":[123.35566462550003,12.71297996450005]}},{"type":"Feature","properties":{"psgc_code":"054107021","name":"Taguilid","level":"barangay-label","municipality_psgc_code":"054107000","municipality_name":"Claveria"},"geometry":{"type":"Point","coordinates":[123.27900939250009,12.829453546000051]}},{"type":"Feature","properties":{"psgc_code":"054107022","name":"Imelda","level":"barangay-label","municipality_psgc_code":"054107000","municipality_name":"Claveria"},"geometry":{"type":"Point","coordinates":[123.18957547450005,12.896624115500058]}}]}
