{"type":"FeatureCollection","features":[{"type":"Feature","properties":{"psgc_code":"054117001","name":"Aguada","level":"barangay-label","municipality_psgc_code":"054117000","municipality_name":"Placer"},"geometry":{"type":"Point","coordinates":[123.93750864600008,11.916066783500042]}},{"type":"Feature","properties":{"psgc_code":"054117002","name":"Ban-Ao","level":"barangay-label","municipality_psgc_code":"054117000","municipality_name":"Placer"},"geometry":{"type":"Point","coordinates":[123.91654016700011,11.899988003500056]}},{"type":"Feature","properties":{"psgc_code":"054117003","name":"Burabod","level":"barangay-label","municipality_psgc_code":"054117000","municipality_name":"Placer"},"geometry":{"type":"Point","coordinates":[123.91611903350008,11.928585129000055]}},{"type":"Feature","properties":{"psgc_code":"054117004","name":"Cabangcalan","level":"barangay-label","municipality_psgc_code":"054117000","municipality_name":"Placer"},"geometry":{"type":"Point","coordinates":[123.85992216500006,11.95101008600005]}},{"type":"Feature","properties":{"psgc_code":"054117005","name":"Calumpang","level":"barangay-label","municipality_psgc_code":"054117000","municipality_name":"Placer"},"geometry":{"type":"Point","coordinates":[123.88908952500009,11.960296390000025]}},{"type":"Feature","properties":{"psgc_code":"054117006","name":"Camayabsan","level":"barangay-label","municipality_psgc_code":"054117000","municipality_name":"Placer"},"geometry":{"type":"Point","coordinates":[123.80663314900005,11.932364016000037]}},{"type":"Feature","properties":{"psgc_code":"054117008","name":"Daanlungsod","level":"barangay-label","municipality_psgc_code":"054117000","municipality_name":"Placer"},"geometry":{"type":"Point","coordinates":[123.91917436050005,11.876788312000057]}},{"type":"Feature","properties":{"psgc_code":"054117009","name":"Dangpanan","level":"barangay-label","municipality_psgc_code":"054117000","municipality_name":"Placer"},"geometry":{"type":"Point","coordinates":[123.82534480850006,11.934173981500066]}},{"type":"Feature","properties":{"psgc_code":"054117010","name":"Daraga","level":"barangay-label","municipality_psgc_code":"054117000","municipality_name":"Placer"},"geometry":{"type":"Point","coordinates":[123.87907288750006,11.910539267500038]}},{"type":"Feature","properties":{"psgc_code":"054117012","name":"Guinhan-Ayan","level":"barangay-label","municipality_psgc_code":"054117000","municipality_name":"Placer"},"geometry":{"type":"Point","coordinates":[123.9223272320001,11.944511495000057]}},{"type":"Feature","properties":{"psgc_code":"054117013","name":"Katipunan","level":"barangay-label","municipality_psgc_code":"054117000","municipality_name":"Placer"},"geometry":{"type":"Point","coordinates":[123.91231161200005,11.87436674050005]}},{"type":"Feature","properties":{"psgc_code":"054117014","name":"Libas","level":"barangay-label","municipality_psgc_code":"054117000","municipality_name":"Placer"},"geometry":{"type":"Point","coordinates":[123.84579865300003,12.007893104000033]}},{"type":"Feature","properties":{"psgc_code":"054117015","name":"Locso-An","level":"barangay-label","municipality_psgc_code":"054117000","municipality_name":"Placer"},"geometry":{"type":"Point","coordinates":[123.89668527500004,11.942528813500072]}},{"type":"Feature","properties":{"psgc_code":"054117016","name":"Luna","level":"barangay-label","municipality_psgc_code":"054117000","municipality_name":"Placer"},"geometry":{"type":"Point","coordinates":[123.85319312050007,11.922020137500056]}},{"type":"Feature","properties":{"psgc_code":"054117017","name":"Mahayag","level":"barangay-label","municipality_psgc_code":"054117000","municipality_name":"Placer"},"geometry":{"type":"Point","coordinates":[123.90403835550006,11.917404640000058]}},{"type":"Feature","properties":{"psgc_code":"054117018","name":"Mahayahay","level":"barangay-label","municipality_psgc_code":"054117000","municipality_name":"Placer"},"geometry":{"type":"Point","coordinates":[123.90981324950008,11.965585240000049]}},{"type":"Feature","properties":{"psgc_code":"054117019","name":"Manlut-Od","level":"barangay-label","municipality_psgc_code":"054117000","municipality_name":"Placer"},"geometry":{"type":"Point","coordinates":[123.96010314300008,11.89316467200004]}},{"type":"Feature","properties":{"psgc_code":"054117020","name":"Matagantang","level":"barangay-label","municipality_psgc_code":"054117000","municipality_name":"Placer"},"geometry":{"type":"Point","coordinates":[123.9541638345001,11.928966961500034]}},{"type":"Feature","properties":{"psgc_code":"054117023","name":"Nainday","level":"barangay-label","municipality_psgc_code":"054117000","municipality_name":"Placer"},"geometry":{"type":"Point","coordinates":[123.83360422350006,11.926830136000063]}},{"type":"Feature","properties":{"psgc_code":"054117024","name":"Naocondiot","level":"barangay-label","municipality_psgc_code":"054117000","municipality_name":"Placer"},"geometry":{"type":"Point","coordinates":[123.95319338000007,11.853732113500056]}},{"type":"Feature","properties":{"psgc_code":"054117025","name":"Pasiagon","level":"barangay-label","municipality_psgc_code":"054117000","municipality_name":"Placer"},"geometry":{"type":"Point","coordinates":[123.89034323550003,11.877283495000057]}},{"type":"Feature","properties":{"psgc_code":"054117026","name":"Pili","level":"barangay-label","municipality_psgc_code":"054117000","municipality_name":"Placer"},"geometry":{"type":"Point","coordinates":[123.89406316500009,11.90722136800005]}},{"type":"Feature","properties":{"psgc_code":"054117027","name":"Poblacion","level":"barangay-label","municipality_psgc_code":"054117000","municipality_name":"Placer"},"geometry":{"type":"Point","coordinates":[123.91757219650003,11.871456688000052]}},{"type":"Feature","properties":{"psgc_code":"054117028","name":"Puro","level":"barangay-label","municipality_psgc_code":"054117000","municipality_name":"Placer"},"geometry":{"type":"Point","coordinates":[123.82553347350006,11.957686390000049]}},{"type":"Feature","properties":{"psgc_code":"054117030","name":"San Marcos","level":"barangay-label","municipality_psgc_code":"054117000","municipality_name":"Placer"},"geometry":{"type":"Point","coordinates":[123.90763990750008,11.890300706500057]}},{"type":"Feature","properties":{"psgc_code":"054117031","name":"Santa Cruz","level":"barangay-label","municipality_psgc_code":"054117000","municipality_name":"Placer"},"geometry":{"type":"Point","coordinates":[123.87095920500009,11.985018957500046]}},{"type":"Feature","properties":{"psgc_code":"054117032","name":"Taboc","level":"barangay-label","municipality_psgc_code":"054117000","municipality_name":"Placer"},"geometry":{"type":"Point","coordinates":[123.94053596350005,11.867898517000043]}},{"type":"Feature","properties":{"psgc_code":"054117033","name":"Tan-Awan","level":"barangay-label","municipality_psgc_code":"054117000","municipality_name":"Placer"},"geometry":{"type":"Point","coordinates":[123.83839073900009,11.96336182050004]}},{"type":"Feature","properties":{"psgc_code":"054117034","name":"Taverna","level":"barangay-label","municipality_psgc_code":"054117000","municipality_name":"Placer"},"geometry":{"type":"Point","coordinates":[123.87264039200011,11.946594995000051]}},{"type":"Feature","properties":{"psgc_code":"054117035","name":"Tubod","level":"barangay-label","municipality_psgc_code":"054117000","municipality_name":"Placer"},"geometry":{"type":"Point","coordinates":[123.93219786250006,11.891218459500067]}},{"type":"Feature","properties":{"psgc_code":"054117036","name":"Villa Inocencio","level":"barangay-label","municipality_psgc_code":"054117000","municipality_name":"Placer"},"geometry":{"type":"Point","coordinates":[123.90726139100008,11.870069980000068]}}]}
