{"type":"FeatureCollection","features":[{"type":"Feature","properties":{"psgc_code":"054116001","name":"Alegria","level":"barangay-label","municipality_psgc_code":"054116000","municipality_name":"Pio v. Corpuz"},"geometry":{"type":"Point","coordinates":[124.05113134150002,11.782818617500027]}},{"type":"Feature","properties":{"psgc_code":"054116002","name":"Buenasuerte","level":"barangay-label","municipality_psgc_code":"054116000","municipality_name":"Pio v. Corpuz"},"geometry":{"type":"Point","coordinates":[124.02434556350005,11.907654129500031]}},{"type":"Feature","properties":{"psgc_code":"054116003","name":"Bugang","level":"barangay-label","municipality_psgc_code":"054116000","municipality_name":"Pio v. Corpuz"},"geometry":{"type":"Point","coordinates":[124.04360588350005,11.847933658500038]}},{"type":"Feature","properties":{"psgc_code":"054116004","name":"Bugtong","level":"barangay-label","municipality_psgc_code":"054116000","municipality_name":"Pio v. Corpuz"},"geometry":{"type":"Point","coordinates":[124.08856008550003,11.87522964200005]}},{"type":"Feature","properties":{"psgc_code":"054116005","name":"Bunducan","level":"barangay-label","municipality_psgc_code":"054116000","municipality_name":"Pio v. Corpuz"},"geometry":{"type":"Point","coordinates":[124.06805672150006,11.73410233550004]}},{"type":"Feature","properties":{"psgc_code":"054116006","name":"Cabangrayan","level":"barangay-label","municipality_psgc_code":"054116000","municipality_name":"Pio v. Corpuz"},"geometry":{"type":"Point","coordinates":[123.99765912950005,11.901894837500066]}},{"type":"Feature","properties":{"psgc_code":"054116007","name":"Calongongan","level":"barangay-label","municipality_psgc_code":"054116000","municipality_name":"Pio v. Corpuz"},"geometry":{"type":"Point","coordinates":[124.06062246050004,11.861249984000036]}},{"type":"Feature","properties":{"psgc_code":"054116008","name":"Casabangan","level":"barangay-label","municipality_psgc_code":"054116000","municipality_name":"Pio v. Corpuz"},"geometry":{"type":"Point","coordinates":[124.06744764150005,11.836018216500065]}},{"type":"Feature","properties":{"psgc_code":"054116009","name":"Guindawahan","level":"barangay-label","municipality_psgc_code":"054116000","municipality_name":"Pio v. Corpuz"},"geometry":{"type":"Point","coordinates":[124.01556311850004,11.878172222000046]}},{"type":"Feature","properties":{"psgc_code":"054116010","name":"Labigan","level":"barangay-label","municipality_psgc_code":"054116000","municipality_name":"Pio v. Corpuz"},"geometry":{"type":"Point","coordinates":[124.02797615800006,11.873722904000031]}},{"type":"Feature","properties":{"psgc_code":"054116011","name":"Lampuyang","level":"barangay-label","municipality_psgc_code":"054116000","municipality_name":"Pio v. Corpuz"},"geometry":{"type":"Point","coordinates":[123.99490909300005,11.921741863000051]}},{"type":"Feature","properties":{"psgc_code":"054116012","name":"Mabuhay","level":"barangay-label","municipality_psgc_code":"054116000","municipality_name":"Pio v. Corpuz"},"geometry":{"type":"Point","coordinates":[124.03582011150007,11.78835431300007]}},{"type":"Feature","properties":{"psgc_code":"054116014","name":"Palho","level":"barangay-label","municipality_psgc_code":"054116000","municipality_name":"Pio v. Corpuz"},"geometry":{"type":"Point","coordinates":[124.01950501800007,11.92584136900004]}},{"type":"Feature","properties":{"psgc_code":"054116015","name":"Poblacion","level":"barangay-label","municipality_psgc_code":"054116000","municipality_name":"Pio v. Corpuz"},"geometry":{"type":"Point","coordinates":[124.0450700940001,11.878121530000042]}},{"type":"Feature","properties":{"psgc_code":"054116016","name":"Salvacion","level":"barangay-label","municipality_psgc_code":"054116000","municipality_name":"Pio v. Corpuz"},"geometry":{"type":"Point","coordinates":[124.05126129600006,11.811522502000061]}},{"type":"Feature","properties":{"psgc_code":"054116017","name":"Tanque","level":"barangay-label","municipality_psgc_code":"054116000","municipality_name":"Pio v. Corpuz"},"geometry":{"type":"Point","coordinates":[124.05849666350002,11.762023661000029]}},{"type":"Feature","properties":{"psgc_code":"054116018","name":"Tubigan","level":"barangay-label","municipality_psgc_code":"054116000","municipality_name":"Pio v. Corpuz"},"geometry":{"type":"Point","coordinates":[124.06670436250005,11.748004942000023]}},{"type":"Feature","properties":{"psgc_code":"054116019","name":"Tubog","level":"barangay-label","municipality_psgc_code":"054116000","municipality_name":"Pio v. Corpuz"},"geometry":{"type":"Point","coordinates":[124.03200754000004,11.857191013500056]}}]}
