{"type":"FeatureCollection","features":[{"type":"Feature","properties":{"psgc_code":"054115001","name":"Antipolo","level":"barangay-label","municipality_psgc_code":"054115000","municipality_name":"Palanas"},"geometry":{"type":"Point","coordinates":[123.8646187380001,12.033331827500064]}},{"type":"Feature","properties":{"psgc_code":"054115003","name":"Banco","level":"barangay-label","municipality_psgc_code":"054115000","municipality_name":"Palanas"},"geometry":{"type":"Point","coordinates":[123.9314802615001,12.072183845500064]}},{"type":"Feature","properties":{"psgc_code":"054115004","name":"Biga-a","level":"barangay-label","municipality_psgc_code":"054115000","municipality_name":"Palanas"},"geometry":{"type":"Point","coordinates":[123.90513227600002,12.089140486500071]}},{"type":"Feature","properties":{"psgc_code":"054115005","name":"Bontod","level":"barangay-label","municipality_psgc_code":"054115000","municipality_name":"Palanas"},"geometry":{"type":"Point","coordinates":[123.90125810100005,12.176369793500074]}},{"type":"Feature","properties":{"psgc_code":"054115006","name":"Buenasuerte","level":"barangay-label","municipality_psgc_code":"054115000","municipality_name":"Palanas"},"geometry":{"type":"Point","coordinates":[123.8759736295001,12.133006243500034]}},{"type":"Feature","properties":{"psgc_code":"054115007","name":"Intusan","level":"barangay-label","municipality_psgc_code":"054115000","municipality_name":"Palanas"},"geometry":{"type":"Point","coordinates":[123.87929250850004,12.069653410500052]}},{"type":"Feature","properties":{"psgc_code":"054115008","name":"Jose A. Abenir Sr.","level":"barangay-label","municipality_psgc_code":"054115000","municipality_name":"Palanas"},"geometry":{"type":"Point","coordinates":[123.91895641150006,12.125298950500051]}},{"type":"Feature","properties":{"psgc_code":"054115009","name":"Maanahao","level":"barangay-label","municipality_psgc_code":"054115000","municipality_name":"Palanas"},"geometry":{"type":"Point","coordinates":[123.91124383600004,12.048954586500031]}},{"type":"Feature","properties":{"psgc_code":"054115010","name":"Mabini","level":"barangay-label","municipality_psgc_code":"054115000","municipality_name":"Palanas"},"geometry":{"type":"Point","coordinates":[123.8814339115001,12.044121264500037]}},{"type":"Feature","properties":{"psgc_code":"054115011","name":"Malibas","level":"barangay-label","municipality_psgc_code":"054115000","municipality_name":"Palanas"},"geometry":{"type":"Point","coordinates":[123.89895816350003,12.130429170500037]}},{"type":"Feature","properties":{"psgc_code":"054115012","name":"Maravilla","level":"barangay-label","municipality_psgc_code":"054115000","municipality_name":"Palanas"},"geometry":{"type":"Point","coordinates":[123.91256456850004,12.156417881000039]}},{"type":"Feature","properties":{"psgc_code":"054115013","name":"Matugnao","level":"barangay-label","municipality_psgc_code":"054115000","municipality_name":"Palanas"},"geometry":{"type":"Point","coordinates":[123.92784962000007,12.099070834500054]}},{"type":"Feature","properties":{"psgc_code":"054115014","name":"Miabas","level":"barangay-label","municipality_psgc_code":"054115000","municipality_name":"Palanas"},"geometry":{"type":"Point","coordinates":[123.85823105550008,12.071549981500025]}},{"type":"Feature","properties":{"psgc_code":"054115015","name":"Nabangig","level":"barangay-label","municipality_psgc_code":"054115000","municipality_name":"Palanas"},"geometry":{"type":"Point","coordinates":[123.9461608045001,12.098512480000068]}},{"type":"Feature","properties":{"psgc_code":"054115016","name":"Nipa","level":"barangay-label","municipality_psgc_code":"054115000","municipality_name":"Palanas"},"geometry":{"type":"Point","coordinates":[123.93526866800005,12.127541521500035]}},{"type":"Feature","properties":{"psgc_code":"054115017","name":"Parina","level":"barangay-label","municipality_psgc_code":"054115000","municipality_name":"Palanas"},"geometry":{"type":"Point","coordinates":[123.90190706250007,12.113755490000045]}},{"type":"Feature","properties":{"psgc_code":"054115018","name":"Pi\u00f1a","level":"barangay-label","municipality_psgc_code":"054115000","municipality_name":"Palanas"},"geometry":{"type":"Point","coordinates":[123.92399716500006,12.084276127500058]}},{"type":"Feature","properties":{"psgc_code":"054115019","name":"Poblacion","level":"barangay-label","municipality_psgc_code":"054115000","municipality_name":"Palanas"},"geometry":{"type":"Point","coordinates":[123.92349279450008,12.142665232000041]}},{"type":"Feature","properties":{"psgc_code":"054115020","name":"Salvacion","level":"barangay-label","municipality_psgc_code":"054115000","municipality_name":"Palanas"},"geometry":{"type":"Point","coordinates":[123.89674448400007,12.069669020500044]}},{"type":"Feature","properties":{"psgc_code":"054115021","name":"San Antonio","level":"barangay-label","municipality_psgc_code":"054115000","municipality_name":"Palanas"},"geometry":{"type":"Point","coordinates":[123.8707317740001,12.112993089500064]}},{"type":"Feature","properties":{"psgc_code":"054115022","name":"San Carlos","level":"barangay-label","municipality_psgc_code":"054115000","municipality_name":"Palanas"},"geometry":{"type":"Point","coordinates":[123.91354732950009,12.071961503500061]}},{"type":"Feature","properties":{"psgc_code":"054115023","name":"San Isidro","level":"barangay-label","municipality_psgc_code":"054115000","municipality_name":"Palanas"},"geometry":{"type":"Point","coordinates":[123.8810826295001,12.09423910350003]}},{"type":"Feature","properties":{"psgc_code":"054115024","name":"Santa Cruz","level":"barangay-label","municipality_psgc_code":"054115000","municipality_name":"Palanas"},"geometry":{"type":"Point","coordinates":[123.88931978350003,12.153859015500045]}},{"type":"Feature","properties":{"psgc_code":"054115025","name":"Malatawan","level":"barangay-label","municipality_psgc_code":"054115000","municipality_name":"Palanas"},"geometry":{"type":"Point","coordinates":[123.85833689750007,12.04721717450005]}}]}
