{"type":"FeatureCollection","features":[{"type":"Feature","properties":{"psgc_code":"054114001","name":"Cantorna","level":"barangay-label","municipality_psgc_code":"054114000","municipality_name":"Monreal"},"geometry":{"type":"Point","coordinates":[123.6330240910001,12.599783530500048]}},{"type":"Feature","properties":{"psgc_code":"054114002","name":"Famosa","level":"barangay-label","municipality_psgc_code":"054114000","municipality_name":"Monreal"},"geometry":{"type":"Point","coordinates":[123.68989105350003,12.626583325000041]}},{"type":"Feature","properties":{"psgc_code":"054114003","name":"Macarthur","level":"barangay-label","municipality_psgc_code":"054114000","municipality_name":"Monreal"},"geometry":{"type":"Point","coordinates":[123.59737027050005,12.642770102000071]}},{"type":"Feature","properties":{"psgc_code":"054114004","name":"Maglambong","level":"barangay-label","municipality_psgc_code":"054114000","municipality_name":"Monreal"},"geometry":{"type":"Point","coordinates":[123.62748037850008,12.638500469000036]}},{"type":"Feature","properties":{"psgc_code":"054114005","name":"Morocborocan","level":"barangay-label","municipality_psgc_code":"054114000","municipality_name":"Monreal"},"geometry":{"type":"Point","coordinates":[123.63827664200011,12.656590322000028]}},{"type":"Feature","properties":{"psgc_code":"054114006","name":"Poblacion","level":"barangay-label","municipality_psgc_code":"054114000","municipality_name":"Monreal"},"geometry":{"type":"Point","coordinates":[123.65790059500004,12.639769790500026]}},{"type":"Feature","properties":{"psgc_code":"054114007","name":"Guinhadap","level":"barangay-label","municipality_psgc_code":"054114000","municipality_name":"Monreal"},"geometry":{"type":"Point","coordinates":[123.61397254700006,12.68701962000003]}},{"type":"Feature","properties":{"psgc_code":"054114008","name":"Real","level":"barangay-label","municipality_psgc_code":"054114000","municipality_name":"Monreal"},"geometry":{"type":"Point","coordinates":[123.66314944700002,12.618475549000038]}},{"type":"Feature","properties":{"psgc_code":"054114009","name":"Rizal","level":"barangay-label","municipality_psgc_code":"054114000","municipality_name":"Monreal"},"geometry":{"type":"Point","coordinates":[123.67537153650005,12.607552765500028]}},{"type":"Feature","properties":{"psgc_code":"054114010","name":"Santo Ni\u00f1o","level":"barangay-label","municipality_psgc_code":"054114000","municipality_name":"Monreal"},"geometry":{"type":"Point","coordinates":[123.60493805750002,12.612083626000041]}},{"type":"Feature","properties":{"psgc_code":"054114011","name":"Togoron","level":"barangay-label","municipality_psgc_code":"054114000","municipality_name":"Monreal"},"geometry":{"type":"Point","coordinates":[123.6251979385001,12.594478070000036]}}]}
