{"type":"FeatureCollection","features":[{"type":"Feature","properties":{"psgc_code":"054108001","name":"Balantay","level":"barangay-label","municipality_psgc_code":"054108000","municipality_name":"Dimasalang"},"geometry":{"type":"Point","coordinates":[123.84254588050003,12.14288155850005]}},{"type":"Feature","properties":{"psgc_code":"054108002","name":"Balocawe","level":"barangay-label","municipality_psgc_code":"054108000","municipality_name":"Dimasalang"},"geometry":{"type":"Point","coordinates":[123.83483087950009,12.20161311700005]}},{"type":"Feature","properties":{"psgc_code":"054108003","name":"Banahao","level":"barangay-label","municipality_psgc_code":"054108000","municipality_name":"Dimasalang"},"geometry":{"type":"Point","coordinates":[123.84804716950005,12.191459123500067]}},{"type":"Feature","properties":{"psgc_code":"054108004","name":"Buenaflor","level":"barangay-label","municipality_psgc_code":"054108000","municipality_name":"Dimasalang"},"geometry":{"type":"Point","coordinates":[123.83005118000005,12.087689275500054]}},{"type":"Feature","properties":{"psgc_code":"054108005","name":"Buracan","level":"barangay-label","municipality_psgc_code":"054108000","municipality_name":"Dimasalang"},"geometry":{"type":"Point","coordinates":[123.84235791800006,12.12354208700006]}},{"type":"Feature","properties":{"psgc_code":"054108006","name":"Cabanoyoan","level":"barangay-label","municipality_psgc_code":"054108000","municipality_name":"Dimasalang"},"geometry":{"type":"Point","coordinates":[123.84800404950005,12.086670110000057]}},{"type":"Feature","properties":{"psgc_code":"054108007","name":"Cabrera","level":"barangay-label","municipality_psgc_code":"054108000","municipality_name":"Dimasalang"},"geometry":{"type":"Point","coordinates":[123.8604220630001,12.097009747500037]}},{"type":"Feature","properties":{"psgc_code":"054108008","name":"Cadulan","level":"barangay-label","municipality_psgc_code":"054108000","municipality_name":"Dimasalang"},"geometry":{"type":"Point","coordinates":[123.88297524050007,12.208860587500027]}},{"type":"Feature","properties":{"psgc_code":"054108009","name":"Calabad","level":"barangay-label","municipality_psgc_code":"054108000","municipality_name":"Dimasalang"},"geometry":{"type":"Point","coordinates":[123.85678682400004,12.171564476500066]}},{"type":"Feature","properties":{"psgc_code":"054108010","name":"Canomay","level":"barangay-label","municipality_psgc_code":"054108000","municipality_name":"Dimasalang"},"geometry":{"type":"Point","coordinates":[123.86356013200003,12.193809186500033]}},{"type":"Feature","properties":{"psgc_code":"054108011","name":"Divisoria","level":"barangay-label","municipality_psgc_code":"054108000","municipality_name":"Dimasalang"},"geometry":{"type":"Point","coordinates":[123.88299725150006,12.18978055450006]}},{"type":"Feature","properties":{"psgc_code":"054108012","name":"Gaid","level":"barangay-label","municipality_psgc_code":"054108000","municipality_name":"Dimasalang"},"geometry":{"type":"Point","coordinates":[123.8793646855001,12.171796223500051]}},{"type":"Feature","properties":{"psgc_code":"054108013","name":"Gregorio Alino","level":"barangay-label","municipality_psgc_code":"054108000","municipality_name":"Dimasalang"},"geometry":{"type":"Point","coordinates":[123.86453897500002,12.18271293500004]}},{"type":"Feature","properties":{"psgc_code":"054108014","name":"Magcaraguit","level":"barangay-label","municipality_psgc_code":"054108000","municipality_name":"Dimasalang"},"geometry":{"type":"Point","coordinates":[123.84849155200004,12.249508152000061]}},{"type":"Feature","properties":{"psgc_code":"054108015","name":"Mambog","level":"barangay-label","municipality_psgc_code":"054108000","municipality_name":"Dimasalang"},"geometry":{"type":"Point","coordinates":[123.83185873550008,12.113778433500045]}},{"type":"Feature","properties":{"psgc_code":"054108016","name":"Poblacion","level":"barangay-label","municipality_psgc_code":"054108000","municipality_name":"Dimasalang"},"geometry":{"type":"Point","coordinates":[123.85773423800009,12.189877154000044]}},{"type":"Feature","properties":{"psgc_code":"054108017","name":"Rizal","level":"barangay-label","municipality_psgc_code":"054108000","municipality_name":"Dimasalang"},"geometry":{"type":"Point","coordinates":[123.86469624350008,12.15336986050005]}},{"type":"Feature","properties":{"psgc_code":"054108018","name":"San Vicente","level":"barangay-label","municipality_psgc_code":"054108000","municipality_name":"Dimasalang"},"geometry":{"type":"Point","coordinates":[123.84277728200004,12.16702309400003]}},{"type":"Feature","properties":{"psgc_code":"054108019","name":"Suba","level":"barangay-label","municipality_psgc_code":"054108000","municipality_name":"Dimasalang"},"geometry":{"type":"Point","coordinates":[123.87294560100003,12.199472366500032]}},{"type":"Feature","properties":{"psgc_code":"054108020","name":"T.R. Yangco","level":"barangay-label","municipality_psgc_code":"054108000","municipality_name":"Dimasalang"},"geometry":{"type":"Point","coordinates":[123.86981882400005,12.211658587000045]}}]}
