{"type":"FeatureCollection","features":[{"type":"Feature","properties":{"psgc_code":"054120001","name":"Boca Chica","level":"barangay-label","municipality_psgc_code":"054120000","municipality_name":"San Pascual"},"geometry":{"type":"Point","coordinates":[122.95186005000005,13.112107330500066]}},{"type":"Feature","properties":{"psgc_code":"054120002","name":"Bolod (Pob.)","level":"barangay-label","municipality_psgc_code":"054120000","municipality_name":"San Pascual"},"geometry":{"type":"Point","coordinates":[122.98979968300006,13.109058165500045]}},{"type":"Feature","properties":{"psgc_code":"054120003","name":"Busing","level":"barangay-label","municipality_psgc_code":"054120000","municipality_name":"San Pascual"},"geometry":{"type":"Point","coordinates":[122.9572530375001,13.154681266000068]}},{"type":"Feature","properties":{"psgc_code":"054120004","name":"Dangcalan","level":"barangay-label","municipality_psgc_code":"054120000","municipality_name":"San Pascual"},"geometry":{"type":"Point","coordinates":[123.06405988700004,13.07259505500005]}},{"type":"Feature","properties":{"psgc_code":"054120005","name":"Halabangbaybay","level":"barangay-label","municipality_psgc_code":"054120000","municipality_name":"San Pascual"},"geometry":{"type":"Point","coordinates":[123.09525630500008,13.031767254000044]}},{"type":"Feature","properties":{"psgc_code":"054120006","name":"Iniwaran","level":"barangay-label","municipality_psgc_code":"054120000","municipality_name":"San Pascual"},"geometry":{"type":"Point","coordinates":[122.87011077100004,13.156761217500048]}},{"type":"Feature","properties":{"psgc_code":"054120007","name":"Ki-Buaya","level":"barangay-label","municipality_psgc_code":"054120000","municipality_name":"San Pascual"},"geometry":{"type":"Point","coordinates":[123.10269459900007,12.976480088000045]}},{"type":"Feature","properties":{"psgc_code":"054120008","name":"Ki-Romero","level":"barangay-label","municipality_psgc_code":"054120000","municipality_name":"San Pascual"},"geometry":{"type":"Point","coordinates":[123.02514795950003,13.017994180000045]}},{"type":"Feature","properties":{"psgc_code":"054120009","name":"Laurente","level":"barangay-label","municipality_psgc_code":"054120000","municipality_name":"San Pascual"},"geometry":{"type":"Point","coordinates":[123.02320646700008,13.129309530500052]}},{"type":"Feature","properties":{"psgc_code":"054120010","name":"Mabini","level":"barangay-label","municipality_psgc_code":"054120000","municipality_name":"San Pascual"},"geometry":{"type":"Point","coordinates":[122.98764599900005,13.027573599500041]}},{"type":"Feature","properties":{"psgc_code":"054120011","name":"Mabuhay","level":"barangay-label","municipality_psgc_code":"054120000","municipality_name":"San Pascual"},"geometry":{"type":"Point","coordinates":[122.9696945285001,13.04242911050005]}},{"type":"Feature","properties":{"psgc_code":"054120013","name":"Mapanique","level":"barangay-label","municipality_psgc_code":"054120000","municipality_name":"San Pascual"},"geometry":{"type":"Point","coordinates":[123.06317341400006,13.031236996000047]}},{"type":"Feature","properties":{"psgc_code":"054120014","name":"Nazareno","level":"barangay-label","municipality_psgc_code":"054120000","municipality_name":"San Pascual"},"geometry":{"type":"Point","coordinates":[122.99739957500009,13.139045153500035]}},{"type":"Feature","properties":{"psgc_code":"054120015","name":"Pinamasingan","level":"barangay-label","municipality_psgc_code":"054120000","municipality_name":"San Pascual"},"geometry":{"type":"Point","coordinates":[123.02249273450002,13.109440734000064]}},{"type":"Feature","properties":{"psgc_code":"054120016","name":"Quintina","level":"barangay-label","municipality_psgc_code":"054120000","municipality_name":"San Pascual"},"geometry":{"type":"Point","coordinates":[123.12373046350007,13.00298790150006]}},{"type":"Feature","properties":{"psgc_code":"054120019","name":"San Jose","level":"barangay-label","municipality_psgc_code":"054120000","municipality_name":"San Pascual"},"geometry":{"type":"Point","coordinates":[123.08911888500006,12.98818348900005]}},{"type":"Feature","properties":{"psgc_code":"054120020","name":"San Pedro","level":"barangay-label","municipality_psgc_code":"054120000","municipality_name":"San Pascual"},"geometry":{"type":"Point","coordinates":[123.01724193250004,13.057186974000047]}},{"type":"Feature","properties":{"psgc_code":"054120021","name":"San Rafael","level":"barangay-label","municipality_psgc_code":"054120000","municipality_name":"San Pascual"},"geometry":{"type":"Point","coordinates":[122.9673261365001,13.092635669500051]}},{"type":"Feature","properties":{"psgc_code":"054120022","name":"Santa Cruz","level":"barangay-label","municipality_psgc_code":"054120000","municipality_name":"San Pascual"},"geometry":{"type":"Point","coordinates":[122.96825531450008,13.067155326000034]}},{"type":"Feature","properties":{"psgc_code":"054120023","name":"Terraplin (Pob.)","level":"barangay-label","municipality_psgc_code":"054120000","municipality_name":"San Pascual"},"geometry":{"type":"Point","coordinates":[122.98086778250001,13.133516026000052]}},{"type":"Feature","properties":{"psgc_code":"054120024","name":"Cueva","level":"barangay-label","municipality_psgc_code":"054120000","municipality_name":"San Pascual"},"geometry":{"type":"Point","coordinates":[123.04920578200006,13.101896405500042]}},{"type":"Feature","properties":{"psgc_code":"054120025","name":"Malaking Ilog","level":"barangay-label","municipality_psgc_code":"054120000","municipality_name":"San Pascual"},"geometry":{"type":"Point","coordinates":[123.05365939650007,13.009924603500053]}}]}
