{"type":"FeatureCollection","features":[{"type":"Feature","properties":{"psgc_code":"054110001","name":"Alas","level":"barangay-label","municipality_psgc_code":"054110000","municipality_name":"Mandaon"},"geometry":{"type":"Point","coordinates":[123.3379818560001,12.256043615000038]}},{"type":"Feature","properties":{"psgc_code":"054110002","name":"Ayat","level":"barangay-label","municipality_psgc_code":"054110000","municipality_name":"Mandaon"},"geometry":{"type":"Point","coordinates":[123.2944598470001,12.155797461000049]}},{"type":"Feature","properties":{"psgc_code":"054110003","name":"Bat-Ongan","level":"barangay-label","municipality_psgc_code":"054110000","municipality_name":"Mandaon"},"geometry":{"type":"Point","coordinates":[123.36875066250008,12.315430927500046]}},{"type":"Feature","properties":{"psgc_code":"054110004","name":"Bugtong","level":"barangay-label","municipality_psgc_code":"054110000","municipality_name":"Mandaon"},"geometry":{"type":"Point","coordinates":[123.26942455950007,12.303644240000068]}},{"type":"Feature","properties":{"psgc_code":"054110005","name":"Buri","level":"barangay-label","municipality_psgc_code":"054110000","municipality_name":"Mandaon"},"geometry":{"type":"Point","coordinates":[123.26088009850002,12.137127008500073]}},{"type":"Feature","properties":{"psgc_code":"054110006","name":"Cabitan","level":"barangay-label","municipality_psgc_code":"054110000","municipality_name":"Mandaon"},"geometry":{"type":"Point","coordinates":[123.35397549650008,12.292276999500046]}},{"type":"Feature","properties":{"psgc_code":"054110007","name":"Cagmasoso","level":"barangay-label","municipality_psgc_code":"054110000","municipality_name":"Mandaon"},"geometry":{"type":"Point","coordinates":[123.2282931145001,12.164312954500044]}},{"type":"Feature","properties":{"psgc_code":"054110008","name":"Canomoy","level":"barangay-label","municipality_psgc_code":"054110000","municipality_name":"Mandaon"},"geometry":{"type":"Point","coordinates":[123.2741649240001,12.14814312300004]}},{"type":"Feature","properties":{"psgc_code":"054110009","name":"Centro","level":"barangay-label","municipality_psgc_code":"054110000","municipality_name":"Mandaon"},"geometry":{"type":"Point","coordinates":[123.31780157750008,12.186422111500036]}},{"type":"Feature","properties":{"psgc_code":"054110010","name":"Dayao","level":"barangay-label","municipality_psgc_code":"054110000","municipality_name":"Mandaon"},"geometry":{"type":"Point","coordinates":[123.30601379100007,12.264209199500044]}},{"type":"Feature","properties":{"psgc_code":"054110011","name":"Guincaiptan","level":"barangay-label","municipality_psgc_code":"054110000","municipality_name":"Mandaon"},"geometry":{"type":"Point","coordinates":[123.23037726000007,12.228771410000062]}},{"type":"Feature","properties":{"psgc_code":"054110012","name":"Lantangan","level":"barangay-label","municipality_psgc_code":"054110000","municipality_name":"Mandaon"},"geometry":{"type":"Point","coordinates":[123.2951444680001,12.184653989500049]}},{"type":"Feature","properties":{"psgc_code":"054110013","name":"Looc","level":"barangay-label","municipality_psgc_code":"054110000","municipality_name":"Mandaon"},"geometry":{"type":"Point","coordinates":[123.25284511650005,12.10665462250003]}},{"type":"Feature","properties":{"psgc_code":"054110014","name":"Mabatobato","level":"barangay-label","municipality_psgc_code":"054110000","municipality_name":"Mandaon"},"geometry":{"type":"Point","coordinates":[123.37872712850003,12.328152208500057]}},{"type":"Feature","properties":{"psgc_code":"054110015","name":"Maolingon","level":"barangay-label","municipality_psgc_code":"054110000","municipality_name":"Mandaon"},"geometry":{"type":"Point","coordinates":[123.24617263650003,12.24646757700006]}},{"type":"Feature","properties":{"psgc_code":"054110016","name":"Nailaban","level":"barangay-label","municipality_psgc_code":"054110000","municipality_name":"Mandaon"},"geometry":{"type":"Point","coordinates":[123.27321195950003,12.251128862000058]}},{"type":"Feature","properties":{"psgc_code":"054110017","name":"Nanipsan","level":"barangay-label","municipality_psgc_code":"054110000","municipality_name":"Mandaon"},"geometry":{"type":"Point","coordinates":[123.32179623350004,12.202067596500058]}},{"type":"Feature","properties":{"psgc_code":"054110018","name":"Pinamangcaan","level":"barangay-label","municipality_psgc_code":"054110000","municipality_name":"Mandaon"},"geometry":{"type":"Point","coordinates":[123.27563402150008,12.105144303000031]}},{"type":"Feature","properties":{"psgc_code":"054110019","name":"Poblacion","level":"barangay-label","municipality_psgc_code":"054110000","municipality_name":"Mandaon"},"geometry":{"type":"Point","coordinates":[123.28323001700005,12.227287664500038]}},{"type":"Feature","properties":{"psgc_code":"054110020","name":"Polo Dacu","level":"barangay-label","municipality_psgc_code":"054110000","municipality_name":"Mandaon"},"geometry":{"type":"Point","coordinates":[123.24906753850001,12.180739510000052]}},{"type":"Feature","properties":{"psgc_code":"054110021","name":"San Juan","level":"barangay-label","municipality_psgc_code":"054110000","municipality_name":"Mandaon"},"geometry":{"type":"Point","coordinates":[123.34938433600007,12.17681669250004]}},{"type":"Feature","properties":{"psgc_code":"054110022","name":"San Pablo","level":"barangay-label","municipality_psgc_code":"054110000","municipality_name":"Mandaon"},"geometry":{"type":"Point","coordinates":[123.30389082000005,12.128705121000053]}},{"type":"Feature","properties":{"psgc_code":"054110023","name":"Santa Fe","level":"barangay-label","municipality_psgc_code":"054110000","municipality_name":"Mandaon"},"geometry":{"type":"Point","coordinates":[123.30597186700004,12.298066975000069]}},{"type":"Feature","properties":{"psgc_code":"054110024","name":"Tagpu","level":"barangay-label","municipality_psgc_code":"054110000","municipality_name":"Mandaon"},"geometry":{"type":"Point","coordinates":[123.32653560650012,12.219783597000031]}},{"type":"Feature","properties":{"psgc_code":"054110025","name":"Tumalaytay","level":"barangay-label","municipality_psgc_code":"054110000","municipality_name":"Mandaon"},"geometry":{"type":"Point","coordinates":[123.23680295550008,12.266266009000047]}},{"type":"Feature","properties":{"psgc_code":"054110026","name":"Laguinbanwa","level":"barangay-label","municipality_psgc_code":"054110000","municipality_name":"Mandaon"},"geometry":{"type":"Point","coordinates":[123.2910394750001,12.232365598500053]}}]}
