{"type":"FeatureCollection","features":[{"type":"Feature","properties":{"psgc_code":"054121001","name":"Arado","level":"barangay-label","municipality_psgc_code":"054121000","municipality_name":"Uson"},"geometry":{"type":"Point","coordinates":[123.77654405700008,12.148184415000035]}},{"type":"Feature","properties":{"psgc_code":"054121002","name":"Armenia","level":"barangay-label","municipality_psgc_code":"054121000","municipality_name":"Uson"},"geometry":{"type":"Point","coordinates":[123.73079805600008,12.253425972500054]}},{"type":"Feature","properties":{"psgc_code":"054121003","name":"Aurora","level":"barangay-label","municipality_psgc_code":"054121000","municipality_name":"Uson"},"geometry":{"type":"Point","coordinates":[123.75510937700011,12.157553500000063]}},{"type":"Feature","properties":{"psgc_code":"054121004","name":"Badling","level":"barangay-label","municipality_psgc_code":"054121000","municipality_name":"Uson"},"geometry":{"type":"Point","coordinates":[123.82469137650004,12.191452741500058]}},{"type":"Feature","properties":{"psgc_code":"054121005","name":"Bonifacio","level":"barangay-label","municipality_psgc_code":"054121000","municipality_name":"Uson"},"geometry":{"type":"Point","coordinates":[123.70570944900004,12.170215315000036]}},{"type":"Feature","properties":{"psgc_code":"054121006","name":"Buenasuerte","level":"barangay-label","municipality_psgc_code":"054121000","municipality_name":"Uson"},"geometry":{"type":"Point","coordinates":[123.77479975000004,12.18246562100003]}},{"type":"Feature","properties":{"psgc_code":"054121007","name":"Buenavista","level":"barangay-label","municipality_psgc_code":"054121000","municipality_name":"Uson"},"geometry":{"type":"Point","coordinates":[123.78583928000006,12.176665031000056]}},{"type":"Feature","properties":{"psgc_code":"054121008","name":"Campana","level":"barangay-label","municipality_psgc_code":"054121000","municipality_name":"Uson"},"geometry":{"type":"Point","coordinates":[123.81070633300004,12.08782449900005]}},{"type":"Feature","properties":{"psgc_code":"054121009","name":"Candelaria","level":"barangay-label","municipality_psgc_code":"054121000","municipality_name":"Uson"},"geometry":{"type":"Point","coordinates":[123.73089253850009,12.099960551000038]}},{"type":"Feature","properties":{"psgc_code":"054121010","name":"Centro","level":"barangay-label","municipality_psgc_code":"054121000","municipality_name":"Uson"},"geometry":{"type":"Point","coordinates":[123.72267206350006,12.226896453000052]}},{"type":"Feature","properties":{"psgc_code":"054121011","name":"Crossing","level":"barangay-label","municipality_psgc_code":"054121000","municipality_name":"Uson"},"geometry":{"type":"Point","coordinates":[123.80936544050009,12.208930080000044]}},{"type":"Feature","properties":{"psgc_code":"054121012","name":"Dapdap","level":"barangay-label","municipality_psgc_code":"054121000","municipality_name":"Uson"},"geometry":{"type":"Point","coordinates":[123.75349311150008,12.207259551500044]}},{"type":"Feature","properties":{"psgc_code":"054121013","name":"Del Carmen","level":"barangay-label","municipality_psgc_code":"054121000","municipality_name":"Uson"},"geometry":{"type":"Point","coordinates":[123.78531227450003,12.10834129500006]}},{"type":"Feature","properties":{"psgc_code":"054121014","name":"Del Rosario","level":"barangay-label","municipality_psgc_code":"054121000","municipality_name":"Uson"},"geometry":{"type":"Point","coordinates":[123.79741087900004,12.158894565000027]}},{"type":"Feature","properties":{"psgc_code":"054121015","name":"Libertad","level":"barangay-label","municipality_psgc_code":"054121000","municipality_name":"Uson"},"geometry":{"type":"Point","coordinates":[123.74440092000003,12.179781958000035]}},{"type":"Feature","properties":{"psgc_code":"054121016","name":"Madao","level":"barangay-label","municipality_psgc_code":"054121000","municipality_name":"Uson"},"geometry":{"type":"Point","coordinates":[123.68944906500008,12.198804267000043]}},{"type":"Feature","properties":{"psgc_code":"054121017","name":"Mabini","level":"barangay-label","municipality_psgc_code":"054121000","municipality_name":"Uson"},"geometry":{"type":"Point","coordinates":[123.82529938450006,12.142417968000046]}},{"type":"Feature","properties":{"psgc_code":"054121018","name":"Magsaysay","level":"barangay-label","municipality_psgc_code":"054121000","municipality_name":"Uson"},"geometry":{"type":"Point","coordinates":[123.80185547250005,12.181093966500043]}},{"type":"Feature","properties":{"psgc_code":"054121019","name":"Marcella","level":"barangay-label","municipality_psgc_code":"054121000","municipality_name":"Uson"},"geometry":{"type":"Point","coordinates":[123.7421890760001,12.234250886500035]}},{"type":"Feature","properties":{"psgc_code":"054121020","name":"Miaga","level":"barangay-label","municipality_psgc_code":"054121000","municipality_name":"Uson"},"geometry":{"type":"Point","coordinates":[123.82429340400006,12.228452260500063]}},{"type":"Feature","properties":{"psgc_code":"054121021","name":"Mongahay","level":"barangay-label","municipality_psgc_code":"054121000","municipality_name":"Uson"},"geometry":{"type":"Point","coordinates":[123.80913092450004,12.14464730250006]}},{"type":"Feature","properties":{"psgc_code":"054121022","name":"Morocborocan","level":"barangay-label","municipality_psgc_code":"054121000","municipality_name":"Uson"},"geometry":{"type":"Point","coordinates":[123.8060653070001,12.229441375000047]}},{"type":"Feature","properties":{"psgc_code":"054121023","name":"Mabuhay","level":"barangay-label","municipality_psgc_code":"054121000","municipality_name":"Uson"},"geometry":{"type":"Point","coordinates":[123.78728910600006,12.135658460000029]}},{"type":"Feature","properties":{"psgc_code":"054121024","name":"Paguihaman","level":"barangay-label","municipality_psgc_code":"054121000","municipality_name":"Uson"},"geometry":{"type":"Point","coordinates":[123.81104561250004,12.118747564500044]}},{"type":"Feature","properties":{"psgc_code":"054121025","name":"Panicijan","level":"barangay-label","municipality_psgc_code":"054121000","municipality_name":"Uson"},"geometry":{"type":"Point","coordinates":[123.76728392250004,12.198717864500054]}},{"type":"Feature","properties":{"psgc_code":"054121026","name":"Poblacion","level":"barangay-label","municipality_psgc_code":"054121000","municipality_name":"Uson"},"geometry":{"type":"Point","coordinates":[123.78866697350003,12.228574583000068]}},{"type":"Feature","properties":{"psgc_code":"054121027","name":"Quezon","level":"barangay-label","municipality_psgc_code":"054121000","municipality_name":"Uson"},"geometry":{"type":"Point","coordinates":[123.80501651550009,12.187701230500066]}},{"type":"Feature","properties":{"psgc_code":"054121028","name":"San Isidro","level":"barangay-label","municipality_psgc_code":"054121000","municipality_name":"Uson"},"geometry":{"type":"Point","coordinates":[123.76048318250008,12.131899130500045]}},{"type":"Feature","properties":{"psgc_code":"054121029","name":"San Jose","level":"barangay-label","municipality_psgc_code":"054121000","municipality_name":"Uson"},"geometry":{"type":"Point","coordinates":[123.70028198550006,12.231191937000062]}},{"type":"Feature","properties":{"psgc_code":"054121030","name":"San Mateo","level":"barangay-label","municipality_psgc_code":"054121000","municipality_name":"Uson"},"geometry":{"type":"Point","coordinates":[123.81674561750003,12.168987501500055]}},{"type":"Feature","properties":{"psgc_code":"054121031","name":"San Ramon","level":"barangay-label","municipality_psgc_code":"054121000","municipality_name":"Uson"},"geometry":{"type":"Point","coordinates":[123.73134475050006,12.134702404500047]}},{"type":"Feature","properties":{"psgc_code":"054121032","name":"San Vicente","level":"barangay-label","municipality_psgc_code":"054121000","municipality_name":"Uson"},"geometry":{"type":"Point","coordinates":[123.70981382350004,12.140577421500039]}},{"type":"Feature","properties":{"psgc_code":"054121033","name":"Santo Cristo","level":"barangay-label","municipality_psgc_code":"054121000","municipality_name":"Uson"},"geometry":{"type":"Point","coordinates":[123.79065376150004,12.216390475500045]}},{"type":"Feature","properties":{"psgc_code":"054121034","name":"Sawang","level":"barangay-label","municipality_psgc_code":"054121000","municipality_name":"Uson"},"geometry":{"type":"Point","coordinates":[123.74916032250007,12.224820971000042]}},{"type":"Feature","properties":{"psgc_code":"054121035","name":"Simawa","level":"barangay-label","municipality_psgc_code":"054121000","municipality_name":"Uson"},"geometry":{"type":"Point","coordinates":[123.72117945750006,12.20375688550004]}}]}
