{"type":"FeatureCollection","features":[{"type":"Feature","properties":{"psgc_code":"054106002","name":"Begia","level":"barangay-label","municipality_psgc_code":"054106000","municipality_name":"Cawayan"},"geometry":{"type":"Point","coordinates":[123.74138475250004,11.939543251000059]}},{"type":"Feature","properties":{"psgc_code":"054106003","name":"Cabayugan","level":"barangay-label","municipality_psgc_code":"054106000","municipality_name":"Cawayan"},"geometry":{"type":"Point","coordinates":[123.68324866500008,12.040261424000049]}},{"type":"Feature","properties":{"psgc_code":"054106004","name":"Cabungahan","level":"barangay-label","municipality_psgc_code":"054106000","municipality_name":"Cawayan"},"geometry":{"type":"Point","coordinates":[123.82846027200009,12.021329834000028]}},{"type":"Feature","properties":{"psgc_code":"054106005","name":"Calapayan","level":"barangay-label","municipality_psgc_code":"054106000","municipality_name":"Cawayan"},"geometry":{"type":"Point","coordinates":[123.80996958500009,12.000737402000054]}},{"type":"Feature","properties":{"psgc_code":"054106006","name":"Calumpang","level":"barangay-label","municipality_psgc_code":"054106000","municipality_name":"Cawayan"},"geometry":{"type":"Point","coordinates":[123.77373805800005,12.038399051000056]}},{"type":"Feature","properties":{"psgc_code":"054106007","name":"Dalipe","level":"barangay-label","municipality_psgc_code":"054106000","municipality_name":"Cawayan"},"geometry":{"type":"Point","coordinates":[123.74297913400005,12.03550115100006]}},{"type":"Feature","properties":{"psgc_code":"054106008","name":"Divisoria","level":"barangay-label","municipality_psgc_code":"054106000","municipality_name":"Cawayan"},"geometry":{"type":"Point","coordinates":[123.78158612900006,11.929533278000035]}},{"type":"Feature","properties":{"psgc_code":"054106009","name":"Guiom","level":"barangay-label","municipality_psgc_code":"054106000","municipality_name":"Cawayan"},"geometry":{"type":"Point","coordinates":[123.73793077600004,11.964166204000067]}},{"type":"Feature","properties":{"psgc_code":"054106010","name":"Gilotongan","level":"barangay-label","municipality_psgc_code":"054106000","municipality_name":"Cawayan"},"geometry":{"type":"Point","coordinates":[123.55425793600006,11.955297913000067]}},{"type":"Feature","properties":{"psgc_code":"054106011","name":"Itombato","level":"barangay-label","municipality_psgc_code":"054106000","municipality_name":"Cawayan"},"geometry":{"type":"Point","coordinates":[123.77324416300009,11.979286965500021]}},{"type":"Feature","properties":{"psgc_code":"054106012","name":"Libertad","level":"barangay-label","municipality_psgc_code":"054106000","municipality_name":"Cawayan"},"geometry":{"type":"Point","coordinates":[123.83543299950009,12.053473211000039]}},{"type":"Feature","properties":{"psgc_code":"054106013","name":"Looc","level":"barangay-label","municipality_psgc_code":"054106000","municipality_name":"Cawayan"},"geometry":{"type":"Point","coordinates":[123.66985497550003,11.88527908700004]}},{"type":"Feature","properties":{"psgc_code":"054106014","name":"Mactan","level":"barangay-label","municipality_psgc_code":"054106000","municipality_name":"Cawayan"},"geometry":{"type":"Point","coordinates":[123.75993431150005,12.103118514500068]}},{"type":"Feature","properties":{"psgc_code":"054106015","name":"Madbad","level":"barangay-label","municipality_psgc_code":"054106000","municipality_name":"Cawayan"},"geometry":{"type":"Point","coordinates":[123.7931975145001,11.970058791500037]}},{"type":"Feature","properties":{"psgc_code":"054106016","name":"R.M. Magbalon","level":"barangay-label","municipality_psgc_code":"054106000","municipality_name":"Cawayan"},"geometry":{"type":"Point","coordinates":[123.75278164050007,12.052680430000038]}},{"type":"Feature","properties":{"psgc_code":"054106017","name":"Mahayahay","level":"barangay-label","municipality_psgc_code":"054106000","municipality_name":"Cawayan"},"geometry":{"type":"Point","coordinates":[123.75568282300009,11.932656144500072]}},{"type":"Feature","properties":{"psgc_code":"054106018","name":"Maihao","level":"barangay-label","municipality_psgc_code":"054106000","municipality_name":"Cawayan"},"geometry":{"type":"Point","coordinates":[123.76229525300005,11.95890009000004]}},{"type":"Feature","properties":{"psgc_code":"054106019","name":"Malbug","level":"barangay-label","municipality_psgc_code":"054106000","municipality_name":"Cawayan"},"geometry":{"type":"Point","coordinates":[123.66928698250007,12.059040900500037]}},{"type":"Feature","properties":{"psgc_code":"054106020","name":"Naro","level":"barangay-label","municipality_psgc_code":"054106000","municipality_name":"Cawayan"},"geometry":{"type":"Point","coordinates":[123.66690769100006,11.897468755500029]}},{"type":"Feature","properties":{"psgc_code":"054106021","name":"Pananawan","level":"barangay-label","municipality_psgc_code":"054106000","municipality_name":"Cawayan"},"geometry":{"type":"Point","coordinates":[123.70204783150007,12.029955222500034]}},{"type":"Feature","properties":{"psgc_code":"054106022","name":"Poblacion","level":"barangay-label","municipality_psgc_code":"054106000","municipality_name":"Cawayan"},"geometry":{"type":"Point","coordinates":[123.76225170050003,11.937393915500051]}},{"type":"Feature","properties":{"psgc_code":"054106023","name":"Pulot","level":"barangay-label","municipality_psgc_code":"054106000","municipality_name":"Cawayan"},"geometry":{"type":"Point","coordinates":[123.75386112000007,12.07847238000005]}},{"type":"Feature","properties":{"psgc_code":"054106024","name":"Recodo","level":"barangay-label","municipality_psgc_code":"054106000","municipality_name":"Cawayan"},"geometry":{"type":"Point","coordinates":[123.72877895700009,11.950351479500055]}},{"type":"Feature","properties":{"psgc_code":"054106025","name":"San Jose","level":"barangay-label","municipality_psgc_code":"054106000","municipality_name":"Cawayan"},"geometry":{"type":"Point","coordinates":[123.79775206050004,12.072575481500053]}},{"type":"Feature","properties":{"psgc_code":"054106026","name":"San Vicente","level":"barangay-label","municipality_psgc_code":"054106000","municipality_name":"Cawayan"},"geometry":{"type":"Point","coordinates":[123.78051732350008,11.95424776400006]}},{"type":"Feature","properties":{"psgc_code":"054106027","name":"Taberna","level":"barangay-label","municipality_psgc_code":"054106000","municipality_name":"Cawayan"},"geometry":{"type":"Point","coordinates":[123.71325666550007,12.05666869050006]}},{"type":"Feature","properties":{"psgc_code":"054106028","name":"Talisay","level":"barangay-label","municipality_psgc_code":"054106000","municipality_name":"Cawayan"},"geometry":{"type":"Point","coordinates":[123.66366057550005,11.882783179000057]}},{"type":"Feature","properties":{"psgc_code":"054106029","name":"Tuburan","level":"barangay-label","municipality_psgc_code":"054106000","municipality_name":"Cawayan"},"geometry":{"type":"Point","coordinates":[123.80488346700008,12.043846891000044]}},{"type":"Feature","properties":{"psgc_code":"054106030","name":"Villahermosa","level":"barangay-label","municipality_psgc_code":"054106000","municipality_name":"Cawayan"},"geometry":{"type":"Point","coordinates":[123.80624255700008,11.96440539350004]}},{"type":"Feature","properties":{"psgc_code":"054106031","name":"Chico Island","level":"barangay-label","municipality_psgc_code":"054106000","municipality_name":"Cawayan"},"geometry":{"type":"Point","coordinates":[123.60931501600004,11.932558314000062]}},{"type":"Feature","properties":{"psgc_code":"054106032","name":"Lague-lague","level":"barangay-label","municipality_psgc_code":"054106000","municipality_name":"Cawayan"},"geometry":{"type":"Point","coordinates":[123.73425675950006,12.080645855500052]}},{"type":"Feature","properties":{"psgc_code":"054106033","name":"Palobandera","level":"barangay-label","municipality_psgc_code":"054106000","municipality_name":"Cawayan"},"geometry":{"type":"Point","coordinates":[123.7772919740001,12.06603950050004]}},{"type":"Feature","properties":{"psgc_code":"054106034","name":"Pe\u00f1a Island","level":"barangay-label","municipality_psgc_code":"054106000","municipality_name":"Cawayan"},"geometry":{"type":"Point","coordinates":[123.63467932300007,12.019438895500059]}},{"type":"Feature","properties":{"psgc_code":"054106035","name":"Pin-As","level":"barangay-label","municipality_psgc_code":"054106000","municipality_name":"Cawayan"},"geometry":{"type":"Point","coordinates":[123.73915256700002,11.98840048300005]}},{"type":"Feature","properties":{"psgc_code":"054106036","name":"Iraya","level":"barangay-label","municipality_psgc_code":"054106000","municipality_name":"Cawayan"},"geometry":{"type":"Point","coordinates":[123.77372598600004,12.007200281000053]}},{"type":"Feature","properties":{"psgc_code":"054106037","name":"Punta Batsan","level":"barangay-label","municipality_psgc_code":"054106000","municipality_name":"Cawayan"},"geometry":{"type":"Point","coordinates":[123.67084988150003,11.87528965100006]}},{"type":"Feature","properties":{"psgc_code":"054106038","name":"Tubog","level":"barangay-label","municipality_psgc_code":"054106000","municipality_name":"Cawayan"},"geometry":{"type":"Point","coordinates":[123.78823864550003,11.94264589200003]}}]}
