{"type":"FeatureCollection","features":[{"type":"Feature","properties":{"psgc_code":"054102001","name":"Baao","level":"barangay-label","municipality_psgc_code":"054102000","municipality_name":"Baleno"},"geometry":{"type":"Point","coordinates":[123.46605525450002,12.464941726500058]}},{"type":"Feature","properties":{"psgc_code":"054102002","name":"Banase","level":"barangay-label","municipality_psgc_code":"054102000","municipality_name":"Baleno"},"geometry":{"type":"Point","coordinates":[123.46724774300003,12.44259002700005]}},{"type":"Feature","properties":{"psgc_code":"054102003","name":"Batuila","level":"barangay-label","municipality_psgc_code":"054102000","municipality_name":"Baleno"},"geometry":{"type":"Point","coordinates":[123.48188258650009,12.460245408000048]}},{"type":"Feature","properties":{"psgc_code":"054102004","name":"Cagara","level":"barangay-label","municipality_psgc_code":"054102000","municipality_name":"Baleno"},"geometry":{"type":"Point","coordinates":[123.49044765600007,12.435312904500051]}},{"type":"Feature","properties":{"psgc_code":"054102005","name":"Cagpandan","level":"barangay-label","municipality_psgc_code":"054102000","municipality_name":"Baleno"},"geometry":{"type":"Point","coordinates":[123.43929761800007,12.508515448500049]}},{"type":"Feature","properties":{"psgc_code":"054102006","name":"Cancahorao","level":"barangay-label","municipality_psgc_code":"054102000","municipality_name":"Baleno"},"geometry":{"type":"Point","coordinates":[123.48498655300006,12.362637936000056]}},{"type":"Feature","properties":{"psgc_code":"054102007","name":"Canjunday","level":"barangay-label","municipality_psgc_code":"054102000","municipality_name":"Baleno"},"geometry":{"type":"Point","coordinates":[123.52202850950005,12.396469404500039]}},{"type":"Feature","properties":{"psgc_code":"054102008","name":"Docol","level":"barangay-label","municipality_psgc_code":"054102000","municipality_name":"Baleno"},"geometry":{"type":"Point","coordinates":[123.45548818100008,12.471954361500053]}},{"type":"Feature","properties":{"psgc_code":"054102009","name":"Eastern Capsay","level":"barangay-label","municipality_psgc_code":"054102000","municipality_name":"Baleno"},"geometry":{"type":"Point","coordinates":[123.44150481000008,12.436659932000055]}},{"type":"Feature","properties":{"psgc_code":"054102010","name":"Gabi","level":"barangay-label","municipality_psgc_code":"054102000","municipality_name":"Baleno"},"geometry":{"type":"Point","coordinates":[123.47064287400009,12.400463642000034]}},{"type":"Feature","properties":{"psgc_code":"054102011","name":"Gangao","level":"barangay-label","municipality_psgc_code":"054102000","municipality_name":"Baleno"},"geometry":{"type":"Point","coordinates":[123.50952008700006,12.414520962500035]}},{"type":"Feature","properties":{"psgc_code":"054102012","name":"Lagta","level":"barangay-label","municipality_psgc_code":"054102000","municipality_name":"Baleno"},"geometry":{"type":"Point","coordinates":[123.50897223050009,12.430228485500066]}},{"type":"Feature","properties":{"psgc_code":"054102013","name":"Lahong Proper","level":"barangay-label","municipality_psgc_code":"054102000","municipality_name":"Baleno"},"geometry":{"type":"Point","coordinates":[123.4596247825001,12.49945407450005]}},{"type":"Feature","properties":{"psgc_code":"054102014","name":"Lahong Interior","level":"barangay-label","municipality_psgc_code":"054102000","municipality_name":"Baleno"},"geometry":{"type":"Point","coordinates":[123.44489275950008,12.482428747000029]}},{"type":"Feature","properties":{"psgc_code":"054102015","name":"Lipata","level":"barangay-label","municipality_psgc_code":"054102000","municipality_name":"Baleno"},"geometry":{"type":"Point","coordinates":[123.50662023650011,12.464482851500065]}},{"type":"Feature","properties":{"psgc_code":"054102016","name":"Madangcalan","level":"barangay-label","municipality_psgc_code":"054102000","municipality_name":"Baleno"},"geometry":{"type":"Point","coordinates":[123.52814905650007,12.450612562500055]}},{"type":"Feature","properties":{"psgc_code":"054102017","name":"Magdalena","level":"barangay-label","municipality_psgc_code":"054102000","municipality_name":"Baleno"},"geometry":{"type":"Point","coordinates":[123.5469862970001,12.45124380650006]}},{"type":"Feature","properties":{"psgc_code":"054102018","name":"Manoboc","level":"barangay-label","municipality_psgc_code":"054102000","municipality_name":"Baleno"},"geometry":{"type":"Point","coordinates":[123.44836043450005,12.506228467000057]}},{"type":"Feature","properties":{"psgc_code":"054102019","name":"Obongon Diot","level":"barangay-label","municipality_psgc_code":"054102000","municipality_name":"Baleno"},"geometry":{"type":"Point","coordinates":[123.53190265100005,12.429233176500048]}},{"type":"Feature","properties":{"psgc_code":"054102020","name":"Poblacion","level":"barangay-label","municipality_psgc_code":"054102000","municipality_name":"Baleno"},"geometry":{"type":"Point","coordinates":[123.49456290850007,12.469493070000025]}},{"type":"Feature","properties":{"psgc_code":"054102021","name":"Polot","level":"barangay-label","municipality_psgc_code":"054102000","municipality_name":"Baleno"},"geometry":{"type":"Point","coordinates":[123.5183380525001,12.454370159500058]}},{"type":"Feature","properties":{"psgc_code":"054102022","name":"Potoson","level":"barangay-label","municipality_psgc_code":"054102000","municipality_name":"Baleno"},"geometry":{"type":"Point","coordinates":[123.4855750440001,12.474416826000063]}},{"type":"Feature","properties":{"psgc_code":"054102023","name":"Sog-Ong","level":"barangay-label","municipality_psgc_code":"054102000","municipality_name":"Baleno"},"geometry":{"type":"Point","coordinates":[123.50746963100005,12.449420273500037]}},{"type":"Feature","properties":{"psgc_code":"054102024","name":"Tinapian","level":"barangay-label","municipality_psgc_code":"054102000","municipality_name":"Baleno"},"geometry":{"type":"Point","coordinates":[123.46891099900007,12.485910354000055]}}]}
