{"type":"FeatureCollection","features":[{"type":"Feature","properties":{"psgc_code":"054112001","name":"Bacolod","level":"barangay-label","municipality_psgc_code":"054112000","municipality_name":"Milagros"},"geometry":{"type":"Point","coordinates":[123.50397077850005,12.235335909000042]}},{"type":"Feature","properties":{"psgc_code":"054112002","name":"Bangad","level":"barangay-label","municipality_psgc_code":"054112000","municipality_name":"Milagros"},"geometry":{"type":"Point","coordinates":[123.39149560750008,12.173468993000057]}},{"type":"Feature","properties":{"psgc_code":"054112003","name":"Bara","level":"barangay-label","municipality_psgc_code":"054112000","municipality_name":"Milagros"},"geometry":{"type":"Point","coordinates":[123.62379125600008,12.087375225000045]}},{"type":"Feature","properties":{"psgc_code":"054112004","name":"Bonbon","level":"barangay-label","municipality_psgc_code":"054112000","municipality_name":"Milagros"},"geometry":{"type":"Point","coordinates":[123.50428643200007,12.280376502500046]}},{"type":"Feature","properties":{"psgc_code":"054112005","name":"Calasuche","level":"barangay-label","municipality_psgc_code":"054112000","municipality_name":"Milagros"},"geometry":{"type":"Point","coordinates":[123.53890796650006,12.212720421500048]}},{"type":"Feature","properties":{"psgc_code":"054112006","name":"Calumpang","level":"barangay-label","municipality_psgc_code":"054112000","municipality_name":"Milagros"},"geometry":{"type":"Point","coordinates":[123.35957046600004,12.129525473500024]}},{"type":"Feature","properties":{"psgc_code":"054112007","name":"Capaculan","level":"barangay-label","municipality_psgc_code":"054112000","municipality_name":"Milagros"},"geometry":{"type":"Point","coordinates":[123.46216573600009,12.231223671000036]}},{"type":"Feature","properties":{"psgc_code":"054112008","name":"Cayabon","level":"barangay-label","municipality_psgc_code":"054112000","municipality_name":"Milagros"},"geometry":{"type":"Point","coordinates":[123.53183368450004,12.259028672000056]}},{"type":"Feature","properties":{"psgc_code":"054112009","name":"Guinluthangan","level":"barangay-label","municipality_psgc_code":"054112000","municipality_name":"Milagros"},"geometry":{"type":"Point","coordinates":[123.54756645900005,12.039331101000073]}},{"type":"Feature","properties":{"psgc_code":"054112010","name":"Jamorawon","level":"barangay-label","municipality_psgc_code":"054112000","municipality_name":"Milagros"},"geometry":{"type":"Point","coordinates":[123.59048607300008,12.22092564950006]}},{"type":"Feature","properties":{"psgc_code":"054112011","name":"Magsalangi","level":"barangay-label","municipality_psgc_code":"054112000","municipality_name":"Milagros"},"geometry":{"type":"Point","coordinates":[123.58275693300004,12.181522926000042]}},{"type":"Feature","properties":{"psgc_code":"054112012","name":"Matagbac","level":"barangay-label","municipality_psgc_code":"054112000","municipality_name":"Milagros"},"geometry":{"type":"Point","coordinates":[123.68101187400003,12.107262301500043]}},{"type":"Feature","properties":{"psgc_code":"054112013","name":"Matanglad","level":"barangay-label","municipality_psgc_code":"054112000","municipality_name":"Milagros"},"geometry":{"type":"Point","coordinates":[123.46615578700005,12.287310644500053]}},{"type":"Feature","properties":{"psgc_code":"054112014","name":"Matiporon","level":"barangay-label","municipality_psgc_code":"054112000","municipality_name":"Milagros"},"geometry":{"type":"Point","coordinates":[123.44750187000011,12.27565329150005]}},{"type":"Feature","properties":{"psgc_code":"054112015","name":"Moises R. Espinosa","level":"barangay-label","municipality_psgc_code":"054112000","municipality_name":"Milagros"},"geometry":{"type":"Point","coordinates":[123.42091257200002,12.314171700500054]}},{"type":"Feature","properties":{"psgc_code":"054112016","name":"Narangasan","level":"barangay-label","municipality_psgc_code":"054112000","municipality_name":"Milagros"},"geometry":{"type":"Point","coordinates":[123.4198352515001,12.250997448000048]}},{"type":"Feature","properties":{"psgc_code":"054112018","name":"Pamangpangon","level":"barangay-label","municipality_psgc_code":"054112000","municipality_name":"Milagros"},"geometry":{"type":"Point","coordinates":[123.3418952560001,12.106825237000036]}},{"type":"Feature","properties":{"psgc_code":"054112019","name":"Poblacion East","level":"barangay-label","municipality_psgc_code":"054112000","municipality_name":"Milagros"},"geometry":{"type":"Point","coordinates":[123.5146111415001,12.220883482000032]}},{"type":"Feature","properties":{"psgc_code":"054112020","name":"Poblacion West","level":"barangay-label","municipality_psgc_code":"054112000","municipality_name":"Milagros"},"geometry":{"type":"Point","coordinates":[123.50323219750004,12.219269181000044]}},{"type":"Feature","properties":{"psgc_code":"054112021","name":"Paraiso","level":"barangay-label","municipality_psgc_code":"054112000","municipality_name":"Milagros"},"geometry":{"type":"Point","coordinates":[123.3974605250001,12.231668985500049]}},{"type":"Feature","properties":{"psgc_code":"054112022","name":"San Antonio","level":"barangay-label","municipality_psgc_code":"054112000","municipality_name":"Milagros"},"geometry":{"type":"Point","coordinates":[123.69674050150002,12.137301671000046]}},{"type":"Feature","properties":{"psgc_code":"054112023","name":"San Carlos","level":"barangay-label","municipality_psgc_code":"054112000","municipality_name":"Milagros"},"geometry":{"type":"Point","coordinates":[123.64841440800006,12.162322045500048]}},{"type":"Feature","properties":{"psgc_code":"054112024","name":"Sawmill","level":"barangay-label","municipality_psgc_code":"054112000","municipality_name":"Milagros"},"geometry":{"type":"Point","coordinates":[123.64410733550004,12.099055433000045]}},{"type":"Feature","properties":{"psgc_code":"054112025","name":"Tagbon","level":"barangay-label","municipality_psgc_code":"054112000","municipality_name":"Milagros"},"geometry":{"type":"Point","coordinates":[123.57384685250003,12.241316113500062]}},{"type":"Feature","properties":{"psgc_code":"054112026","name":"Tawad","level":"barangay-label","municipality_psgc_code":"054112000","municipality_name":"Milagros"},"geometry":{"type":"Point","coordinates":[123.47725025800008,12.240301540000043]}},{"type":"Feature","properties":{"psgc_code":"054112027","name":"Tigbao","level":"barangay-label","municipality_psgc_code":"054112000","municipality_name":"Milagros"},"geometry":{"type":"Point","coordinates":[123.61372011200007,12.150935136000042]}},{"type":"Feature","properties":{"psgc_code":"054112028","name":"Tinaclipan","level":"barangay-label","municipality_psgc_code":"054112000","municipality_name":"Milagros"},"geometry":{"type":"Point","coordinates":[123.48704203300008,12.220200138500044]}}]}
