{"type":"FeatureCollection","features":[{"type":"Feature","properties":{"psgc_code":"054111001","name":"Anas","level":"barangay-label","municipality_psgc_code":"054111000","municipality_name":"City of Masbate"},"geometry":{"type":"Point","coordinates":[123.5531701280001,12.426953407500033]}},{"type":"Feature","properties":{"psgc_code":"054111002","name":"Asid","level":"barangay-label","municipality_psgc_code":"054111000","municipality_name":"City of Masbate"},"geometry":{"type":"Point","coordinates":[123.54360634750003,12.275311798500042]}},{"type":"Feature","properties":{"psgc_code":"054111003","name":"B. Titong","level":"barangay-label","municipality_psgc_code":"054111000","municipality_name":"City of Masbate"},"geometry":{"type":"Point","coordinates":[123.5589021720001,12.445754155000031]}},{"type":"Feature","properties":{"psgc_code":"054111004","name":"Bagumbayan","level":"barangay-label","municipality_psgc_code":"054111000","municipality_name":"City of Masbate"},"geometry":{"type":"Point","coordinates":[123.61736545950009,12.372826486000065]}},{"type":"Feature","properties":{"psgc_code":"054111005","name":"Bantigue","level":"barangay-label","municipality_psgc_code":"054111000","municipality_name":"City of Masbate"},"geometry":{"type":"Point","coordinates":[123.5962025035001,12.380303767500067]}},{"type":"Feature","properties":{"psgc_code":"054111006","name":"Bapor (Pob.)","level":"barangay-label","municipality_psgc_code":"054111000","municipality_name":"City of Masbate"},"geometry":{"type":"Point","coordinates":[123.6184369025001,12.369343054500037]}},{"type":"Feature","properties":{"psgc_code":"054111007","name":"Batuhan","level":"barangay-label","municipality_psgc_code":"054111000","municipality_name":"City of Masbate"},"geometry":{"type":"Point","coordinates":[123.57074016050007,12.374851986000067]}},{"type":"Feature","properties":{"psgc_code":"054111008","name":"Bayombon","level":"barangay-label","municipality_psgc_code":"054111000","municipality_name":"City of Masbate"},"geometry":{"type":"Point","coordinates":[123.53681867900008,12.36027134650001]}},{"type":"Feature","properties":{"psgc_code":"054111009","name":"Biyong","level":"barangay-label","municipality_psgc_code":"054111000","municipality_name":"City of Masbate"},"geometry":{"type":"Point","coordinates":[123.52616767850009,12.34462196150005]}},{"type":"Feature","properties":{"psgc_code":"054111010","name":"Bolo","level":"barangay-label","municipality_psgc_code":"054111000","municipality_name":"City of Masbate"},"geometry":{"type":"Point","coordinates":[123.55540937350008,12.410386143000068]}},{"type":"Feature","properties":{"psgc_code":"054111011","name":"Cagay","level":"barangay-label","municipality_psgc_code":"054111000","municipality_name":"City of Masbate"},"geometry":{"type":"Point","coordinates":[123.58901074500005,12.269316623500032]}},{"type":"Feature","properties":{"psgc_code":"054111012","name":"Cawayan Exterior","level":"barangay-label","municipality_psgc_code":"054111000","municipality_name":"City of Masbate"},"geometry":{"type":"Point","coordinates":[123.58266481150008,12.395367526000026]}},{"type":"Feature","properties":{"psgc_code":"054111013","name":"Cawayan Interior","level":"barangay-label","municipality_psgc_code":"054111000","municipality_name":"City of Masbate"},"geometry":{"type":"Point","coordinates":[123.55435585200007,12.395277903000022]}},{"type":"Feature","properties":{"psgc_code":"054111014","name":"Centro (Pob.)","level":"barangay-label","municipality_psgc_code":"054111000","municipality_name":"City of Masbate"},"geometry":{"type":"Point","coordinates":[123.62425442500006,12.36724867050006]}},{"type":"Feature","properties":{"psgc_code":"054111015","name":"Espinosa","level":"barangay-label","municipality_psgc_code":"054111000","municipality_name":"City of Masbate"},"geometry":{"type":"Point","coordinates":[123.62088031800005,12.374813459000052]}},{"type":"Feature","properties":{"psgc_code":"054111016","name":"F. Magallanes","level":"barangay-label","municipality_psgc_code":"054111000","municipality_name":"City of Masbate"},"geometry":{"type":"Point","coordinates":[123.62331313450007,12.362918580000041]}},{"type":"Feature","properties":{"psgc_code":"054111017","name":"Ibingay","level":"barangay-label","municipality_psgc_code":"054111000","municipality_name":"City of Masbate"},"geometry":{"type":"Point","coordinates":[123.62894572450004,12.373361757000024]}},{"type":"Feature","properties":{"psgc_code":"054111018","name":"Igang","level":"barangay-label","municipality_psgc_code":"054111000","municipality_name":"City of Masbate"},"geometry":{"type":"Point","coordinates":[123.51733565900008,12.32531685850006]}},{"type":"Feature","properties":{"psgc_code":"054111019","name":"Kalipay (Pob.)","level":"barangay-label","municipality_psgc_code":"054111000","municipality_name":"City of Masbate"},"geometry":{"type":"Point","coordinates":[123.62347252400008,12.370446784000023]}},{"type":"Feature","properties":{"psgc_code":"054111020","name":"Kinamaligan","level":"barangay-label","municipality_psgc_code":"054111000","municipality_name":"City of Masbate"},"geometry":{"type":"Point","coordinates":[123.61206581850001,12.35162540600004]}},{"type":"Feature","properties":{"psgc_code":"054111021","name":"Malinta","level":"barangay-label","municipality_psgc_code":"054111000","municipality_name":"City of Masbate"},"geometry":{"type":"Point","coordinates":[123.55629953800008,12.312386281500068]}},{"type":"Feature","properties":{"psgc_code":"054111022","name":"Mapi\u00f1a","level":"barangay-label","municipality_psgc_code":"054111000","municipality_name":"City of Masbate"},"geometry":{"type":"Point","coordinates":[123.53138919850005,12.390290183500042]}},{"type":"Feature","properties":{"psgc_code":"054111023","name":"Mayngaran","level":"barangay-label","municipality_psgc_code":"054111000","municipality_name":"City of Masbate"},"geometry":{"type":"Point","coordinates":[123.60109088550001,12.344296629500036]}},{"type":"Feature","properties":{"psgc_code":"054111024","name":"Nursery","level":"barangay-label","municipality_psgc_code":"054111000","municipality_name":"City of Masbate"},"geometry":{"type":"Point","coordinates":[123.63128664950011,12.368149560000033]}},{"type":"Feature","properties":{"psgc_code":"054111025","name":"Pating (Pob.)","level":"barangay-label","municipality_psgc_code":"054111000","municipality_name":"City of Masbate"},"geometry":{"type":"Point","coordinates":[123.62067030300005,12.365625191500042]}},{"type":"Feature","properties":{"psgc_code":"054111026","name":"Pawa","level":"barangay-label","municipality_psgc_code":"054111000","municipality_name":"City of Masbate"},"geometry":{"type":"Point","coordinates":[123.57190181650009,12.355715887500052]}},{"type":"Feature","properties":{"psgc_code":"054111027","name":"Sinalongan","level":"barangay-label","municipality_psgc_code":"054111000","municipality_name":"City of Masbate"},"geometry":{"type":"Point","coordinates":[123.59739426650003,12.299186291500064]}},{"type":"Feature","properties":{"psgc_code":"054111028","name":"Tugbo","level":"barangay-label","municipality_psgc_code":"054111000","municipality_name":"City of Masbate"},"geometry":{"type":"Point","coordinates":[123.62975427800006,12.341386447500067]}},{"type":"Feature","properties":{"psgc_code":"054111029","name":"Ubongan Dacu","level":"barangay-label","municipality_psgc_code":"054111000","municipality_name":"City of Masbate"},"geometry":{"type":"Point","coordinates":[123.54808414850004,12.440948424000055]}},{"type":"Feature","properties":{"psgc_code":"054111030","name":"Usab","level":"barangay-label","municipality_psgc_code":"054111000","municipality_name":"City of Masbate"},"geometry":{"type":"Point","coordinates":[123.59746021700005,12.33121535200007]}}]}
