{"type":"FeatureCollection","features":[{"type":"Feature","properties":{"psgc_code":"054118001","name":"Altavista","level":"barangay-label","municipality_psgc_code":"054118000","municipality_name":"San Fernando"},"geometry":{"type":"Point","coordinates":[123.69488389650007,12.46054150100005]}},{"type":"Feature","properties":{"psgc_code":"054118002","name":"Benitinan","level":"barangay-label","municipality_psgc_code":"054118000","municipality_name":"San Fernando"},"geometry":{"type":"Point","coordinates":[123.7578554805001,12.508853422000044]}},{"type":"Feature","properties":{"psgc_code":"054118003","name":"Buenasuerte","level":"barangay-label","municipality_psgc_code":"054118000","municipality_name":"San Fernando"},"geometry":{"type":"Point","coordinates":[123.70593400900003,12.499970161000048]}},{"type":"Feature","properties":{"psgc_code":"054118004","name":"Buenavista","level":"barangay-label","municipality_psgc_code":"054118000","municipality_name":"San Fernando"},"geometry":{"type":"Point","coordinates":[123.7063463560001,12.468314811000052]}},{"type":"Feature","properties":{"psgc_code":"054118005","name":"Buenos Aires","level":"barangay-label","municipality_psgc_code":"054118000","municipality_name":"San Fernando"},"geometry":{"type":"Point","coordinates":[123.71836717600007,12.503085382500046]}},{"type":"Feature","properties":{"psgc_code":"054118006","name":"Buyo","level":"barangay-label","municipality_psgc_code":"054118000","municipality_name":"San Fernando"},"geometry":{"type":"Point","coordinates":[123.76555142050006,12.45503214650006]}},{"type":"Feature","properties":{"psgc_code":"054118007","name":"Ca\u00f1elas","level":"barangay-label","municipality_psgc_code":"054118000","municipality_name":"San Fernando"},"geometry":{"type":"Point","coordinates":[123.71290725750009,12.448888077500044]}},{"type":"Feature","properties":{"psgc_code":"054118008","name":"Corbada","level":"barangay-label","municipality_psgc_code":"054118000","municipality_name":"San Fernando"},"geometry":{"type":"Point","coordinates":[123.75600803150007,12.494122187000045]}},{"type":"Feature","properties":{"psgc_code":"054118009","name":"Daplian","level":"barangay-label","municipality_psgc_code":"054118000","municipality_name":"San Fernando"},"geometry":{"type":"Point","coordinates":[123.74810716200005,12.519521122500038]}},{"type":"Feature","properties":{"psgc_code":"054118010","name":"Del Rosario","level":"barangay-label","municipality_psgc_code":"054118000","municipality_name":"San Fernando"},"geometry":{"type":"Point","coordinates":[123.73513426200009,12.44952081300005]}},{"type":"Feature","properties":{"psgc_code":"054118011","name":"Ipil","level":"barangay-label","municipality_psgc_code":"054118000","municipality_name":"San Fernando"},"geometry":{"type":"Point","coordinates":[123.68794456000006,12.49821264750005]}},{"type":"Feature","properties":{"psgc_code":"054118012","name":"Lahong","level":"barangay-label","municipality_psgc_code":"054118000","municipality_name":"San Fernando"},"geometry":{"type":"Point","coordinates":[123.67135097550005,12.500414330500035]}},{"type":"Feature","properties":{"psgc_code":"054118013","name":"Lumbia","level":"barangay-label","municipality_psgc_code":"054118000","municipality_name":"San Fernando"},"geometry":{"type":"Point","coordinates":[123.75660130200009,12.44831931550007]}},{"type":"Feature","properties":{"psgc_code":"054118014","name":"Magkaipit","level":"barangay-label","municipality_psgc_code":"054118000","municipality_name":"San Fernando"},"geometry":{"type":"Point","coordinates":[123.72935242300008,12.486112007500054]}},{"type":"Feature","properties":{"psgc_code":"054118015","name":"Minio","level":"barangay-label","municipality_psgc_code":"054118000","municipality_name":"San Fernando"},"geometry":{"type":"Point","coordinates":[123.74247632900006,12.506054534000043]}},{"type":"Feature","properties":{"psgc_code":"054118016","name":"Pinamoghaan","level":"barangay-label","municipality_psgc_code":"054118000","municipality_name":"San Fernando"},"geometry":{"type":"Point","coordinates":[123.77043918350006,12.44466281350006]}},{"type":"Feature","properties":{"psgc_code":"054118017","name":"Baybaydagat Pob.","level":"barangay-label","municipality_psgc_code":"054118000","municipality_name":"San Fernando"},"geometry":{"type":"Point","coordinates":[123.76364607250002,12.486330348500044]}},{"type":"Feature","properties":{"psgc_code":"054118018","name":"Silangan Pob.","level":"barangay-label","municipality_psgc_code":"054118000","municipality_name":"San Fernando"},"geometry":{"type":"Point","coordinates":[123.76550048000007,12.481186646000053]}},{"type":"Feature","properties":{"psgc_code":"054118019","name":"Magsasaka Pob.","level":"barangay-label","municipality_psgc_code":"054118000","municipality_name":"San Fernando"},"geometry":{"type":"Point","coordinates":[123.75912358000005,12.477966551000064]}},{"type":"Feature","properties":{"psgc_code":"054118020","name":"Bayanihan Pob.","level":"barangay-label","municipality_psgc_code":"054118000","municipality_name":"San Fernando"},"geometry":{"type":"Point","coordinates":[123.75130930700004,12.482959226000048]}},{"type":"Feature","properties":{"psgc_code":"054118021","name":"Progreso","level":"barangay-label","municipality_psgc_code":"054118000","municipality_name":"San Fernando"},"geometry":{"type":"Point","coordinates":[123.73231738850006,12.465253773000029]}},{"type":"Feature","properties":{"psgc_code":"054118022","name":"Resurreccion","level":"barangay-label","municipality_psgc_code":"054118000","municipality_name":"San Fernando"},"geometry":{"type":"Point","coordinates":[123.75967332150009,12.469017910000048]}},{"type":"Feature","properties":{"psgc_code":"054118023","name":"Salvacion","level":"barangay-label","municipality_psgc_code":"054118000","municipality_name":"San Fernando"},"geometry":{"type":"Point","coordinates":[123.68583147800007,12.508798792000047]}},{"type":"Feature","properties":{"psgc_code":"054118024","name":"Sowa","level":"barangay-label","municipality_psgc_code":"054118000","municipality_name":"San Fernando"},"geometry":{"type":"Point","coordinates":[123.70230525100004,12.48280089550005]}},{"type":"Feature","properties":{"psgc_code":"054118025","name":"Talisay","level":"barangay-label","municipality_psgc_code":"054118000","municipality_name":"San Fernando"},"geometry":{"type":"Point","coordinates":[123.68382698800008,12.481695635500046]}},{"type":"Feature","properties":{"psgc_code":"054118026","name":"Valparaiso","level":"barangay-label","municipality_psgc_code":"054118000","municipality_name":"San Fernando"},"geometry":{"type":"Point","coordinates":[123.72582619700006,12.476734875000062]}}]}
