{"type":"FeatureCollection","features":[{"type":"Feature","properties":{"psgc_code":"054105001","name":"Abaca","level":"barangay-label","municipality_psgc_code":"054105000","municipality_name":"Cataingan"},"geometry":{"type":"Point","coordinates":[123.9558584675001,12.059863093000075]}},{"type":"Feature","properties":{"psgc_code":"054105002","name":"Aguada","level":"barangay-label","municipality_psgc_code":"054105000","municipality_name":"Cataingan"},"geometry":{"type":"Point","coordinates":[124.03208337900003,11.982324305000047]}},{"type":"Feature","properties":{"psgc_code":"054105003","name":"Badiang","level":"barangay-label","municipality_psgc_code":"054105000","municipality_name":"Cataingan"},"geometry":{"type":"Point","coordinates":[124.00491695150004,11.933495260500052]}},{"type":"Feature","properties":{"psgc_code":"054105004","name":"Bagumbayan","level":"barangay-label","municipality_psgc_code":"054105000","municipality_name":"Cataingan"},"geometry":{"type":"Point","coordinates":[123.9738789600001,12.003012243500052]}},{"type":"Feature","properties":{"psgc_code":"054105005","name":"Cadulawan","level":"barangay-label","municipality_psgc_code":"054105000","municipality_name":"Cataingan"},"geometry":{"type":"Point","coordinates":[123.91607930900007,12.02559646900005]}},{"type":"Feature","properties":{"psgc_code":"054105006","name":"Cagbatang","level":"barangay-label","municipality_psgc_code":"054105000","municipality_name":"Cataingan"},"geometry":{"type":"Point","coordinates":[123.90839085500005,11.992362311500045]}},{"type":"Feature","properties":{"psgc_code":"054105007","name":"Chimenea","level":"barangay-label","municipality_psgc_code":"054105000","municipality_name":"Cataingan"},"geometry":{"type":"Point","coordinates":[123.92331891850006,11.964930865000072]}},{"type":"Feature","properties":{"psgc_code":"054105008","name":"Concepcion","level":"barangay-label","municipality_psgc_code":"054105000","municipality_name":"Cataingan"},"geometry":{"type":"Point","coordinates":[124.00869815800007,12.015403002000054]}},{"type":"Feature","properties":{"psgc_code":"054105010","name":"Curvada","level":"barangay-label","municipality_psgc_code":"054105000","municipality_name":"Cataingan"},"geometry":{"type":"Point","coordinates":[123.96815298900009,11.978295644500037]}},{"type":"Feature","properties":{"psgc_code":"054105011","name":"Divisoria","level":"barangay-label","municipality_psgc_code":"054105000","municipality_name":"Cataingan"},"geometry":{"type":"Point","coordinates":[123.98306378150005,11.92795729650004]}},{"type":"Feature","properties":{"psgc_code":"054105012","name":"Domorog","level":"barangay-label","municipality_psgc_code":"054105000","municipality_name":"Cataingan"},"geometry":{"type":"Point","coordinates":[123.98231216800008,11.98443371600007]}},{"type":"Feature","properties":{"psgc_code":"054105013","name":"Estampar","level":"barangay-label","municipality_psgc_code":"054105000","municipality_name":"Cataingan"},"geometry":{"type":"Point","coordinates":[123.93469888150008,12.006183461000063]}},{"type":"Feature","properties":{"psgc_code":"054105014","name":"Gahit","level":"barangay-label","municipality_psgc_code":"054105000","municipality_name":"Cataingan"},"geometry":{"type":"Point","coordinates":[123.9839020010001,12.038536845000067]}},{"type":"Feature","properties":{"psgc_code":"054105015","name":"Libtong","level":"barangay-label","municipality_psgc_code":"054105000","municipality_name":"Cataingan"},"geometry":{"type":"Point","coordinates":[123.93898759900009,12.049852668000057]}},{"type":"Feature","properties":{"psgc_code":"054105016","name":"Liong","level":"barangay-label","municipality_psgc_code":"054105000","municipality_name":"Cataingan"},"geometry":{"type":"Point","coordinates":[123.87541090600007,12.016902904500055]}},{"type":"Feature","properties":{"psgc_code":"054105017","name":"Maanahao","level":"barangay-label","municipality_psgc_code":"054105000","municipality_name":"Cataingan"},"geometry":{"type":"Point","coordinates":[123.90441961850007,12.033216000000037]}},{"type":"Feature","properties":{"psgc_code":"054105018","name":"Madamba","level":"barangay-label","municipality_psgc_code":"054105000","municipality_name":"Cataingan"},"geometry":{"type":"Point","coordinates":[124.02413836600005,11.996053812500064]}},{"type":"Feature","properties":{"psgc_code":"054105019","name":"Malobago","level":"barangay-label","municipality_psgc_code":"054105000","municipality_name":"Cataingan"},"geometry":{"type":"Point","coordinates":[123.97943288800008,12.049551803000043]}},{"type":"Feature","properties":{"psgc_code":"054105020","name":"Matayum","level":"barangay-label","municipality_psgc_code":"054105000","municipality_name":"Cataingan"},"geometry":{"type":"Point","coordinates":[124.04283746450005,11.963250490000036]}},{"type":"Feature","properties":{"psgc_code":"054105021","name":"Matubinao","level":"barangay-label","municipality_psgc_code":"054105000","municipality_name":"Cataingan"},"geometry":{"type":"Point","coordinates":[123.88889626900004,12.009080150000045]}},{"type":"Feature","properties":{"psgc_code":"054105022","name":"Mintac","level":"barangay-label","municipality_psgc_code":"054105000","municipality_name":"Cataingan"},"geometry":{"type":"Point","coordinates":[124.01772961250009,11.943785652500054]}},{"type":"Feature","properties":{"psgc_code":"054105023","name":"Nadawisan","level":"barangay-label","municipality_psgc_code":"054105000","municipality_name":"Cataingan"},"geometry":{"type":"Point","coordinates":[123.95491432250007,12.006307435000053]}},{"type":"Feature","properties":{"psgc_code":"054105024","name":"Osme\u00f1a","level":"barangay-label","municipality_psgc_code":"054105000","municipality_name":"Cataingan"},"geometry":{"type":"Point","coordinates":[123.90518371900005,12.00726416650005]}},{"type":"Feature","properties":{"psgc_code":"054105025","name":"Pawican","level":"barangay-label","municipality_psgc_code":"054105000","municipality_name":"Cataingan"},"geometry":{"type":"Point","coordinates":[123.95976995800004,12.081173887500057]}},{"type":"Feature","properties":{"psgc_code":"054105026","name":"Pitogo","level":"barangay-label","municipality_psgc_code":"054105000","municipality_name":"Cataingan"},"geometry":{"type":"Point","coordinates":[123.94237525600005,11.974980685000048]}},{"type":"Feature","properties":{"psgc_code":"054105027","name":"Poblacion","level":"barangay-label","municipality_psgc_code":"054105000","municipality_name":"Cataingan"},"geometry":{"type":"Point","coordinates":[123.99251803550004,12.005920614500042]}},{"type":"Feature","properties":{"psgc_code":"054105028","name":"Quezon","level":"barangay-label","municipality_psgc_code":"054105000","municipality_name":"Cataingan"},"geometry":{"type":"Point","coordinates":[123.97139299400004,11.951238660500053]}},{"type":"Feature","properties":{"psgc_code":"054105029","name":"San Isidro","level":"barangay-label","municipality_psgc_code":"054105000","municipality_name":"Cataingan"},"geometry":{"type":"Point","coordinates":[123.96227204600005,12.041981764000042]}},{"type":"Feature","properties":{"psgc_code":"054105030","name":"San Jose","level":"barangay-label","municipality_psgc_code":"054105000","municipality_name":"Cataingan"},"geometry":{"type":"Point","coordinates":[123.94648584800007,11.951117685500037]}},{"type":"Feature","properties":{"psgc_code":"054105031","name":"San Pedro","level":"barangay-label","municipality_psgc_code":"054105000","municipality_name":"Cataingan"},"geometry":{"type":"Point","coordinates":[123.99084795100009,12.026399948500057]}},{"type":"Feature","properties":{"psgc_code":"054105032","name":"San Rafael","level":"barangay-label","municipality_psgc_code":"054105000","municipality_name":"Cataingan"},"geometry":{"type":"Point","coordinates":[123.96810545600005,12.023859043000044]}},{"type":"Feature","properties":{"psgc_code":"054105033","name":"Santa Teresita","level":"barangay-label","municipality_psgc_code":"054105000","municipality_name":"Cataingan"},"geometry":{"type":"Point","coordinates":[123.97821745200008,12.060791128000034]}},{"type":"Feature","properties":{"psgc_code":"054105034","name":"Santo Ni\u00f1o","level":"barangay-label","municipality_psgc_code":"054105000","municipality_name":"Cataingan"},"geometry":{"type":"Point","coordinates":[123.99967982800001,11.952346851500039]}},{"type":"Feature","properties":{"psgc_code":"054105036","name":"Tagboan","level":"barangay-label","municipality_psgc_code":"054105000","municipality_name":"Cataingan"},"geometry":{"type":"Point","coordinates":[123.9961242220001,11.966921214500045]}},{"type":"Feature","properties":{"psgc_code":"054105037","name":"Tuybo","level":"barangay-label","municipality_psgc_code":"054105000","municipality_name":"Cataingan"},"geometry":{"type":"Point","coordinates":[123.93861403900007,12.029483949500047]}},{"type":"Feature","properties":{"psgc_code":"054105038","name":"Villa Pogado","level":"barangay-label","municipality_psgc_code":"054105000","municipality_name":"Cataingan"},"geometry":{"type":"Point","coordinates":[123.88992509750005,11.993490332000022]}}]}
