{"type":"FeatureCollection","features":[{"type":"Feature","properties":{"psgc_code":"054101001","name":"Ambolong","level":"barangay-label","municipality_psgc_code":"054101000","municipality_name":"Aroroy"},"geometry":{"type":"Point","coordinates":[123.39904874450009,12.505215749500053]}},{"type":"Feature","properties":{"psgc_code":"054101002","name":"Amoroy","level":"barangay-label","municipality_psgc_code":"054101000","municipality_name":"Aroroy"},"geometry":{"type":"Point","coordinates":[123.37711199350008,12.496325551500036]}},{"type":"Feature","properties":{"psgc_code":"054101003","name":"Amotag","level":"barangay-label","municipality_psgc_code":"054101000","municipality_name":"Aroroy"},"geometry":{"type":"Point","coordinates":[123.26925711350003,12.357921271000066]}},{"type":"Feature","properties":{"psgc_code":"054101004","name":"Bagauma","level":"barangay-label","municipality_psgc_code":"054101000","municipality_name":"Aroroy"},"geometry":{"type":"Point","coordinates":[123.40187691400007,12.517604360000036]}},{"type":"Feature","properties":{"psgc_code":"054101005","name":"Balawing","level":"barangay-label","municipality_psgc_code":"054101000","municipality_name":"Aroroy"},"geometry":{"type":"Point","coordinates":[123.36174350250008,12.458094808000027]}},{"type":"Feature","properties":{"psgc_code":"054101006","name":"Balete","level":"barangay-label","municipality_psgc_code":"054101000","municipality_name":"Aroroy"},"geometry":{"type":"Point","coordinates":[123.43776400350004,12.395775806500069]}},{"type":"Feature","properties":{"psgc_code":"054101007","name":"Bangon","level":"barangay-label","municipality_psgc_code":"054101000","municipality_name":"Aroroy"},"geometry":{"type":"Point","coordinates":[123.39479499850006,12.492818044000044]}},{"type":"Feature","properties":{"psgc_code":"054101008","name":"Cabangcalan","level":"barangay-label","municipality_psgc_code":"054101000","municipality_name":"Aroroy"},"geometry":{"type":"Point","coordinates":[123.35889831300005,12.399260556500051]}},{"type":"Feature","properties":{"psgc_code":"054101009","name":"Cabas-An","level":"barangay-label","municipality_psgc_code":"054101000","municipality_name":"Aroroy"},"geometry":{"type":"Point","coordinates":[123.31732725600006,12.376881637000022]}},{"type":"Feature","properties":{"psgc_code":"054101010","name":"Calanay","level":"barangay-label","municipality_psgc_code":"054101000","municipality_name":"Aroroy"},"geometry":{"type":"Point","coordinates":[123.28164604750003,12.45759147050006]}},{"type":"Feature","properties":{"psgc_code":"054101011","name":"Capsay","level":"barangay-label","municipality_psgc_code":"054101000","municipality_name":"Aroroy"},"geometry":{"type":"Point","coordinates":[123.41324065350005,12.45402216800005]}},{"type":"Feature","properties":{"psgc_code":"054101012","name":"Concepcion","level":"barangay-label","municipality_psgc_code":"054101000","municipality_name":"Aroroy"},"geometry":{"type":"Point","coordinates":[123.41611071150004,12.403038289000051]}},{"type":"Feature","properties":{"psgc_code":"054101013","name":"Dayhagan","level":"barangay-label","municipality_psgc_code":"054101000","municipality_name":"Aroroy"},"geometry":{"type":"Point","coordinates":[123.28164588850001,12.411966708500046]}},{"type":"Feature","properties":{"psgc_code":"054101014","name":"Don Pablo Dela Rosa","level":"barangay-label","municipality_psgc_code":"054101000","municipality_name":"Aroroy"},"geometry":{"type":"Point","coordinates":[123.35556724200006,12.537824116500047]}},{"type":"Feature","properties":{"psgc_code":"054101015","name":"Gumahang","level":"barangay-label","municipality_psgc_code":"054101000","municipality_name":"Aroroy"},"geometry":{"type":"Point","coordinates":[123.2575017685001,12.586303411000046]}},{"type":"Feature","properties":{"psgc_code":"054101016","name":"Jaboyoan","level":"barangay-label","municipality_psgc_code":"054101000","municipality_name":"Aroroy"},"geometry":{"type":"Point","coordinates":[123.41756886300004,12.50710148400006]}},{"type":"Feature","properties":{"psgc_code":"054101017","name":"Lanang","level":"barangay-label","municipality_psgc_code":"054101000","municipality_name":"Aroroy"},"geometry":{"type":"Point","coordinates":[123.37981397650009,12.439734876500038]}},{"type":"Feature","properties":{"psgc_code":"054101018","name":"Luy-a","level":"barangay-label","municipality_psgc_code":"054101000","municipality_name":"Aroroy"},"geometry":{"type":"Point","coordinates":[123.39728072350003,12.42072952600006]}},{"type":"Feature","properties":{"psgc_code":"054101019","name":"Macabug","level":"barangay-label","municipality_psgc_code":"054101000","municipality_name":"Aroroy"},"geometry":{"type":"Point","coordinates":[123.32993059350002,12.32563095300003]}},{"type":"Feature","properties":{"psgc_code":"054101020","name":"Malubi","level":"barangay-label","municipality_psgc_code":"054101000","municipality_name":"Aroroy"},"geometry":{"type":"Point","coordinates":[123.39266137300007,12.393744603500068]}},{"type":"Feature","properties":{"psgc_code":"054101021","name":"Managanaga","level":"barangay-label","municipality_psgc_code":"054101000","municipality_name":"Aroroy"},"geometry":{"type":"Point","coordinates":[123.3712549620001,12.35024238400004]}},{"type":"Feature","properties":{"psgc_code":"054101022","name":"Manamoc","level":"barangay-label","municipality_psgc_code":"054101000","municipality_name":"Aroroy"},"geometry":{"type":"Point","coordinates":[123.43286718850004,12.345877911500054]}},{"type":"Feature","properties":{"psgc_code":"054101023","name":"Mariposa","level":"barangay-label","municipality_psgc_code":"054101000","municipality_name":"Aroroy"},"geometry":{"type":"Point","coordinates":[123.3010538480001,12.511198710500054]}},{"type":"Feature","properties":{"psgc_code":"054101024","name":"Mataba","level":"barangay-label","municipality_psgc_code":"054101000","municipality_name":"Aroroy"},"geometry":{"type":"Point","coordinates":[123.2624860895001,12.541338346500055]}},{"type":"Feature","properties":{"psgc_code":"054101025","name":"Matalangtalang","level":"barangay-label","municipality_psgc_code":"054101000","municipality_name":"Aroroy"},"geometry":{"type":"Point","coordinates":[123.32644498600007,12.501686262500044]}},{"type":"Feature","properties":{"psgc_code":"054101026","name":"Matongog","level":"barangay-label","municipality_psgc_code":"054101000","municipality_name":"Aroroy"},"geometry":{"type":"Point","coordinates":[123.25427127800009,12.573447315500033]}},{"type":"Feature","properties":{"psgc_code":"054101027","name":"Nabongsoran","level":"barangay-label","municipality_psgc_code":"054101000","municipality_name":"Aroroy"},"geometry":{"type":"Point","coordinates":[123.37319060150004,12.369331358500062]}},{"type":"Feature","properties":{"psgc_code":"054101028","name":"Pangle","level":"barangay-label","municipality_psgc_code":"054101000","municipality_name":"Aroroy"},"geometry":{"type":"Point","coordinates":[123.43226982750008,12.373786120000034]}},{"type":"Feature","properties":{"psgc_code":"054101029","name":"Panique","level":"barangay-label","municipality_psgc_code":"054101000","municipality_name":"Aroroy"},"geometry":{"type":"Point","coordinates":[123.3909039885001,12.447739613500033]}},{"type":"Feature","properties":{"psgc_code":"054101030","name":"Pinanaan","level":"barangay-label","municipality_psgc_code":"054101000","municipality_name":"Aroroy"},"geometry":{"type":"Point","coordinates":[123.42019467000006,12.478895892000054]}},{"type":"Feature","properties":{"psgc_code":"054101031","name":"Poblacion","level":"barangay-label","municipality_psgc_code":"054101000","municipality_name":"Aroroy"},"geometry":{"type":"Point","coordinates":[123.39344996600006,12.510786638000042]}},{"type":"Feature","properties":{"psgc_code":"054101032","name":"Puro","level":"barangay-label","municipality_psgc_code":"054101000","municipality_name":"Aroroy"},"geometry":{"type":"Point","coordinates":[123.38545584100007,12.475075380500044]}},{"type":"Feature","properties":{"psgc_code":"054101033","name":"San Agustin","level":"barangay-label","municipality_psgc_code":"054101000","municipality_name":"Aroroy"},"geometry":{"type":"Point","coordinates":[123.33107857900006,12.446823478500049]}},{"type":"Feature","properties":{"psgc_code":"054101034","name":"San Isidro","level":"barangay-label","municipality_psgc_code":"054101000","municipality_name":"Aroroy"},"geometry":{"type":"Point","coordinates":[123.35582340450003,12.43825963100005]}},{"type":"Feature","properties":{"psgc_code":"054101035","name":"Sawang","level":"barangay-label","municipality_psgc_code":"054101000","municipality_name":"Aroroy"},"geometry":{"type":"Point","coordinates":[123.28557300700004,12.551577456500041]}},{"type":"Feature","properties":{"psgc_code":"054101036","name":"Syndicate","level":"barangay-label","municipality_psgc_code":"054101000","municipality_name":"Aroroy"},"geometry":{"type":"Point","coordinates":[123.39874427550006,12.475036419500043]}},{"type":"Feature","properties":{"psgc_code":"054101037","name":"Talabaan","level":"barangay-label","municipality_psgc_code":"054101000","municipality_name":"Aroroy"},"geometry":{"type":"Point","coordinates":[123.38376320650008,12.505171442000034]}},{"type":"Feature","properties":{"psgc_code":"054101038","name":"Talib","level":"barangay-label","municipality_psgc_code":"054101000","municipality_name":"Aroroy"},"geometry":{"type":"Point","coordinates":[123.30963619800009,12.55349162050004]}},{"type":"Feature","properties":{"psgc_code":"054101039","name":"Tigbao","level":"barangay-label","municipality_psgc_code":"054101000","municipality_name":"Aroroy"},"geometry":{"type":"Point","coordinates":[123.33184645300008,12.546467497500032]}},{"type":"Feature","properties":{"psgc_code":"054101040","name":"Tinago","level":"barangay-label","municipality_psgc_code":"054101000","municipality_name":"Aroroy"},"geometry":{"type":"Point","coordinates":[123.4251840400001,12.510040591500028]}},{"type":"Feature","properties":{"psgc_code":"054101041","name":"Tinigban","level":"barangay-label","municipality_psgc_code":"054101000","municipality_name":"Aroroy"},"geometry":{"type":"Point","coordinates":[123.26636410150007,12.500416867000041]}}]}
