{"type":"FeatureCollection","features":[{"type":"Feature","properties":{"psgc_code":"054119001","name":"Almi\u00f1e","level":"barangay-label","municipality_psgc_code":"054119000","municipality_name":"San Jacinto"},"geometry":{"type":"Point","coordinates":[123.69137685600009,12.547919137000063]}},{"type":"Feature","properties":{"psgc_code":"054119002","name":"Bagacay","level":"barangay-label","municipality_psgc_code":"054119000","municipality_name":"San Jacinto"},"geometry":{"type":"Point","coordinates":[123.67071630000002,12.520468568000037]}},{"type":"Feature","properties":{"psgc_code":"054119003","name":"Bagahanglad","level":"barangay-label","municipality_psgc_code":"054119000","municipality_name":"San Jacinto"},"geometry":{"type":"Point","coordinates":[123.70495552100004,12.597327140000031]}},{"type":"Feature","properties":{"psgc_code":"054119004","name":"Bartolabac","level":"barangay-label","municipality_psgc_code":"054119000","municipality_name":"San Jacinto"},"geometry":{"type":"Point","coordinates":[123.646530933,12.552026615000045]}},{"type":"Feature","properties":{"psgc_code":"054119005","name":"Burgos","level":"barangay-label","municipality_psgc_code":"054119000","municipality_name":"San Jacinto"},"geometry":{"type":"Point","coordinates":[123.70996046950006,12.558516504000037]}},{"type":"Feature","properties":{"psgc_code":"054119006","name":"Calipat-An","level":"barangay-label","municipality_psgc_code":"054119000","municipality_name":"San Jacinto"},"geometry":{"type":"Point","coordinates":[123.73552753300005,12.547897739500028]}},{"type":"Feature","properties":{"psgc_code":"054119007","name":"Danao","level":"barangay-label","municipality_psgc_code":"054119000","municipality_name":"San Jacinto"},"geometry":{"type":"Point","coordinates":[123.63978396050004,12.57025042850006]}},{"type":"Feature","properties":{"psgc_code":"054119008","name":"Dorong-an Daplian","level":"barangay-label","municipality_psgc_code":"054119000","municipality_name":"San Jacinto"},"geometry":{"type":"Point","coordinates":[123.73083544250012,12.51218507150003]}},{"type":"Feature","properties":{"psgc_code":"054119009","name":"Interior","level":"barangay-label","municipality_psgc_code":"054119000","municipality_name":"San Jacinto"},"geometry":{"type":"Point","coordinates":[123.7273853100001,12.524946046500046]}},{"type":"Feature","properties":{"psgc_code":"054119010","name":"Jagna-an","level":"barangay-label","municipality_psgc_code":"054119000","municipality_name":"San Jacinto"},"geometry":{"type":"Point","coordinates":[123.66415223950008,12.583213887000028]}},{"type":"Feature","properties":{"psgc_code":"054119011","name":"Luna","level":"barangay-label","municipality_psgc_code":"054119000","municipality_name":"San Jacinto"},"geometry":{"type":"Point","coordinates":[123.71149563150004,12.530228576000042]}},{"type":"Feature","properties":{"psgc_code":"054119012","name":"Mabini","level":"barangay-label","municipality_psgc_code":"054119000","municipality_name":"San Jacinto"},"geometry":{"type":"Point","coordinates":[123.67653057450008,12.567761014000041]}},{"type":"Feature","properties":{"psgc_code":"054119013","name":"Pi\u00f1a","level":"barangay-label","municipality_psgc_code":"054119000","municipality_name":"San Jacinto"},"geometry":{"type":"Point","coordinates":[123.66059467250005,12.537840736500044]}},{"type":"Feature","properties":{"psgc_code":"054119014","name":"District I (Pob.)","level":"barangay-label","municipality_psgc_code":"054119000","municipality_name":"San Jacinto"},"geometry":{"type":"Point","coordinates":[123.73016210400012,12.559319934000058]}},{"type":"Feature","properties":{"psgc_code":"054119015","name":"District II (Pob.)","level":"barangay-label","municipality_psgc_code":"054119000","municipality_name":"San Jacinto"},"geometry":{"type":"Point","coordinates":[123.72565481750007,12.559224114000042]}},{"type":"Feature","properties":{"psgc_code":"054119016","name":"District III (Pob.)","level":"barangay-label","municipality_psgc_code":"054119000","municipality_name":"San Jacinto"},"geometry":{"type":"Point","coordinates":[123.73244669150006,12.559319934000058]}},{"type":"Feature","properties":{"psgc_code":"054119017","name":"District IV (Pob.)","level":"barangay-label","municipality_psgc_code":"054119000","municipality_name":"San Jacinto"},"geometry":{"type":"Point","coordinates":[123.73646290900008,12.566304682000064]}},{"type":"Feature","properties":{"psgc_code":"054119018","name":"Roosevelt","level":"barangay-label","municipality_psgc_code":"054119000","municipality_name":"San Jacinto"},"geometry":{"type":"Point","coordinates":[123.68341431250002,12.557983556500034]}},{"type":"Feature","properties":{"psgc_code":"054119019","name":"San Isidro","level":"barangay-label","municipality_psgc_code":"054119000","municipality_name":"San Jacinto"},"geometry":{"type":"Point","coordinates":[123.69031279150005,12.527351275000058]}},{"type":"Feature","properties":{"psgc_code":"054119020","name":"Santa Rosa","level":"barangay-label","municipality_psgc_code":"054119000","municipality_name":"San Jacinto"},"geometry":{"type":"Point","coordinates":[123.71509143300005,12.574555403500057]}},{"type":"Feature","properties":{"psgc_code":"054119021","name":"Washington","level":"barangay-label","municipality_psgc_code":"054119000","municipality_name":"San Jacinto"},"geometry":{"type":"Point","coordinates":[123.74256083450008,12.523667750000042]}}]}
