{"type":"FeatureCollection","features":[{"type":"Feature","properties":{"psgc_code":"054109001","name":"Agoho","level":"barangay-label","municipality_psgc_code":"054109000","municipality_name":"Esperanza"},"geometry":{"type":"Point","coordinates":[124.0009269465001,11.809492610000063]}},{"type":"Feature","properties":{"psgc_code":"054109002","name":"Almero","level":"barangay-label","municipality_psgc_code":"054109000","municipality_name":"Esperanza"},"geometry":{"type":"Point","coordinates":[124.01736740150005,11.809714950000057]}},{"type":"Feature","properties":{"psgc_code":"054109003","name":"Baras","level":"barangay-label","municipality_psgc_code":"054109000","municipality_name":"Esperanza"},"geometry":{"type":"Point","coordinates":[123.97956989500005,11.86688345400006]}},{"type":"Feature","properties":{"psgc_code":"054109004","name":"Domorog","level":"barangay-label","municipality_psgc_code":"054109000","municipality_name":"Esperanza"},"geometry":{"type":"Point","coordinates":[123.96375394800009,11.840998944000034]}},{"type":"Feature","properties":{"psgc_code":"054109005","name":"Guadalupe","level":"barangay-label","municipality_psgc_code":"054109000","municipality_name":"Esperanza"},"geometry":{"type":"Point","coordinates":[123.9834469545001,11.842597932000047]}},{"type":"Feature","properties":{"psgc_code":"054109006","name":"Iligan","level":"barangay-label","municipality_psgc_code":"054109000","municipality_name":"Esperanza"},"geometry":{"type":"Point","coordinates":[124.04417969350004,11.750253710000067]}},{"type":"Feature","properties":{"psgc_code":"054109007","name":"Labangtaytay","level":"barangay-label","municipality_psgc_code":"054109000","municipality_name":"Esperanza"},"geometry":{"type":"Point","coordinates":[124.05006353350007,11.733028721500034]}},{"type":"Feature","properties":{"psgc_code":"054109008","name":"Labrador","level":"barangay-label","municipality_psgc_code":"054109000","municipality_name":"Esperanza"},"geometry":{"type":"Point","coordinates":[124.04333165250006,11.766284541000061]}},{"type":"Feature","properties":{"psgc_code":"054109009","name":"Libertad","level":"barangay-label","municipality_psgc_code":"054109000","municipality_name":"Esperanza"},"geometry":{"type":"Point","coordinates":[124.0594197160001,11.729369045000055]}},{"type":"Feature","properties":{"psgc_code":"054109010","name":"Magsaysay","level":"barangay-label","municipality_psgc_code":"054109000","municipality_name":"Esperanza"},"geometry":{"type":"Point","coordinates":[124.02925142950005,11.817603300000059]}},{"type":"Feature","properties":{"psgc_code":"054109011","name":"Masbaranon","level":"barangay-label","municipality_psgc_code":"054109000","municipality_name":"Esperanza"},"geometry":{"type":"Point","coordinates":[124.02158105250004,11.788373455000055]}},{"type":"Feature","properties":{"psgc_code":"054109012","name":"Poblacion","level":"barangay-label","municipality_psgc_code":"054109000","municipality_name":"Esperanza"},"geometry":{"type":"Point","coordinates":[124.0449671985001,11.73926689350006]}},{"type":"Feature","properties":{"psgc_code":"054109013","name":"Potingbato","level":"barangay-label","municipality_psgc_code":"054109000","municipality_name":"Esperanza"},"geometry":{"type":"Point","coordinates":[124.03439246750008,11.757334395000044]}},{"type":"Feature","properties":{"psgc_code":"054109014","name":"Rizal","level":"barangay-label","municipality_psgc_code":"054109000","municipality_name":"Esperanza"},"geometry":{"type":"Point","coordinates":[124.06663855650004,11.72642028650003]}},{"type":"Feature","properties":{"psgc_code":"054109015","name":"San Roque","level":"barangay-label","municipality_psgc_code":"054109000","municipality_name":"Esperanza"},"geometry":{"type":"Point","coordinates":[124.00670760400004,11.832526232500044]}},{"type":"Feature","properties":{"psgc_code":"054109016","name":"Santiago","level":"barangay-label","municipality_psgc_code":"054109000","municipality_name":"Esperanza"},"geometry":{"type":"Point","coordinates":[124.02670943500004,11.770901940000048]}},{"type":"Feature","properties":{"psgc_code":"054109017","name":"Sorosimbajan","level":"barangay-label","municipality_psgc_code":"054109000","municipality_name":"Esperanza"},"geometry":{"type":"Point","coordinates":[123.98887666700006,11.821046108000047]}},{"type":"Feature","properties":{"psgc_code":"054109018","name":"Tawad","level":"barangay-label","municipality_psgc_code":"054109000","municipality_name":"Esperanza"},"geometry":{"type":"Point","coordinates":[124.00406268900002,11.84893799450003]}},{"type":"Feature","properties":{"psgc_code":"054109019","name":"Tunga","level":"barangay-label","municipality_psgc_code":"054109000","municipality_name":"Esperanza"},"geometry":{"type":"Point","coordinates":[124.05529831900004,11.74193100100004]}},{"type":"Feature","properties":{"psgc_code":"054109020","name":"Villa","level":"barangay-label","municipality_psgc_code":"054109000","municipality_name":"Esperanza"},"geometry":{"type":"Point","coordinates":[124.01658167950006,11.793637396500031]}}]}
