{"type":"FeatureCollection","features":[{"type":"Feature","properties":{"psgc_code":"054103001","name":"Baybay","level":"barangay-label","municipality_psgc_code":"054103000","municipality_name":"Balud"},"geometry":{"type":"Point","coordinates":[123.24746117550006,11.988358186500047]}},{"type":"Feature","properties":{"psgc_code":"054103002","name":"Bongcanaway","level":"barangay-label","municipality_psgc_code":"054103000","municipality_name":"Balud"},"geometry":{"type":"Point","coordinates":[123.1798162335001,11.921793589500055]}},{"type":"Feature","properties":{"psgc_code":"054103003","name":"Mabuhay","level":"barangay-label","municipality_psgc_code":"054103000","municipality_name":"Balud"},"geometry":{"type":"Point","coordinates":[123.1876419135001,11.947620507000037]}},{"type":"Feature","properties":{"psgc_code":"054103004","name":"Calumpang","level":"barangay-label","municipality_psgc_code":"054103000","municipality_name":"Balud"},"geometry":{"type":"Point","coordinates":[123.16930830450008,11.911422521500043]}},{"type":"Feature","properties":{"psgc_code":"054103005","name":"Cantil","level":"barangay-label","municipality_psgc_code":"054103000","municipality_name":"Balud"},"geometry":{"type":"Point","coordinates":[123.13000897750004,11.845663491000067]}},{"type":"Feature","properties":{"psgc_code":"054103006","name":"Casamongan","level":"barangay-label","municipality_psgc_code":"054103000","municipality_name":"Balud"},"geometry":{"type":"Point","coordinates":[123.32600948550004,12.09569496450004]}},{"type":"Feature","properties":{"psgc_code":"054103007","name":"Dao","level":"barangay-label","municipality_psgc_code":"054103000","municipality_name":"Balud"},"geometry":{"type":"Point","coordinates":[123.19029836700008,11.99341744800006]}},{"type":"Feature","properties":{"psgc_code":"054103008","name":"Danao","level":"barangay-label","municipality_psgc_code":"054103000","municipality_name":"Balud"},"geometry":{"type":"Point","coordinates":[123.15273230500009,11.933096610000034]}},{"type":"Feature","properties":{"psgc_code":"054103009","name":"Guinbanwahan","level":"barangay-label","municipality_psgc_code":"054103000","municipality_name":"Balud"},"geometry":{"type":"Point","coordinates":[123.16106923550007,11.950024944500054]}},{"type":"Feature","properties":{"psgc_code":"054103010","name":"Ilaya","level":"barangay-label","municipality_psgc_code":"054103000","municipality_name":"Balud"},"geometry":{"type":"Point","coordinates":[123.21021929850008,12.017125838000027]}},{"type":"Feature","properties":{"psgc_code":"054103011","name":"Jangan","level":"barangay-label","municipality_psgc_code":"054103000","municipality_name":"Balud"},"geometry":{"type":"Point","coordinates":[123.28040100650009,12.02153785900006]}},{"type":"Feature","properties":{"psgc_code":"054103012","name":"Jintotolo","level":"barangay-label","municipality_psgc_code":"054103000","municipality_name":"Balud"},"geometry":{"type":"Point","coordinates":[123.1293247655001,11.852571954500034]}},{"type":"Feature","properties":{"psgc_code":"054103013","name":"Mapili","level":"barangay-label","municipality_psgc_code":"054103000","municipality_name":"Balud"},"geometry":{"type":"Point","coordinates":[123.23801097500007,12.025907879000073]}},{"type":"Feature","properties":{"psgc_code":"054103014","name":"Mapitogo","level":"barangay-label","municipality_psgc_code":"054103000","municipality_name":"Balud"},"geometry":{"type":"Point","coordinates":[123.27468803600004,12.06632062050005]}},{"type":"Feature","properties":{"psgc_code":"054103015","name":"Pajo","level":"barangay-label","municipality_psgc_code":"054103000","municipality_name":"Balud"},"geometry":{"type":"Point","coordinates":[123.22080143750003,12.092472248000032]}},{"type":"Feature","properties":{"psgc_code":"054103016","name":"Palane","level":"barangay-label","municipality_psgc_code":"054103000","municipality_name":"Balud"},"geometry":{"type":"Point","coordinates":[123.22537145650011,12.052881154500055]}},{"type":"Feature","properties":{"psgc_code":"054103017","name":"Panguiranan","level":"barangay-label","municipality_psgc_code":"054103000","municipality_name":"Balud"},"geometry":{"type":"Point","coordinates":[123.30755141150007,12.064569410000045]}},{"type":"Feature","properties":{"psgc_code":"054103018","name":"Panubigan","level":"barangay-label","municipality_psgc_code":"054103000","municipality_name":"Balud"},"geometry":{"type":"Point","coordinates":[123.21900100050004,12.06965843900005]}},{"type":"Feature","properties":{"psgc_code":"054103019","name":"Poblacion","level":"barangay-label","municipality_psgc_code":"054103000","municipality_name":"Balud"},"geometry":{"type":"Point","coordinates":[123.21021812300006,12.038386237000054]}},{"type":"Feature","properties":{"psgc_code":"054103020","name":"Pulanduta","level":"barangay-label","municipality_psgc_code":"054103000","municipality_name":"Balud"},"geometry":{"type":"Point","coordinates":[123.16313327150004,11.921451103000038]}},{"type":"Feature","properties":{"psgc_code":"054103021","name":"Quinayangan Diotay","level":"barangay-label","municipality_psgc_code":"054103000","municipality_name":"Balud"},"geometry":{"type":"Point","coordinates":[123.22922807350005,11.964982735000062]}},{"type":"Feature","properties":{"psgc_code":"054103022","name":"Quinayangan Tonga","level":"barangay-label","municipality_psgc_code":"054103000","municipality_name":"Balud"},"geometry":{"type":"Point","coordinates":[123.21303880800002,11.97359642050003]}},{"type":"Feature","properties":{"psgc_code":"054103023","name":"Salvacion","level":"barangay-label","municipality_psgc_code":"054103000","municipality_name":"Balud"},"geometry":{"type":"Point","coordinates":[123.32139378400007,12.07934411000005]}},{"type":"Feature","properties":{"psgc_code":"054103024","name":"Sampad","level":"barangay-label","municipality_psgc_code":"054103000","municipality_name":"Balud"},"geometry":{"type":"Point","coordinates":[123.22122423600007,11.987898220500057]}},{"type":"Feature","properties":{"psgc_code":"054103025","name":"San Andres","level":"barangay-label","municipality_psgc_code":"054103000","municipality_name":"Balud"},"geometry":{"type":"Point","coordinates":[123.19856730150002,11.967024344500032]}},{"type":"Feature","properties":{"psgc_code":"054103026","name":"San Antonio","level":"barangay-label","municipality_psgc_code":"054103000","municipality_name":"Balud"},"geometry":{"type":"Point","coordinates":[123.23774733700003,11.971543179500031]}},{"type":"Feature","properties":{"psgc_code":"054103029","name":"Talisay","level":"barangay-label","municipality_psgc_code":"054103000","municipality_name":"Balud"},"geometry":{"type":"Point","coordinates":[123.22316930750009,12.119169944000046]}},{"type":"Feature","properties":{"psgc_code":"054103030","name":"Tonga","level":"barangay-label","municipality_psgc_code":"054103000","municipality_name":"Balud"},"geometry":{"type":"Point","coordinates":[123.24284340850005,12.07854098550007]}},{"type":"Feature","properties":{"psgc_code":"054103031","name":"Ubo","level":"barangay-label","municipality_psgc_code":"054103000","municipality_name":"Balud"},"geometry":{"type":"Point","coordinates":[123.17260180550005,11.97056613250004]}},{"type":"Feature","properties":{"psgc_code":"054103032","name":"Victory","level":"barangay-label","municipality_psgc_code":"054103000","municipality_name":"Balud"},"geometry":{"type":"Point","coordinates":[123.23068945000006,11.99741287200004]}},{"type":"Feature","properties":{"psgc_code":"054103033","name":"Villa Alvarez","level":"barangay-label","municipality_psgc_code":"054103000","municipality_name":"Balud"},"geometry":{"type":"Point","coordinates":[123.30470739100008,12.094707908500055]}}]}
