{"type":"FeatureCollection","features":[{"type":"Feature","properties":{"psgc_code":"054113001","name":"Baang","level":"barangay-label","municipality_psgc_code":"054113000","municipality_name":"Mobo"},"geometry":{"type":"Point","coordinates":[123.66933791700006,12.270803764500045]}},{"type":"Feature","properties":{"psgc_code":"054113002","name":"Bagacay","level":"barangay-label","municipality_psgc_code":"054113000","municipality_name":"Mobo"},"geometry":{"type":"Point","coordinates":[123.70409405200007,12.291407369500035]}},{"type":"Feature","properties":{"psgc_code":"054113003","name":"Balatucan","level":"barangay-label","municipality_psgc_code":"054113000","municipality_name":"Mobo"},"geometry":{"type":"Point","coordinates":[123.70523508550008,12.246785071000062]}},{"type":"Feature","properties":{"psgc_code":"054113004","name":"Barag","level":"barangay-label","municipality_psgc_code":"054113000","municipality_name":"Mobo"},"geometry":{"type":"Point","coordinates":[123.65987131800006,12.214399162000063]}},{"type":"Feature","properties":{"psgc_code":"054113005","name":"Dacu","level":"barangay-label","municipality_psgc_code":"054113000","municipality_name":"Mobo"},"geometry":{"type":"Point","coordinates":[123.70008827400005,12.316248798500055]}},{"type":"Feature","properties":{"psgc_code":"054113006","name":"Fabrica","level":"barangay-label","municipality_psgc_code":"054113000","municipality_name":"Mobo"},"geometry":{"type":"Point","coordinates":[123.67957802450007,12.338025066000029]}},{"type":"Feature","properties":{"psgc_code":"054113007","name":"Guintorelan","level":"barangay-label","municipality_psgc_code":"054113000","municipality_name":"Mobo"},"geometry":{"type":"Point","coordinates":[123.61331908300008,12.253574689000061]}},{"type":"Feature","properties":{"psgc_code":"054113008","name":"Holjogon","level":"barangay-label","municipality_psgc_code":"054113000","municipality_name":"Mobo"},"geometry":{"type":"Point","coordinates":[123.62988024750008,12.315936947500063]}},{"type":"Feature","properties":{"psgc_code":"054113009","name":"Lalaguna","level":"barangay-label","municipality_psgc_code":"054113000","municipality_name":"Mobo"},"geometry":{"type":"Point","coordinates":[123.69520828600008,12.300810644000023]}},{"type":"Feature","properties":{"psgc_code":"054113010","name":"Lomocloc","level":"barangay-label","municipality_psgc_code":"054113000","municipality_name":"Mobo"},"geometry":{"type":"Point","coordinates":[123.63965443050012,12.25927555900006]}},{"type":"Feature","properties":{"psgc_code":"054113011","name":"Luyong Catungan","level":"barangay-label","municipality_psgc_code":"054113000","municipality_name":"Mobo"},"geometry":{"type":"Point","coordinates":[123.68630697250006,12.32638758300007]}},{"type":"Feature","properties":{"psgc_code":"054113012","name":"Mabuhay","level":"barangay-label","municipality_psgc_code":"054113000","municipality_name":"Mobo"},"geometry":{"type":"Point","coordinates":[123.64184400000005,12.24598195800004]}},{"type":"Feature","properties":{"psgc_code":"054113013","name":"Mandali","level":"barangay-label","municipality_psgc_code":"054113000","municipality_name":"Mobo"},"geometry":{"type":"Point","coordinates":[123.64965811250005,12.319164104000066]}},{"type":"Feature","properties":{"psgc_code":"054113014","name":"Mapuyo","level":"barangay-label","municipality_psgc_code":"054113000","municipality_name":"Mobo"},"geometry":{"type":"Point","coordinates":[123.65147930400008,12.227064043500032]}},{"type":"Feature","properties":{"psgc_code":"054113015","name":"Marintoc","level":"barangay-label","municipality_psgc_code":"054113000","municipality_name":"Mobo"},"geometry":{"type":"Point","coordinates":[123.70766972000007,12.277185885500046]}},{"type":"Feature","properties":{"psgc_code":"054113016","name":"Nasunduan","level":"barangay-label","municipality_psgc_code":"054113000","municipality_name":"Mobo"},"geometry":{"type":"Point","coordinates":[123.68623532700008,12.317698810000051]}},{"type":"Feature","properties":{"psgc_code":"054113017","name":"Pinamalatican","level":"barangay-label","municipality_psgc_code":"054113000","municipality_name":"Mobo"},"geometry":{"type":"Point","coordinates":[123.65811387650007,12.295463203000054]}},{"type":"Feature","properties":{"psgc_code":"054113018","name":"Pinamarbuhan","level":"barangay-label","municipality_psgc_code":"054113000","municipality_name":"Mobo"},"geometry":{"type":"Point","coordinates":[123.64230989400005,12.335192431500047]}},{"type":"Feature","properties":{"psgc_code":"054113019","name":"Poblacion Dist. I","level":"barangay-label","municipality_psgc_code":"054113000","municipality_name":"Mobo"},"geometry":{"type":"Point","coordinates":[123.66069065300007,12.334753228000068]}},{"type":"Feature","properties":{"psgc_code":"054113020","name":"Poblacion Dist. II","level":"barangay-label","municipality_psgc_code":"054113000","municipality_name":"Mobo"},"geometry":{"type":"Point","coordinates":[123.65526278200002,12.337972256500052]}},{"type":"Feature","properties":{"psgc_code":"054113021","name":"Polot","level":"barangay-label","municipality_psgc_code":"054113000","municipality_name":"Mobo"},"geometry":{"type":"Point","coordinates":[123.64787351300004,12.286788846000064]}},{"type":"Feature","properties":{"psgc_code":"054113022","name":"Sambulawan","level":"barangay-label","municipality_psgc_code":"054113000","municipality_name":"Mobo"},"geometry":{"type":"Point","coordinates":[123.62544106500008,12.281462816500067]}},{"type":"Feature","properties":{"psgc_code":"054113023","name":"Santa Maria","level":"barangay-label","municipality_psgc_code":"054113000","municipality_name":"Mobo"},"geometry":{"type":"Point","coordinates":[123.62458500200006,12.228904284000038]}},{"type":"Feature","properties":{"psgc_code":"054113024","name":"Sawmill","level":"barangay-label","municipality_psgc_code":"054113000","municipality_name":"Mobo"},"geometry":{"type":"Point","coordinates":[123.67083547300001,12.24742340450004]}},{"type":"Feature","properties":{"psgc_code":"054113025","name":"Tabuc","level":"barangay-label","municipality_psgc_code":"054113000","municipality_name":"Mobo"},"geometry":{"type":"Point","coordinates":[123.66947541550007,12.31919110450005]}},{"type":"Feature","properties":{"psgc_code":"054113026","name":"Tugawe","level":"barangay-label","municipality_psgc_code":"054113000","municipality_name":"Mobo"},"geometry":{"type":"Point","coordinates":[123.63630629600004,12.306567517000046]}},{"type":"Feature","properties":{"psgc_code":"054113027","name":"Tugbo","level":"barangay-label","municipality_psgc_code":"054113000","municipality_name":"Mobo"},"geometry":{"type":"Point","coordinates":[123.63317189300005,12.336052402000035]}},{"type":"Feature","properties":{"psgc_code":"054113028","name":"Umabay Exterior","level":"barangay-label","municipality_psgc_code":"054113000","municipality_name":"Mobo"},"geometry":{"type":"Point","coordinates":[123.67753404550007,12.308512892000039]}},{"type":"Feature","properties":{"psgc_code":"054113029","name":"Umabay Interior","level":"barangay-label","municipality_psgc_code":"054113000","municipality_name":"Mobo"},"geometry":{"type":"Point","coordinates":[123.67480891400004,12.29050747000005]}}]}
