{"type":"FeatureCollection","features":[{"type":"Feature","properties":{"psgc_code":"056216001","name":"Abuyog","level":"barangay-label","municipality_psgc_code":"056216000","municipality_name":"City of Sorsogon"},"geometry":{"type":"Point","coordinates":[124.05007908850004,12.944180560500058]}},{"type":"Feature","properties":{"psgc_code":"056216002","name":"Almendras-Cogon (Pob.)","level":"barangay-label","municipality_psgc_code":"056216000","municipality_name":"City of Sorsogon"},"geometry":{"type":"Point","coordinates":[124.00960699200004,12.974002483500069]}},{"type":"Feature","properties":{"psgc_code":"056216004","name":"Barayong","level":"barangay-label","municipality_psgc_code":"056216000","municipality_name":"City of Sorsogon"},"geometry":{"type":"Point","coordinates":[123.95999580300003,12.976488974500057]}},{"type":"Feature","properties":{"psgc_code":"056216005","name":"Basud","level":"barangay-label","municipality_psgc_code":"056216000","municipality_name":"City of Sorsogon"},"geometry":{"type":"Point","coordinates":[123.95653305050007,13.00560330050004]}},{"type":"Feature","properties":{"psgc_code":"056216006","name":"Bibincahan","level":"barangay-label","municipality_psgc_code":"056216000","municipality_name":"City of Sorsogon"},"geometry":{"type":"Point","coordinates":[124.01427729900007,12.994858883500054]}},{"type":"Feature","properties":{"psgc_code":"056216008","name":"Bitan-o/Dalipay (Pob.)","level":"barangay-label","municipality_psgc_code":"056216000","municipality_name":"City of Sorsogon"},"geometry":{"type":"Point","coordinates":[123.99919414150003,12.96704354450006]}},{"type":"Feature","properties":{"psgc_code":"056216009","name":"Bucalbucalan","level":"barangay-label","municipality_psgc_code":"056216000","municipality_name":"City of Sorsogon"},"geometry":{"type":"Point","coordinates":[123.92350295850008,13.009527336000044]}},{"type":"Feature","properties":{"psgc_code":"056216011","name":"Buhatan","level":"barangay-label","municipality_psgc_code":"056216000","municipality_name":"City of Sorsogon"},"geometry":{"type":"Point","coordinates":[124.05158841500003,12.96694867350004]}},{"type":"Feature","properties":{"psgc_code":"056216012","name":"Bulabog","level":"barangay-label","municipality_psgc_code":"056216000","municipality_name":"City of Sorsogon"},"geometry":{"type":"Point","coordinates":[123.9331820160001,13.00744514850004]}},{"type":"Feature","properties":{"psgc_code":"056216013","name":"Burabod (Pob.)","level":"barangay-label","municipality_psgc_code":"056216000","municipality_name":"City of Sorsogon"},"geometry":{"type":"Point","coordinates":[124.00321898300008,12.972124733500038]}},{"type":"Feature","properties":{"psgc_code":"056216014","name":"Cabid-An","level":"barangay-label","municipality_psgc_code":"056216000","municipality_name":"City of Sorsogon"},"geometry":{"type":"Point","coordinates":[124.03138487550007,12.976717105500057]}},{"type":"Feature","properties":{"psgc_code":"056216015","name":"Cambulaga","level":"barangay-label","municipality_psgc_code":"056216000","municipality_name":"City of Sorsogon"},"geometry":{"type":"Point","coordinates":[123.99100978450008,12.96630860150006]}},{"type":"Feature","properties":{"psgc_code":"056216016","name":"Capuy","level":"barangay-label","municipality_psgc_code":"056216000","municipality_name":"City of Sorsogon"},"geometry":{"type":"Point","coordinates":[123.93942974000004,12.996653039000051]}},{"type":"Feature","properties":{"psgc_code":"056216017","name":"Gimaloto","level":"barangay-label","municipality_psgc_code":"056216000","municipality_name":"City of Sorsogon"},"geometry":{"type":"Point","coordinates":[123.95071339600008,12.968286468500054]}},{"type":"Feature","properties":{"psgc_code":"056216018","name":"Guinlajon","level":"barangay-label","municipality_psgc_code":"056216000","municipality_name":"City of Sorsogon"},"geometry":{"type":"Point","coordinates":[123.96550718600008,13.002269358500028]}},{"type":"Feature","properties":{"psgc_code":"056216019","name":"Macabog","level":"barangay-label","municipality_psgc_code":"056216000","municipality_name":"City of Sorsogon"},"geometry":{"type":"Point","coordinates":[123.99038764100003,12.996875280000067]}},{"type":"Feature","properties":{"psgc_code":"056216020","name":"Marinas","level":"barangay-label","municipality_psgc_code":"056216000","municipality_name":"City of Sorsogon"},"geometry":{"type":"Point","coordinates":[124.0658521795001,12.941753861000052]}},{"type":"Feature","properties":{"psgc_code":"056216021","name":"Pamurayan","level":"barangay-label","municipality_psgc_code":"056216000","municipality_name":"City of Sorsogon"},"geometry":{"type":"Point","coordinates":[123.96356719950012,12.96543959750002]}},{"type":"Feature","properties":{"psgc_code":"056216022","name":"Pangpang","level":"barangay-label","municipality_psgc_code":"056216000","municipality_name":"City of Sorsogon"},"geometry":{"type":"Point","coordinates":[123.98222179900006,12.999282239000053]}},{"type":"Feature","properties":{"psgc_code":"056216023","name":"Panlayaan","level":"barangay-label","municipality_psgc_code":"056216000","municipality_name":"City of Sorsogon"},"geometry":{"type":"Point","coordinates":[123.89144712100007,13.01105937850005]}},{"type":"Feature","properties":{"psgc_code":"056216024","name":"Pe\u00f1afrancia","level":"barangay-label","municipality_psgc_code":"056216000","municipality_name":"City of Sorsogon"},"geometry":{"type":"Point","coordinates":[123.97964057250005,12.967090965500063]}},{"type":"Feature","properties":{"psgc_code":"056216025","name":"Piot (Pob.)","level":"barangay-label","municipality_psgc_code":"056216000","municipality_name":"City of Sorsogon"},"geometry":{"type":"Point","coordinates":[123.99692544650001,12.972728306000036]}},{"type":"Feature","properties":{"psgc_code":"056216026","name":"Polvorista (Pob.)","level":"barangay-label","municipality_psgc_code":"056216000","municipality_name":"City of Sorsogon"},"geometry":{"type":"Point","coordinates":[124.00464752150009,12.970967082000044]}},{"type":"Feature","properties":{"psgc_code":"056216027","name":"Rizal","level":"barangay-label","municipality_psgc_code":"056216000","municipality_name":"City of Sorsogon"},"geometry":{"type":"Point","coordinates":[123.91789638850008,13.020323906000044]}},{"type":"Feature","properties":{"psgc_code":"056216028","name":"Salog (Pob.)","level":"barangay-label","municipality_psgc_code":"056216000","municipality_name":"City of Sorsogon"},"geometry":{"type":"Point","coordinates":[124.00689332900009,12.976485675000047]}},{"type":"Feature","properties":{"psgc_code":"056216030","name":"Sampaloc (Pob.)","level":"barangay-label","municipality_psgc_code":"056216000","municipality_name":"City of Sorsogon"},"geometry":{"type":"Point","coordinates":[124.00926028150008,12.970707030500051]}},{"type":"Feature","properties":{"psgc_code":"056216033","name":"Sirangan (Pob.)","level":"barangay-label","municipality_psgc_code":"056216000","municipality_name":"City of Sorsogon"},"geometry":{"type":"Point","coordinates":[124.00606957950004,12.969030113500052]}},{"type":"Feature","properties":{"psgc_code":"056216034","name":"Sulucan (Pob.)","level":"barangay-label","municipality_psgc_code":"056216000","municipality_name":"City of Sorsogon"},"geometry":{"type":"Point","coordinates":[124.00680806700007,12.971488022000045]}},{"type":"Feature","properties":{"psgc_code":"056216035","name":"Talisay (Pob.)","level":"barangay-label","municipality_psgc_code":"056216000","municipality_name":"City of Sorsogon"},"geometry":{"type":"Point","coordinates":[124.0021753045001,12.967014360000034]}},{"type":"Feature","properties":{"psgc_code":"056216036","name":"Ticol","level":"barangay-label","municipality_psgc_code":"056216000","municipality_name":"City of Sorsogon"},"geometry":{"type":"Point","coordinates":[123.94921385350011,13.005568857000071]}},{"type":"Feature","properties":{"psgc_code":"056216037","name":"Tugos","level":"barangay-label","municipality_psgc_code":"056216000","municipality_name":"City of Sorsogon"},"geometry":{"type":"Point","coordinates":[123.98793385800002,12.972969305500044]}},{"type":"Feature","properties":{"psgc_code":"056216038","name":"Balete","level":"barangay-label","municipality_psgc_code":"056216000","municipality_name":"City of Sorsogon"},"geometry":{"type":"Point","coordinates":[124.02960738050007,13.024379036000019]}},{"type":"Feature","properties":{"psgc_code":"056216039","name":"Balogo","level":"barangay-label","municipality_psgc_code":"056216000","municipality_name":"City of Sorsogon"},"geometry":{"type":"Point","coordinates":[124.12151510750004,13.061207948000058]}},{"type":"Feature","properties":{"psgc_code":"056216040","name":"Bato","level":"barangay-label","municipality_psgc_code":"056216000","municipality_name":"City of Sorsogon"},"geometry":{"type":"Point","coordinates":[124.09885495750007,12.99247402100005]}},{"type":"Feature","properties":{"psgc_code":"056216041","name":"Bon-Ot","level":"barangay-label","municipality_psgc_code":"056216000","municipality_name":"City of Sorsogon"},"geometry":{"type":"Point","coordinates":[124.11533995950009,13.05484806350006]}},{"type":"Feature","properties":{"psgc_code":"056216042","name":"Bog\u00f1a","level":"barangay-label","municipality_psgc_code":"056216000","municipality_name":"City of Sorsogon"},"geometry":{"type":"Point","coordinates":[124.05962484750007,13.02433087600005]}},{"type":"Feature","properties":{"psgc_code":"056216043","name":"Buenavista","level":"barangay-label","municipality_psgc_code":"056216000","municipality_name":"City of Sorsogon"},"geometry":{"type":"Point","coordinates":[124.11088778200008,13.036769897000028]}},{"type":"Feature","properties":{"psgc_code":"056216044","name":"Cabarbuhan","level":"barangay-label","municipality_psgc_code":"056216000","municipality_name":"City of Sorsogon"},"geometry":{"type":"Point","coordinates":[124.00931783200006,13.030762005500064]}},{"type":"Feature","properties":{"psgc_code":"056216045","name":"Caricaran","level":"barangay-label","municipality_psgc_code":"056216000","municipality_name":"City of Sorsogon"},"geometry":{"type":"Point","coordinates":[124.05142698300011,13.031260913500061]}},{"type":"Feature","properties":{"psgc_code":"056216046","name":"Del Rosario","level":"barangay-label","municipality_psgc_code":"056216000","municipality_name":"City of Sorsogon"},"geometry":{"type":"Point","coordinates":[124.02736916600003,13.044713786000045]}},{"type":"Feature","properties":{"psgc_code":"056216047","name":"Gatbo","level":"barangay-label","municipality_psgc_code":"056216000","municipality_name":"City of Sorsogon"},"geometry":{"type":"Point","coordinates":[124.10645988950006,13.010717151000053]}},{"type":"Feature","properties":{"psgc_code":"056216048","name":"Jamislagan","level":"barangay-label","municipality_psgc_code":"056216000","municipality_name":"City of Sorsogon"},"geometry":{"type":"Point","coordinates":[124.07666791300005,12.972992207500056]}},{"type":"Feature","properties":{"psgc_code":"056216049","name":"Maricrum","level":"barangay-label","municipality_psgc_code":"056216000","municipality_name":"City of Sorsogon"},"geometry":{"type":"Point","coordinates":[124.00534853150003,13.020182310000052]}},{"type":"Feature","properties":{"psgc_code":"056216050","name":"Osiao","level":"barangay-label","municipality_psgc_code":"056216000","municipality_name":"City of Sorsogon"},"geometry":{"type":"Point","coordinates":[123.96968412000007,13.068410498500045]}},{"type":"Feature","properties":{"psgc_code":"056216051","name":"Poblacion","level":"barangay-label","municipality_psgc_code":"056216000","municipality_name":"City of Sorsogon"},"geometry":{"type":"Point","coordinates":[124.03874988450002,13.03283970050006]}},{"type":"Feature","properties":{"psgc_code":"056216052","name":"Rawis","level":"barangay-label","municipality_psgc_code":"056216000","municipality_name":"City of Sorsogon"},"geometry":{"type":"Point","coordinates":[124.02740674700004,13.038065239500071]}},{"type":"Feature","properties":{"psgc_code":"056216053","name":"Salvacion","level":"barangay-label","municipality_psgc_code":"056216000","municipality_name":"City of Sorsogon"},"geometry":{"type":"Point","coordinates":[124.06307639600004,13.007441601000068]}},{"type":"Feature","properties":{"psgc_code":"056216054","name":"San Isidro","level":"barangay-label","municipality_psgc_code":"056216000","municipality_name":"City of Sorsogon"},"geometry":{"type":"Point","coordinates":[124.03800311050009,12.999367374500016]}},{"type":"Feature","properties":{"psgc_code":"056216055","name":"San Juan","level":"barangay-label","municipality_psgc_code":"056216000","municipality_name":"City of Sorsogon"},"geometry":{"type":"Point","coordinates":[123.99352617400007,13.04456101900004]}},{"type":"Feature","properties":{"psgc_code":"056216056","name":"San Pascual","level":"barangay-label","municipality_psgc_code":"056216000","municipality_name":"City of Sorsogon"},"geometry":{"type":"Point","coordinates":[124.04741062900007,13.01676823200006]}},{"type":"Feature","properties":{"psgc_code":"056216057","name":"San Ramon","level":"barangay-label","municipality_psgc_code":"056216000","municipality_name":"City of Sorsogon"},"geometry":{"type":"Point","coordinates":[124.05660438400002,13.002227125000022]}},{"type":"Feature","properties":{"psgc_code":"056216058","name":"San Roque","level":"barangay-label","municipality_psgc_code":"056216000","municipality_name":"City of Sorsogon"},"geometry":{"type":"Point","coordinates":[124.02790717700002,13.009827727500038]}},{"type":"Feature","properties":{"psgc_code":"056216059","name":"San Vicente","level":"barangay-label","municipality_psgc_code":"056216000","municipality_name":"City of Sorsogon"},"geometry":{"type":"Point","coordinates":[124.0580711290001,12.985876174500032]}},{"type":"Feature","properties":{"psgc_code":"056216060","name":"Santa Cruz","level":"barangay-label","municipality_psgc_code":"056216000","municipality_name":"City of Sorsogon"},"geometry":{"type":"Point","coordinates":[124.01232471700007,13.041054613000057]}},{"type":"Feature","properties":{"psgc_code":"056216061","name":"Santa Lucia","level":"barangay-label","municipality_psgc_code":"056216000","municipality_name":"City of Sorsogon"},"geometry":{"type":"Point","coordinates":[124.07305371550007,12.99748988500005]}},{"type":"Feature","properties":{"psgc_code":"056216062","name":"Santo Domingo","level":"barangay-label","municipality_psgc_code":"056216000","municipality_name":"City of Sorsogon"},"geometry":{"type":"Point","coordinates":[124.02016245250002,13.049089876000037]}},{"type":"Feature","properties":{"psgc_code":"056216063","name":"Santo Ni\u00f1o","level":"barangay-label","municipality_psgc_code":"056216000","municipality_name":"City of Sorsogon"},"geometry":{"type":"Point","coordinates":[123.93866631550009,13.086472849000044]}},{"type":"Feature","properties":{"psgc_code":"056216064","name":"Sawanga","level":"barangay-label","municipality_psgc_code":"056216000","municipality_name":"City of Sorsogon"},"geometry":{"type":"Point","coordinates":[124.12690746450005,13.06769830750005]}},{"type":"Feature","properties":{"psgc_code":"056216065","name":"Sugod","level":"barangay-label","municipality_psgc_code":"056216000","municipality_name":"City of Sorsogon"},"geometry":{"type":"Point","coordinates":[124.07855237900009,12.988238489000054]}}]}
