{"type":"FeatureCollection","features":[{"type":"Feature","properties":{"psgc_code":"056215001","name":"La Esperanza","level":"barangay-label","municipality_psgc_code":"056215000","municipality_name":"Santa Magdalena"},"geometry":{"type":"Point","coordinates":[124.05727923850009,12.645991586000036]}},{"type":"Feature","properties":{"psgc_code":"056215002","name":"Pe\u00f1afrancia","level":"barangay-label","municipality_psgc_code":"056215000","municipality_name":"Santa Magdalena"},"geometry":{"type":"Point","coordinates":[124.08391612700008,12.62710982300004]}},{"type":"Feature","properties":{"psgc_code":"056215003","name":"Barangay Poblacion I","level":"barangay-label","municipality_psgc_code":"056215000","municipality_name":"Santa Magdalena"},"geometry":{"type":"Point","coordinates":[124.11220730400004,12.650125713500046]}},{"type":"Feature","properties":{"psgc_code":"056215004","name":"Barangay Poblacion II","level":"barangay-label","municipality_psgc_code":"056215000","municipality_name":"Santa Magdalena"},"geometry":{"type":"Point","coordinates":[124.10795615850009,12.647025426000056]}},{"type":"Feature","properties":{"psgc_code":"056215005","name":"Barangay Poblacion III","level":"barangay-label","municipality_psgc_code":"056215000","municipality_name":"Santa Magdalena"},"geometry":{"type":"Point","coordinates":[124.10437061850007,12.646381055000035]}},{"type":"Feature","properties":{"psgc_code":"056215006","name":"Barangay Poblacion IV","level":"barangay-label","municipality_psgc_code":"056215000","municipality_name":"Santa Magdalena"},"geometry":{"type":"Point","coordinates":[124.10140950700003,12.645004581000023]}},{"type":"Feature","properties":{"psgc_code":"056215007","name":"Salvacion","level":"barangay-label","municipality_psgc_code":"056215000","municipality_name":"Santa Magdalena"},"geometry":{"type":"Point","coordinates":[124.08745380000005,12.666481425000057]}},{"type":"Feature","properties":{"psgc_code":"056215008","name":"San Antonio","level":"barangay-label","municipality_psgc_code":"056215000","municipality_name":"Santa Magdalena"},"geometry":{"type":"Point","coordinates":[124.07735271700005,12.65656540300003]}},{"type":"Feature","properties":{"psgc_code":"056215009","name":"San Bartolome","level":"barangay-label","municipality_psgc_code":"056215000","municipality_name":"Santa Magdalena"},"geometry":{"type":"Point","coordinates":[124.10595993200002,12.687187933500041]}},{"type":"Feature","properties":{"psgc_code":"056215010","name":"San Eugenio","level":"barangay-label","municipality_psgc_code":"056215000","municipality_name":"Santa Magdalena"},"geometry":{"type":"Point","coordinates":[124.11761567800005,12.676380714000059]}},{"type":"Feature","properties":{"psgc_code":"056215011","name":"San Isidro","level":"barangay-label","municipality_psgc_code":"056215000","municipality_name":"Santa Magdalena"},"geometry":{"type":"Point","coordinates":[124.08447408550006,12.661145092000055]}},{"type":"Feature","properties":{"psgc_code":"056215012","name":"San Rafael","level":"barangay-label","municipality_psgc_code":"056215000","municipality_name":"Santa Magdalena"},"geometry":{"type":"Point","coordinates":[124.11741618700005,12.661127992000045]}},{"type":"Feature","properties":{"psgc_code":"056215013","name":"San Roque","level":"barangay-label","municipality_psgc_code":"056215000","municipality_name":"Santa Magdalena"},"geometry":{"type":"Point","coordinates":[124.10460329950001,12.656117347500043]}},{"type":"Feature","properties":{"psgc_code":"056215014","name":"San Sebastian","level":"barangay-label","municipality_psgc_code":"056215000","municipality_name":"Santa Magdalena"},"geometry":{"type":"Point","coordinates":[124.09192088700007,12.620511164500044]}}]}
