{"type":"FeatureCollection","features":[{"type":"Feature","properties":{"psgc_code":"056207001","name":"Alin","level":"barangay-label","municipality_psgc_code":"056207000","municipality_name":"Donsol"},"geometry":{"type":"Point","coordinates":[123.60855667650003,12.991792666000066]}},{"type":"Feature","properties":{"psgc_code":"056207002","name":"Awai","level":"barangay-label","municipality_psgc_code":"056207000","municipality_name":"Donsol"},"geometry":{"type":"Point","coordinates":[123.59850246450006,12.905835050000015]}},{"type":"Feature","properties":{"psgc_code":"056207003","name":"Banban","level":"barangay-label","municipality_psgc_code":"056207000","municipality_name":"Donsol"},"geometry":{"type":"Point","coordinates":[123.62239203350009,12.991718685500047]}},{"type":"Feature","properties":{"psgc_code":"056207004","name":"Bandi","level":"barangay-label","municipality_psgc_code":"056207000","municipality_name":"Donsol"},"geometry":{"type":"Point","coordinates":[123.58897076250001,12.987246824000032]}},{"type":"Feature","properties":{"psgc_code":"056207005","name":"Banuang Gurang","level":"barangay-label","municipality_psgc_code":"056207000","municipality_name":"Donsol"},"geometry":{"type":"Point","coordinates":[123.60602381700005,13.01414346900006]}},{"type":"Feature","properties":{"psgc_code":"056207006","name":"Baras","level":"barangay-label","municipality_psgc_code":"056207000","municipality_name":"Donsol"},"geometry":{"type":"Point","coordinates":[123.61003730950007,13.005456600500025]}},{"type":"Feature","properties":{"psgc_code":"056207007","name":"Bayawas","level":"barangay-label","municipality_psgc_code":"056207000","municipality_name":"Donsol"},"geometry":{"type":"Point","coordinates":[123.63044493350009,12.92621121700003]}},{"type":"Feature","properties":{"psgc_code":"056207008","name":"Bororan Barangay 1 (Pob.)","level":"barangay-label","municipality_psgc_code":"056207000","municipality_name":"Donsol"},"geometry":{"type":"Point","coordinates":[123.59453624450009,12.908724208500047]}},{"type":"Feature","properties":{"psgc_code":"056207009","name":"Cabugao","level":"barangay-label","municipality_psgc_code":"056207000","municipality_name":"Donsol"},"geometry":{"type":"Point","coordinates":[123.56336935200005,13.017521863000038]}},{"type":"Feature","properties":{"psgc_code":"056207010","name":"Central Barangay 2 (Pob.)","level":"barangay-label","municipality_psgc_code":"056207000","municipality_name":"Donsol"},"geometry":{"type":"Point","coordinates":[123.59509278950009,12.905065256000057]}},{"type":"Feature","properties":{"psgc_code":"056207011","name":"Cristo","level":"barangay-label","municipality_psgc_code":"056207000","municipality_name":"Donsol"},"geometry":{"type":"Point","coordinates":[123.610497256,12.928948363000046]}},{"type":"Feature","properties":{"psgc_code":"056207012","name":"Dancalan","level":"barangay-label","municipality_psgc_code":"056207000","municipality_name":"Donsol"},"geometry":{"type":"Point","coordinates":[123.58364906550007,12.920004928000031]}},{"type":"Feature","properties":{"psgc_code":"056207013","name":"De Vera","level":"barangay-label","municipality_psgc_code":"056207000","municipality_name":"Donsol"},"geometry":{"type":"Point","coordinates":[123.62227777950005,13.011671164000063]}},{"type":"Feature","properties":{"psgc_code":"056207014","name":"Gimagaan","level":"barangay-label","municipality_psgc_code":"056207000","municipality_name":"Donsol"},"geometry":{"type":"Point","coordinates":[123.56367932450006,12.950232482500041]}},{"type":"Feature","properties":{"psgc_code":"056207015","name":"Girawan","level":"barangay-label","municipality_psgc_code":"056207000","municipality_name":"Donsol"},"geometry":{"type":"Point","coordinates":[123.58078912800005,12.93962722300003]}},{"type":"Feature","properties":{"psgc_code":"056207016","name":"Gogon","level":"barangay-label","municipality_psgc_code":"056207000","municipality_name":"Donsol"},"geometry":{"type":"Point","coordinates":[123.63045858450005,12.960007379500038]}},{"type":"Feature","properties":{"psgc_code":"056207017","name":"Gura","level":"barangay-label","municipality_psgc_code":"056207000","municipality_name":"Donsol"},"geometry":{"type":"Point","coordinates":[123.63076398150008,12.914085956000033]}},{"type":"Feature","properties":{"psgc_code":"056207018","name":"Juan Adre","level":"barangay-label","municipality_psgc_code":"056207000","municipality_name":"Donsol"},"geometry":{"type":"Point","coordinates":[123.59080165900008,12.970143437000047]}},{"type":"Feature","properties":{"psgc_code":"056207019","name":"Lourdes","level":"barangay-label","municipality_psgc_code":"056207000","municipality_name":"Donsol"},"geometry":{"type":"Point","coordinates":[123.54423122600008,12.995766331500032]}},{"type":"Feature","properties":{"psgc_code":"056207020","name":"Mabini","level":"barangay-label","municipality_psgc_code":"056207000","municipality_name":"Donsol"},"geometry":{"type":"Point","coordinates":[123.60799763400007,12.974165745500041]}},{"type":"Feature","properties":{"psgc_code":"056207021","name":"Malapoc","level":"barangay-label","municipality_psgc_code":"056207000","municipality_name":"Donsol"},"geometry":{"type":"Point","coordinates":[123.52649487350004,12.97373173900002]}},{"type":"Feature","properties":{"psgc_code":"056207022","name":"Malinao","level":"barangay-label","municipality_psgc_code":"056207000","municipality_name":"Donsol"},"geometry":{"type":"Point","coordinates":[123.54352871550003,12.976159145000025]}},{"type":"Feature","properties":{"psgc_code":"056207023","name":"Market Site Barangay 3 (Pob.)","level":"barangay-label","municipality_psgc_code":"056207000","municipality_name":"Donsol"},"geometry":{"type":"Point","coordinates":[123.59379588400009,12.906908782500068]}},{"type":"Feature","properties":{"psgc_code":"056207024","name":"New Maguisa","level":"barangay-label","municipality_psgc_code":"056207000","municipality_name":"Donsol"},"geometry":{"type":"Point","coordinates":[123.56457804250005,12.995318964500058]}},{"type":"Feature","properties":{"psgc_code":"056207025","name":"Ogod","level":"barangay-label","municipality_psgc_code":"056207000","municipality_name":"Donsol"},"geometry":{"type":"Point","coordinates":[123.61545337050006,12.90936686550006]}},{"type":"Feature","properties":{"psgc_code":"056207026","name":"Old Maguisa","level":"barangay-label","municipality_psgc_code":"056207000","municipality_name":"Donsol"},"geometry":{"type":"Point","coordinates":[123.57275543400002,13.001281633000024]}},{"type":"Feature","properties":{"psgc_code":"056207027","name":"Orange","level":"barangay-label","municipality_psgc_code":"056207000","municipality_name":"Donsol"},"geometry":{"type":"Point","coordinates":[123.58885457050008,13.005681110500035]}},{"type":"Feature","properties":{"psgc_code":"056207028","name":"Pangpang","level":"barangay-label","municipality_psgc_code":"056207000","municipality_name":"Donsol"},"geometry":{"type":"Point","coordinates":[123.5727925975001,12.935227560500039]}},{"type":"Feature","properties":{"psgc_code":"056207029","name":"Parina","level":"barangay-label","municipality_psgc_code":"056207000","municipality_name":"Donsol"},"geometry":{"type":"Point","coordinates":[123.56925704450009,12.976200892000037]}},{"type":"Feature","properties":{"psgc_code":"056207030","name":"Pawala","level":"barangay-label","municipality_psgc_code":"056207000","municipality_name":"Donsol"},"geometry":{"type":"Point","coordinates":[123.58313934350008,13.02109145700004]}},{"type":"Feature","properties":{"psgc_code":"056207031","name":"Pinamanaan","level":"barangay-label","municipality_psgc_code":"056207000","municipality_name":"Donsol"},"geometry":{"type":"Point","coordinates":[123.53448121350004,13.013000584000054]}},{"type":"Feature","properties":{"psgc_code":"056207032","name":"Poso Pob.","level":"barangay-label","municipality_psgc_code":"056207000","municipality_name":"Donsol"},"geometry":{"type":"Point","coordinates":[123.59627713700003,12.90722698650002]}},{"type":"Feature","properties":{"psgc_code":"056207033","name":"Punta Waling-Waling Pob.","level":"barangay-label","municipality_psgc_code":"056207000","municipality_name":"Donsol"},"geometry":{"type":"Point","coordinates":[123.59320580050007,12.904952073500052]}},{"type":"Feature","properties":{"psgc_code":"056207034","name":"Rawis","level":"barangay-label","municipality_psgc_code":"056207000","municipality_name":"Donsol"},"geometry":{"type":"Point","coordinates":[123.59987580500001,12.902530605500061]}},{"type":"Feature","properties":{"psgc_code":"056207035","name":"San Antonio","level":"barangay-label","municipality_psgc_code":"056207000","municipality_name":"Donsol"},"geometry":{"type":"Point","coordinates":[123.61632217600004,12.943692779000013]}},{"type":"Feature","properties":{"psgc_code":"056207036","name":"San Isidro","level":"barangay-label","municipality_psgc_code":"056207000","municipality_name":"Donsol"},"geometry":{"type":"Point","coordinates":[123.60613238350004,12.958870997000034]}},{"type":"Feature","properties":{"psgc_code":"056207037","name":"San Jose","level":"barangay-label","municipality_psgc_code":"056207000","municipality_name":"Donsol"},"geometry":{"type":"Point","coordinates":[123.58889526250002,12.995760641500013]}},{"type":"Feature","properties":{"psgc_code":"056207038","name":"San Rafael","level":"barangay-label","municipality_psgc_code":"056207000","municipality_name":"Donsol"},"geometry":{"type":"Point","coordinates":[123.51072425550007,12.966638739500043]}},{"type":"Feature","properties":{"psgc_code":"056207039","name":"San Ramon","level":"barangay-label","municipality_psgc_code":"056207000","municipality_name":"Donsol"},"geometry":{"type":"Point","coordinates":[123.59809981600006,12.939477339500028]}},{"type":"Feature","properties":{"psgc_code":"056207040","name":"San Vicente","level":"barangay-label","municipality_psgc_code":"056207000","municipality_name":"Donsol"},"geometry":{"type":"Point","coordinates":[123.62631931000004,12.975550982500039]}},{"type":"Feature","properties":{"psgc_code":"056207041","name":"Santa Cruz","level":"barangay-label","municipality_psgc_code":"056207000","municipality_name":"Donsol"},"geometry":{"type":"Point","coordinates":[123.49485683900008,12.988752456500038]}},{"type":"Feature","properties":{"psgc_code":"056207042","name":"Sevilla","level":"barangay-label","municipality_psgc_code":"056207000","municipality_name":"Donsol"},"geometry":{"type":"Point","coordinates":[123.63075351750001,12.94181981150004]}},{"type":"Feature","properties":{"psgc_code":"056207043","name":"Sibago","level":"barangay-label","municipality_psgc_code":"056207000","municipality_name":"Donsol"},"geometry":{"type":"Point","coordinates":[123.52707896650003,12.95386657350005]}},{"type":"Feature","properties":{"psgc_code":"056207044","name":"Suguian","level":"barangay-label","municipality_psgc_code":"056207000","municipality_name":"Donsol"},"geometry":{"type":"Point","coordinates":[123.58100713750008,12.95547115100004]}},{"type":"Feature","properties":{"psgc_code":"056207045","name":"Tagbac","level":"barangay-label","municipality_psgc_code":"056207000","municipality_name":"Donsol"},"geometry":{"type":"Point","coordinates":[123.58541074150008,13.01326937950006]}},{"type":"Feature","properties":{"psgc_code":"056207046","name":"Tinanogan","level":"barangay-label","municipality_psgc_code":"056207000","municipality_name":"Donsol"},"geometry":{"type":"Point","coordinates":[123.53533752800007,12.955132493500058]}},{"type":"Feature","properties":{"psgc_code":"056207047","name":"Tongdol","level":"barangay-label","municipality_psgc_code":"056207000","municipality_name":"Donsol"},"geometry":{"type":"Point","coordinates":[123.63641076000005,12.968940627000052]}},{"type":"Feature","properties":{"psgc_code":"056207048","name":"Tres Marias","level":"barangay-label","municipality_psgc_code":"056207000","municipality_name":"Donsol"},"geometry":{"type":"Point","coordinates":[123.60262,12.914210867000024]}},{"type":"Feature","properties":{"psgc_code":"056207049","name":"Tuba","level":"barangay-label","municipality_psgc_code":"056207000","municipality_name":"Donsol"},"geometry":{"type":"Point","coordinates":[123.51329327750005,12.99521289450007]}},{"type":"Feature","properties":{"psgc_code":"056207050","name":"Tupas","level":"barangay-label","municipality_psgc_code":"056207000","municipality_name":"Donsol"},"geometry":{"type":"Point","coordinates":[123.59700182750004,12.921638459500024]}},{"type":"Feature","properties":{"psgc_code":"056207051","name":"Vinisitahan","level":"barangay-label","municipality_psgc_code":"056207000","municipality_name":"Donsol"},"geometry":{"type":"Point","coordinates":[123.5496552465001,12.95809795450003]}}]}
