{"type":"FeatureCollection","features":[{"type":"Feature","properties":{"psgc_code":"056209001","name":"Bagsangan","level":"barangay-label","municipality_psgc_code":"056209000","municipality_name":"Irosin"},"geometry":{"type":"Point","coordinates":[124.03868923400006,12.728102058500042]}},{"type":"Feature","properties":{"psgc_code":"056209002","name":"Bacolod (Pob.)","level":"barangay-label","municipality_psgc_code":"056209000","municipality_name":"Irosin"},"geometry":{"type":"Point","coordinates":[124.03446445300006,12.700992353000059]}},{"type":"Feature","properties":{"psgc_code":"056209003","name":"Batang","level":"barangay-label","municipality_psgc_code":"056209000","municipality_name":"Irosin"},"geometry":{"type":"Point","coordinates":[123.9925617400001,12.698569484000046]}},{"type":"Feature","properties":{"psgc_code":"056209004","name":"Bolos","level":"barangay-label","municipality_psgc_code":"056209000","municipality_name":"Irosin"},"geometry":{"type":"Point","coordinates":[123.98741045800006,12.750290108500053]}},{"type":"Feature","properties":{"psgc_code":"056209005","name":"Buenavista","level":"barangay-label","municipality_psgc_code":"056209000","municipality_name":"Irosin"},"geometry":{"type":"Point","coordinates":[124.0173474290001,12.69561132450005]}},{"type":"Feature","properties":{"psgc_code":"056209006","name":"Bulawan","level":"barangay-label","municipality_psgc_code":"056209000","municipality_name":"Irosin"},"geometry":{"type":"Point","coordinates":[123.9730662130001,12.730119726000055]}},{"type":"Feature","properties":{"psgc_code":"056209007","name":"Carriedo","level":"barangay-label","municipality_psgc_code":"056209000","municipality_name":"Irosin"},"geometry":{"type":"Point","coordinates":[124.03798183250008,12.68705487200006]}},{"type":"Feature","properties":{"psgc_code":"056209008","name":"Casini","level":"barangay-label","municipality_psgc_code":"056209000","municipality_name":"Irosin"},"geometry":{"type":"Point","coordinates":[124.0080299220001,12.665149484500063]}},{"type":"Feature","properties":{"psgc_code":"056209009","name":"Cawayan","level":"barangay-label","municipality_psgc_code":"056209000","municipality_name":"Irosin"},"geometry":{"type":"Point","coordinates":[124.07481739550008,12.694300115000033]}},{"type":"Feature","properties":{"psgc_code":"056209010","name":"Cogon","level":"barangay-label","municipality_psgc_code":"056209000","municipality_name":"Irosin"},"geometry":{"type":"Point","coordinates":[124.02958436600011,12.759528882500064]}},{"type":"Feature","properties":{"psgc_code":"056209011","name":"Gabao","level":"barangay-label","municipality_psgc_code":"056209000","municipality_name":"Irosin"},"geometry":{"type":"Point","coordinates":[123.97637925850007,12.721307627000071]}},{"type":"Feature","properties":{"psgc_code":"056209012","name":"Gulang-Gulang","level":"barangay-label","municipality_psgc_code":"056209000","municipality_name":"Irosin"},"geometry":{"type":"Point","coordinates":[123.99634964050006,12.736465785000036]}},{"type":"Feature","properties":{"psgc_code":"056209013","name":"Gumapia","level":"barangay-label","municipality_psgc_code":"056209000","municipality_name":"Irosin"},"geometry":{"type":"Point","coordinates":[123.98911214400005,12.70798506650007]}},{"type":"Feature","properties":{"psgc_code":"056209014","name":"Santo Domingo","level":"barangay-label","municipality_psgc_code":"056209000","municipality_name":"Irosin"},"geometry":{"type":"Point","coordinates":[124.05066607250006,12.71059573450006]}},{"type":"Feature","properties":{"psgc_code":"056209015","name":"Liang","level":"barangay-label","municipality_psgc_code":"056209000","municipality_name":"Irosin"},"geometry":{"type":"Point","coordinates":[124.03937697150008,12.662826519500072]}},{"type":"Feature","properties":{"psgc_code":"056209016","name":"Macawayan","level":"barangay-label","municipality_psgc_code":"056209000","municipality_name":"Irosin"},"geometry":{"type":"Point","coordinates":[124.01487732250007,12.711246302500058]}},{"type":"Feature","properties":{"psgc_code":"056209017","name":"Mapaso","level":"barangay-label","municipality_psgc_code":"056209000","municipality_name":"Irosin"},"geometry":{"type":"Point","coordinates":[124.06949464000007,12.734370917000037]}},{"type":"Feature","properties":{"psgc_code":"056209018","name":"Monbon","level":"barangay-label","municipality_psgc_code":"056209000","municipality_name":"Irosin"},"geometry":{"type":"Point","coordinates":[124.01470082750006,12.728453034500033]}},{"type":"Feature","properties":{"psgc_code":"056209019","name":"Patag","level":"barangay-label","municipality_psgc_code":"056209000","municipality_name":"Irosin"},"geometry":{"type":"Point","coordinates":[124.06005459600004,12.720392937500037]}},{"type":"Feature","properties":{"psgc_code":"056209020","name":"Salvacion","level":"barangay-label","municipality_psgc_code":"056209000","municipality_name":"Irosin"},"geometry":{"type":"Point","coordinates":[124.01441495800009,12.677988974500067]}},{"type":"Feature","properties":{"psgc_code":"056209021","name":"San Agustin (Pob.)","level":"barangay-label","municipality_psgc_code":"056209000","municipality_name":"Irosin"},"geometry":{"type":"Point","coordinates":[124.04039334200002,12.707496619000066]}},{"type":"Feature","properties":{"psgc_code":"056209022","name":"San Isidro","level":"barangay-label","municipality_psgc_code":"056209000","municipality_name":"Irosin"},"geometry":{"type":"Point","coordinates":[123.99625205250004,12.687647239500052]}},{"type":"Feature","properties":{"psgc_code":"056209023","name":"San Juan (Pob.)","level":"barangay-label","municipality_psgc_code":"056209000","municipality_name":"Irosin"},"geometry":{"type":"Point","coordinates":[124.03676883550003,12.70753769600006]}},{"type":"Feature","properties":{"psgc_code":"056209024","name":"San Julian (Pob.)","level":"barangay-label","municipality_psgc_code":"056209000","municipality_name":"Irosin"},"geometry":{"type":"Point","coordinates":[124.03306898250003,12.706526069000033]}},{"type":"Feature","properties":{"psgc_code":"056209025","name":"San Pedro","level":"barangay-label","municipality_psgc_code":"056209000","municipality_name":"Irosin"},"geometry":{"type":"Point","coordinates":[124.02373016550007,12.71217157600006]}},{"type":"Feature","properties":{"psgc_code":"056209026","name":"Tabon-Tabon","level":"barangay-label","municipality_psgc_code":"056209000","municipality_name":"Irosin"},"geometry":{"type":"Point","coordinates":[124.04607503850002,12.708121318000053]}},{"type":"Feature","properties":{"psgc_code":"056209027","name":"Tinampo","level":"barangay-label","municipality_psgc_code":"056209000","municipality_name":"Irosin"},"geometry":{"type":"Point","coordinates":[124.00835741750006,12.730379342000049]}},{"type":"Feature","properties":{"psgc_code":"056209028","name":"Tongdol","level":"barangay-label","municipality_psgc_code":"056209000","municipality_name":"Irosin"},"geometry":{"type":"Point","coordinates":[123.98275922450006,12.717121150500049]}}]}
