{"type":"FeatureCollection","features":[{"type":"Feature","properties":{"psgc_code":"056208001","name":"Ariman","level":"barangay-label","municipality_psgc_code":"056208000","municipality_name":"Gubat"},"geometry":{"type":"Point","coordinates":[124.11156983250005,12.90954791750005]}},{"type":"Feature","properties":{"psgc_code":"056208002","name":"Bagacay","level":"barangay-label","municipality_psgc_code":"056208000","municipality_name":"Gubat"},"geometry":{"type":"Point","coordinates":[124.14141598300006,12.985082009000052]}},{"type":"Feature","properties":{"psgc_code":"056208003","name":"Balud Del Norte (Pob.)","level":"barangay-label","municipality_psgc_code":"056208000","municipality_name":"Gubat"},"geometry":{"type":"Point","coordinates":[124.1240756300001,12.924296470000057]}},{"type":"Feature","properties":{"psgc_code":"056208004","name":"Balud Del Sur (Pob.)","level":"barangay-label","municipality_psgc_code":"056208000","municipality_name":"Gubat"},"geometry":{"type":"Point","coordinates":[124.12545701550005,12.921819226000054]}},{"type":"Feature","properties":{"psgc_code":"056208006","name":"Benguet","level":"barangay-label","municipality_psgc_code":"056208000","municipality_name":"Gubat"},"geometry":{"type":"Point","coordinates":[124.11422012050002,12.881022790500054]}},{"type":"Feature","properties":{"psgc_code":"056208007","name":"Bentuco","level":"barangay-label","municipality_psgc_code":"056208000","municipality_name":"Gubat"},"geometry":{"type":"Point","coordinates":[124.07815245900008,12.857618627000049]}},{"type":"Feature","properties":{"psgc_code":"056208008","name":"Beriran","level":"barangay-label","municipality_psgc_code":"056208000","municipality_name":"Gubat"},"geometry":{"type":"Point","coordinates":[124.11125513600007,12.927864644000039]}},{"type":"Feature","properties":{"psgc_code":"056208009","name":"Buenavista","level":"barangay-label","municipality_psgc_code":"056208000","municipality_name":"Gubat"},"geometry":{"type":"Point","coordinates":[124.11756271700006,12.898791222500023]}},{"type":"Feature","properties":{"psgc_code":"056208010","name":"Bulacao","level":"barangay-label","municipality_psgc_code":"056208000","municipality_name":"Gubat"},"geometry":{"type":"Point","coordinates":[124.09121510950007,12.885349820000043]}},{"type":"Feature","properties":{"psgc_code":"056208011","name":"Cabigaan","level":"barangay-label","municipality_psgc_code":"056208000","municipality_name":"Gubat"},"geometry":{"type":"Point","coordinates":[124.09197304100007,12.89422007850007]}},{"type":"Feature","properties":{"psgc_code":"056208012","name":"Cabiguhan","level":"barangay-label","municipality_psgc_code":"056208000","municipality_name":"Gubat"},"geometry":{"type":"Point","coordinates":[124.0771793615001,12.94946988500007]}},{"type":"Feature","properties":{"psgc_code":"056208013","name":"Carriedo","level":"barangay-label","municipality_psgc_code":"056208000","municipality_name":"Gubat"},"geometry":{"type":"Point","coordinates":[124.10094370000002,12.937375072000037]}},{"type":"Feature","properties":{"psgc_code":"056208014","name":"Casili","level":"barangay-label","municipality_psgc_code":"056208000","municipality_name":"Gubat"},"geometry":{"type":"Point","coordinates":[124.08365696800008,12.927648502500059]}},{"type":"Feature","properties":{"psgc_code":"056208015","name":"Cogon","level":"barangay-label","municipality_psgc_code":"056208000","municipality_name":"Gubat"},"geometry":{"type":"Point","coordinates":[124.12622625200004,12.93719491300007]}},{"type":"Feature","properties":{"psgc_code":"056208016","name":"Cota Na Daco (Pob.)","level":"barangay-label","municipality_psgc_code":"056208000","municipality_name":"Gubat"},"geometry":{"type":"Point","coordinates":[124.1224600590001,12.92684138650003]}},{"type":"Feature","properties":{"psgc_code":"056208017","name":"Dita","level":"barangay-label","municipality_psgc_code":"056208000","municipality_name":"Gubat"},"geometry":{"type":"Point","coordinates":[124.08704804550007,12.957654079500031]}},{"type":"Feature","properties":{"psgc_code":"056208018","name":"Jupi","level":"barangay-label","municipality_psgc_code":"056208000","municipality_name":"Gubat"},"geometry":{"type":"Point","coordinates":[124.09979331950007,12.957117178000033]}},{"type":"Feature","properties":{"psgc_code":"056208019","name":"Lapinig","level":"barangay-label","municipality_psgc_code":"056208000","municipality_name":"Gubat"},"geometry":{"type":"Point","coordinates":[124.0963263595001,12.973883501000044]}},{"type":"Feature","properties":{"psgc_code":"056208020","name":"Luna-Candol (Pob.)","level":"barangay-label","municipality_psgc_code":"056208000","municipality_name":"Gubat"},"geometry":{"type":"Point","coordinates":[124.12113259150004,12.919970272000029]}},{"type":"Feature","properties":{"psgc_code":"056208021","name":"Manapao","level":"barangay-label","municipality_psgc_code":"056208000","municipality_name":"Gubat"},"geometry":{"type":"Point","coordinates":[124.08763364350006,12.915024249000055]}},{"type":"Feature","properties":{"psgc_code":"056208022","name":"Manook (Pob.)","level":"barangay-label","municipality_psgc_code":"056208000","municipality_name":"Gubat"},"geometry":{"type":"Point","coordinates":[124.12104781450006,12.923311849500038]}},{"type":"Feature","properties":{"psgc_code":"056208023","name":"Naagtan","level":"barangay-label","municipality_psgc_code":"056208000","municipality_name":"Gubat"},"geometry":{"type":"Point","coordinates":[124.08497044450002,12.870818581000037]}},{"type":"Feature","properties":{"psgc_code":"056208024","name":"Nato","level":"barangay-label","municipality_psgc_code":"056208000","municipality_name":"Gubat"},"geometry":{"type":"Point","coordinates":[124.10953842300006,12.97370114000006]}},{"type":"Feature","properties":{"psgc_code":"056208025","name":"Nazareno","level":"barangay-label","municipality_psgc_code":"056208000","municipality_name":"Gubat"},"geometry":{"type":"Point","coordinates":[124.12667227650007,12.87779746250007]}},{"type":"Feature","properties":{"psgc_code":"056208026","name":"Ogao","level":"barangay-label","municipality_psgc_code":"056208000","municipality_name":"Gubat"},"geometry":{"type":"Point","coordinates":[124.13304346900003,12.966356349000051]}},{"type":"Feature","properties":{"psgc_code":"056208027","name":"Paco","level":"barangay-label","municipality_psgc_code":"056208000","municipality_name":"Gubat"},"geometry":{"type":"Point","coordinates":[124.12902350550007,12.989193926000041]}},{"type":"Feature","properties":{"psgc_code":"056208028","name":"Panganiban (Pob.)","level":"barangay-label","municipality_psgc_code":"056208000","municipality_name":"Gubat"},"geometry":{"type":"Point","coordinates":[124.12505480250007,12.91517846900004]}},{"type":"Feature","properties":{"psgc_code":"056208029","name":"Paradijon (Pob.)","level":"barangay-label","municipality_psgc_code":"056208000","municipality_name":"Gubat"},"geometry":{"type":"Point","coordinates":[124.12081323650006,12.917854300500037]}},{"type":"Feature","properties":{"psgc_code":"056208030","name":"Patag","level":"barangay-label","municipality_psgc_code":"056208000","municipality_name":"Gubat"},"geometry":{"type":"Point","coordinates":[124.11669405250007,12.993415526500057]}},{"type":"Feature","properties":{"psgc_code":"056208031","name":"Payawin","level":"barangay-label","municipality_psgc_code":"056208000","municipality_name":"Gubat"},"geometry":{"type":"Point","coordinates":[124.08528950550004,12.940776482500041]}},{"type":"Feature","properties":{"psgc_code":"056208033","name":"Pinontingan (Pob.)","level":"barangay-label","municipality_psgc_code":"056208000","municipality_name":"Gubat"},"geometry":{"type":"Point","coordinates":[124.12505373150003,12.918488348500059]}},{"type":"Feature","properties":{"psgc_code":"056208034","name":"Rizal","level":"barangay-label","municipality_psgc_code":"056208000","municipality_name":"Gubat"},"geometry":{"type":"Point","coordinates":[124.13549149350007,12.886669364000053]}},{"type":"Feature","properties":{"psgc_code":"056208035","name":"San Ignacio","level":"barangay-label","municipality_psgc_code":"056208000","municipality_name":"Gubat"},"geometry":{"type":"Point","coordinates":[124.11571272700002,12.940749217500041]}},{"type":"Feature","properties":{"psgc_code":"056208036","name":"Sangat","level":"barangay-label","municipality_psgc_code":"056208000","municipality_name":"Gubat"},"geometry":{"type":"Point","coordinates":[124.07843836100005,12.889445665000066]}},{"type":"Feature","properties":{"psgc_code":"056208037","name":"Santa Ana","level":"barangay-label","municipality_psgc_code":"056208000","municipality_name":"Gubat"},"geometry":{"type":"Point","coordinates":[124.10309198800007,12.915061939500047]}},{"type":"Feature","properties":{"psgc_code":"056208038","name":"Tabi","level":"barangay-label","municipality_psgc_code":"056208000","municipality_name":"Gubat"},"geometry":{"type":"Point","coordinates":[124.10523295400009,12.891131203500038]}},{"type":"Feature","properties":{"psgc_code":"056208039","name":"Tagaytay","level":"barangay-label","municipality_psgc_code":"056208000","municipality_name":"Gubat"},"geometry":{"type":"Point","coordinates":[124.10794030350007,12.95822366750005]}},{"type":"Feature","properties":{"psgc_code":"056208040","name":"Tigkiw","level":"barangay-label","municipality_psgc_code":"056208000","municipality_name":"Gubat"},"geometry":{"type":"Point","coordinates":[124.07631965700006,12.835540846500038]}},{"type":"Feature","properties":{"psgc_code":"056208041","name":"Tiris","level":"barangay-label","municipality_psgc_code":"056208000","municipality_name":"Gubat"},"geometry":{"type":"Point","coordinates":[124.13043290850004,12.946650572500033]}},{"type":"Feature","properties":{"psgc_code":"056208042","name":"Togawe","level":"barangay-label","municipality_psgc_code":"056208000","municipality_name":"Gubat"},"geometry":{"type":"Point","coordinates":[124.09536427950007,12.863086932000044]}},{"type":"Feature","properties":{"psgc_code":"056208043","name":"Union","level":"barangay-label","municipality_psgc_code":"056208000","municipality_name":"Gubat"},"geometry":{"type":"Point","coordinates":[124.09344244500004,12.90275295850003]}},{"type":"Feature","properties":{"psgc_code":"056208044","name":"Villareal","level":"barangay-label","municipality_psgc_code":"056208000","municipality_name":"Gubat"},"geometry":{"type":"Point","coordinates":[124.1131466435001,12.88506687550003]}}]}
