{"type":"FeatureCollection","features":[{"type":"Feature","properties":{"psgc_code":"056204001","name":"Bagacay","level":"barangay-label","municipality_psgc_code":"056204000","municipality_name":"Bulusan"},"geometry":{"type":"Point","coordinates":[124.14390101700002,12.798357030000032]}},{"type":"Feature","properties":{"psgc_code":"056204002","name":"Central (Pob.)","level":"barangay-label","municipality_psgc_code":"056204000","municipality_name":"Bulusan"},"geometry":{"type":"Point","coordinates":[124.13581913700006,12.750468678000033]}},{"type":"Feature","properties":{"psgc_code":"056204003","name":"Cogon","level":"barangay-label","municipality_psgc_code":"056204000","municipality_name":"Bulusan"},"geometry":{"type":"Point","coordinates":[124.12895610950005,12.711132501000037]}},{"type":"Feature","properties":{"psgc_code":"056204004","name":"Dancalan","level":"barangay-label","municipality_psgc_code":"056204000","municipality_name":"Bulusan"},"geometry":{"type":"Point","coordinates":[124.13682280600005,12.769627042500044]}},{"type":"Feature","properties":{"psgc_code":"056204005","name":"Dapdap (Pob.)","level":"barangay-label","municipality_psgc_code":"056204000","municipality_name":"Bulusan"},"geometry":{"type":"Point","coordinates":[124.13853464950006,12.754602848500038]}},{"type":"Feature","properties":{"psgc_code":"056204006","name":"Lalud","level":"barangay-label","municipality_psgc_code":"056204000","municipality_name":"Bulusan"},"geometry":{"type":"Point","coordinates":[124.11917046800005,12.707034360000051]}},{"type":"Feature","properties":{"psgc_code":"056204007","name":"Looban (Pob.)","level":"barangay-label","municipality_psgc_code":"056204000","municipality_name":"Bulusan"},"geometry":{"type":"Point","coordinates":[124.13570098700006,12.752391168500026]}},{"type":"Feature","properties":{"psgc_code":"056204008","name":"Mabuhay (Pob.)","level":"barangay-label","municipality_psgc_code":"056204000","municipality_name":"Bulusan"},"geometry":{"type":"Point","coordinates":[124.13577953150008,12.743391648500051]}},{"type":"Feature","properties":{"psgc_code":"056204009","name":"Madlawon (Pob.)","level":"barangay-label","municipality_psgc_code":"056204000","municipality_name":"Bulusan"},"geometry":{"type":"Point","coordinates":[124.13494971300008,12.75828893500005]}},{"type":"Feature","properties":{"psgc_code":"056204010","name":"Poctol (Pob.)","level":"barangay-label","municipality_psgc_code":"056204000","municipality_name":"Bulusan"},"geometry":{"type":"Point","coordinates":[124.13365902100003,12.753358706000057]}},{"type":"Feature","properties":{"psgc_code":"056204011","name":"Porog","level":"barangay-label","municipality_psgc_code":"056204000","municipality_name":"Bulusan"},"geometry":{"type":"Point","coordinates":[124.14446309050005,12.78279232050005]}},{"type":"Feature","properties":{"psgc_code":"056204012","name":"Sabang (Pob.)","level":"barangay-label","municipality_psgc_code":"056204000","municipality_name":"Bulusan"},"geometry":{"type":"Point","coordinates":[124.13642897250008,12.748358231500049]}},{"type":"Feature","properties":{"psgc_code":"056204013","name":"Salvacion","level":"barangay-label","municipality_psgc_code":"056204000","municipality_name":"Bulusan"},"geometry":{"type":"Point","coordinates":[124.0962024905001,12.72146163450006]}},{"type":"Feature","properties":{"psgc_code":"056204014","name":"San Antonio","level":"barangay-label","municipality_psgc_code":"056204000","municipality_name":"Bulusan"},"geometry":{"type":"Point","coordinates":[124.12181674850007,12.696011847000051]}},{"type":"Feature","properties":{"psgc_code":"056204015","name":"San Bernardo","level":"barangay-label","municipality_psgc_code":"056204000","municipality_name":"Bulusan"},"geometry":{"type":"Point","coordinates":[124.11891923500002,12.732803287000053]}},{"type":"Feature","properties":{"psgc_code":"056204016","name":"San Francisco","level":"barangay-label","municipality_psgc_code":"056204000","municipality_name":"Bulusan"},"geometry":{"type":"Point","coordinates":[124.09631790550003,12.758679218000054]}},{"type":"Feature","properties":{"psgc_code":"056204017","name":"San Isidro","level":"barangay-label","municipality_psgc_code":"056204000","municipality_name":"Bulusan"},"geometry":{"type":"Point","coordinates":[124.1188544795001,12.781513752500047]}},{"type":"Feature","properties":{"psgc_code":"056204018","name":"San Jose","level":"barangay-label","municipality_psgc_code":"056204000","municipality_name":"Bulusan"},"geometry":{"type":"Point","coordinates":[124.09522245000004,12.765988085500053]}},{"type":"Feature","properties":{"psgc_code":"056204019","name":"San Rafael","level":"barangay-label","municipality_psgc_code":"056204000","municipality_name":"Bulusan"},"geometry":{"type":"Point","coordinates":[124.11658113700008,12.74439599750005]}},{"type":"Feature","properties":{"psgc_code":"056204020","name":"San Roque","level":"barangay-label","municipality_psgc_code":"056204000","municipality_name":"Bulusan"},"geometry":{"type":"Point","coordinates":[124.08336136650007,12.739951589000043]}},{"type":"Feature","properties":{"psgc_code":"056204021","name":"San Vicente","level":"barangay-label","municipality_psgc_code":"056204000","municipality_name":"Bulusan"},"geometry":{"type":"Point","coordinates":[124.15009224150009,12.796689787000048]}},{"type":"Feature","properties":{"psgc_code":"056204022","name":"Santa Barbara","level":"barangay-label","municipality_psgc_code":"056204000","municipality_name":"Bulusan"},"geometry":{"type":"Point","coordinates":[124.09204477300005,12.78705191350005]}},{"type":"Feature","properties":{"psgc_code":"056204023","name":"Sapngan (Pob.)","level":"barangay-label","municipality_psgc_code":"056204000","municipality_name":"Bulusan"},"geometry":{"type":"Point","coordinates":[124.13257589550005,12.752184125500037]}},{"type":"Feature","properties":{"psgc_code":"056204024","name":"Tinampo","level":"barangay-label","municipality_psgc_code":"056204000","municipality_name":"Bulusan"},"geometry":{"type":"Point","coordinates":[124.12174564100008,12.721404442500045]}}]}
