{"type":"FeatureCollection","features":[{"type":"Feature","properties":{"psgc_code":"056212001","name":"Balocawe","level":"barangay-label","municipality_psgc_code":"056212000","municipality_name":"Matnog"},"geometry":{"type":"Point","coordinates":[124.04541282050008,12.587842567500047]}},{"type":"Feature","properties":{"psgc_code":"056212002","name":"Banogao","level":"barangay-label","municipality_psgc_code":"056212000","municipality_name":"Matnog"},"geometry":{"type":"Point","coordinates":[124.06309486850006,12.623092667000037]}},{"type":"Feature","properties":{"psgc_code":"056212003","name":"Banuangdaan","level":"barangay-label","municipality_psgc_code":"056212000","municipality_name":"Matnog"},"geometry":{"type":"Point","coordinates":[124.09696234500007,12.590851094000044]}},{"type":"Feature","properties":{"psgc_code":"056212004","name":"Bariis","level":"barangay-label","municipality_psgc_code":"056212000","municipality_name":"Matnog"},"geometry":{"type":"Point","coordinates":[124.07166762250006,12.611561946000052]}},{"type":"Feature","properties":{"psgc_code":"056212005","name":"Bolo","level":"barangay-label","municipality_psgc_code":"056212000","municipality_name":"Matnog"},"geometry":{"type":"Point","coordinates":[124.04569302000004,12.619252899500026]}},{"type":"Feature","properties":{"psgc_code":"056212006","name":"Bon-Ot Big","level":"barangay-label","municipality_psgc_code":"056212000","municipality_name":"Matnog"},"geometry":{"type":"Point","coordinates":[124.04643073050005,12.554848476500068]}},{"type":"Feature","properties":{"psgc_code":"056212007","name":"Bon-Ot Small","level":"barangay-label","municipality_psgc_code":"056212000","municipality_name":"Matnog"},"geometry":{"type":"Point","coordinates":[124.05618759250007,12.547970005000057]}},{"type":"Feature","properties":{"psgc_code":"056212008","name":"Cabagahan","level":"barangay-label","municipality_psgc_code":"056212000","municipality_name":"Matnog"},"geometry":{"type":"Point","coordinates":[124.06367803400008,12.576822470500048]}},{"type":"Feature","properties":{"psgc_code":"056212010","name":"Calayuan","level":"barangay-label","municipality_psgc_code":"056212000","municipality_name":"Matnog"},"geometry":{"type":"Point","coordinates":[124.09685098450007,12.529325018500032]}},{"type":"Feature","properties":{"psgc_code":"056212011","name":"Calintaan","level":"barangay-label","municipality_psgc_code":"056212000","municipality_name":"Matnog"},"geometry":{"type":"Point","coordinates":[124.11162609900009,12.55722782950005]}},{"type":"Feature","properties":{"psgc_code":"056212012","name":"Caloocan (Pob.)","level":"barangay-label","municipality_psgc_code":"056212000","municipality_name":"Matnog"},"geometry":{"type":"Point","coordinates":[124.08424650450007,12.584202408500033]}},{"type":"Feature","properties":{"psgc_code":"056212013","name":"Calpi","level":"barangay-label","municipality_psgc_code":"056212000","municipality_name":"Matnog"},"geometry":{"type":"Point","coordinates":[123.99999592600005,12.59812159300003]}},{"type":"Feature","properties":{"psgc_code":"056212014","name":"Camachiles (Pob.)","level":"barangay-label","municipality_psgc_code":"056212000","municipality_name":"Matnog"},"geometry":{"type":"Point","coordinates":[124.08846403950008,12.588173373000043]}},{"type":"Feature","properties":{"psgc_code":"056212015","name":"Camcaman (Pob.)","level":"barangay-label","municipality_psgc_code":"056212000","municipality_name":"Matnog"},"geometry":{"type":"Point","coordinates":[124.08637697050007,12.58646287500005]}},{"type":"Feature","properties":{"psgc_code":"056212016","name":"Coron-coron","level":"barangay-label","municipality_psgc_code":"056212000","municipality_name":"Matnog"},"geometry":{"type":"Point","coordinates":[123.98600231800003,12.560892189000043]}},{"type":"Feature","properties":{"psgc_code":"056212017","name":"Culasi","level":"barangay-label","municipality_psgc_code":"056212000","municipality_name":"Matnog"},"geometry":{"type":"Point","coordinates":[124.06632688050009,12.55311648600005]}},{"type":"Feature","properties":{"psgc_code":"056212018","name":"Gadgaron","level":"barangay-label","municipality_psgc_code":"056212000","municipality_name":"Matnog"},"geometry":{"type":"Point","coordinates":[124.08296563300009,12.592843319000053]}},{"type":"Feature","properties":{"psgc_code":"056212020","name":"Genablan Occidental","level":"barangay-label","municipality_psgc_code":"056212000","municipality_name":"Matnog"},"geometry":{"type":"Point","coordinates":[124.03116478650009,12.556409570000056]}},{"type":"Feature","properties":{"psgc_code":"056212021","name":"Genablan Oriental","level":"barangay-label","municipality_psgc_code":"056212000","municipality_name":"Matnog"},"geometry":{"type":"Point","coordinates":[124.03644043750006,12.554170050500062]}},{"type":"Feature","properties":{"psgc_code":"056212022","name":"Hidhid","level":"barangay-label","municipality_psgc_code":"056212000","municipality_name":"Matnog"},"geometry":{"type":"Point","coordinates":[124.03524416800008,12.62958649050006]}},{"type":"Feature","properties":{"psgc_code":"056212023","name":"Laboy","level":"barangay-label","municipality_psgc_code":"056212000","municipality_name":"Matnog"},"geometry":{"type":"Point","coordinates":[123.99699614700006,12.64755989900004]}},{"type":"Feature","properties":{"psgc_code":"056212025","name":"Lajong","level":"barangay-label","municipality_psgc_code":"056212000","municipality_name":"Matnog"},"geometry":{"type":"Point","coordinates":[124.07511887800007,12.618566575500067]}},{"type":"Feature","properties":{"psgc_code":"056212026","name":"Mambajog","level":"barangay-label","municipality_psgc_code":"056212000","municipality_name":"Matnog"},"geometry":{"type":"Point","coordinates":[124.02246936400007,12.554186431000062]}},{"type":"Feature","properties":{"psgc_code":"056212028","name":"Manjunlad","level":"barangay-label","municipality_psgc_code":"056212000","municipality_name":"Matnog"},"geometry":{"type":"Point","coordinates":[124.07909698450011,12.601838691000038]}},{"type":"Feature","properties":{"psgc_code":"056212029","name":"Manurabi","level":"barangay-label","municipality_psgc_code":"056212000","municipality_name":"Matnog"},"geometry":{"type":"Point","coordinates":[124.01287615000007,12.555748109500058]}},{"type":"Feature","properties":{"psgc_code":"056212030","name":"Naburacan","level":"barangay-label","municipality_psgc_code":"056212000","municipality_name":"Matnog"},"geometry":{"type":"Point","coordinates":[124.08733193550006,12.610109522000045]}},{"type":"Feature","properties":{"psgc_code":"056212031","name":"Paghuliran","level":"barangay-label","municipality_psgc_code":"056212000","municipality_name":"Matnog"},"geometry":{"type":"Point","coordinates":[124.08909745750009,12.565679929000055]}},{"type":"Feature","properties":{"psgc_code":"056212032","name":"Pangi","level":"barangay-label","municipality_psgc_code":"056212000","municipality_name":"Matnog"},"geometry":{"type":"Point","coordinates":[124.01540241550009,12.634306461000048]}},{"type":"Feature","properties":{"psgc_code":"056212033","name":"Pawa","level":"barangay-label","municipality_psgc_code":"056212000","municipality_name":"Matnog"},"geometry":{"type":"Point","coordinates":[124.05401840650006,12.612058710000042]}},{"type":"Feature","properties":{"psgc_code":"056212034","name":"Poropandan","level":"barangay-label","municipality_psgc_code":"056212000","municipality_name":"Matnog"},"geometry":{"type":"Point","coordinates":[124.08233110950005,12.549233830500071]}},{"type":"Feature","properties":{"psgc_code":"056212035","name":"Santa Isabel","level":"barangay-label","municipality_psgc_code":"056212000","municipality_name":"Matnog"},"geometry":{"type":"Point","coordinates":[124.09876159350007,12.601346727000047]}},{"type":"Feature","properties":{"psgc_code":"056212036","name":"Sinalmacan","level":"barangay-label","municipality_psgc_code":"056212000","municipality_name":"Matnog"},"geometry":{"type":"Point","coordinates":[124.07235197950007,12.56346688600004]}},{"type":"Feature","properties":{"psgc_code":"056212037","name":"Sinang-Atan","level":"barangay-label","municipality_psgc_code":"056212000","municipality_name":"Matnog"},"geometry":{"type":"Point","coordinates":[124.02890471050006,12.544552565000059]}},{"type":"Feature","properties":{"psgc_code":"056212038","name":"Sinibaran","level":"barangay-label","municipality_psgc_code":"056212000","municipality_name":"Matnog"},"geometry":{"type":"Point","coordinates":[124.0704028235001,12.585664732000053]}},{"type":"Feature","properties":{"psgc_code":"056212039","name":"Sisigon","level":"barangay-label","municipality_psgc_code":"056212000","municipality_name":"Matnog"},"geometry":{"type":"Point","coordinates":[124.00468572150004,12.643160919500048]}},{"type":"Feature","properties":{"psgc_code":"056212040","name":"Sua","level":"barangay-label","municipality_psgc_code":"056212000","municipality_name":"Matnog"},"geometry":{"type":"Point","coordinates":[124.00329402400007,12.555718388500027]}},{"type":"Feature","properties":{"psgc_code":"056212041","name":"Sulangan","level":"barangay-label","municipality_psgc_code":"056212000","municipality_name":"Matnog"},"geometry":{"type":"Point","coordinates":[124.06282101300002,12.605459807000045]}},{"type":"Feature","properties":{"psgc_code":"056212042","name":"Tablac (Pob.)","level":"barangay-label","municipality_psgc_code":"056212000","municipality_name":"Matnog"},"geometry":{"type":"Point","coordinates":[124.09089757300006,12.588954051500053]}},{"type":"Feature","properties":{"psgc_code":"056212043","name":"Tabunan (Pob.)","level":"barangay-label","municipality_psgc_code":"056212000","municipality_name":"Matnog"},"geometry":{"type":"Point","coordinates":[124.08452696050006,12.580560391000033]}},{"type":"Feature","properties":{"psgc_code":"056212044","name":"Tugas","level":"barangay-label","municipality_psgc_code":"056212000","municipality_name":"Matnog"},"geometry":{"type":"Point","coordinates":[124.03761436050007,12.610077770500055]}}]}
