{"type":"FeatureCollection","features":[{"type":"Feature","properties":{"psgc_code":"056211001","name":"Aguada Norte","level":"barangay-label","municipality_psgc_code":"056211000","municipality_name":"Magallanes"},"geometry":{"type":"Point","coordinates":[123.84672872200002,12.825345658000032]}},{"type":"Feature","properties":{"psgc_code":"056211002","name":"Aguada Sur","level":"barangay-label","municipality_psgc_code":"056211000","municipality_name":"Magallanes"},"geometry":{"type":"Point","coordinates":[123.85406224050007,12.81627688350005]}},{"type":"Feature","properties":{"psgc_code":"056211003","name":"Anibong","level":"barangay-label","municipality_psgc_code":"056211000","municipality_name":"Magallanes"},"geometry":{"type":"Point","coordinates":[123.91005379800002,12.842463319500041]}},{"type":"Feature","properties":{"psgc_code":"056211004","name":"Bacalon","level":"barangay-label","municipality_psgc_code":"056211000","municipality_name":"Magallanes"},"geometry":{"type":"Point","coordinates":[123.86680064000006,12.826733349000047]}},{"type":"Feature","properties":{"psgc_code":"056211005","name":"Bacolod","level":"barangay-label","municipality_psgc_code":"056211000","municipality_name":"Magallanes"},"geometry":{"type":"Point","coordinates":[123.83334001400004,12.828309119000064]}},{"type":"Feature","properties":{"psgc_code":"056211006","name":"Banacud","level":"barangay-label","municipality_psgc_code":"056211000","municipality_name":"Magallanes"},"geometry":{"type":"Point","coordinates":[123.84032231300006,12.827212668000042]}},{"type":"Feature","properties":{"psgc_code":"056211007","name":"Biga","level":"barangay-label","municipality_psgc_code":"056211000","municipality_name":"Magallanes"},"geometry":{"type":"Point","coordinates":[123.81230053350009,12.833748252500042]}},{"type":"Feature","properties":{"psgc_code":"056211008","name":"Behia","level":"barangay-label","municipality_psgc_code":"056211000","municipality_name":"Magallanes"},"geometry":{"type":"Point","coordinates":[123.8110875155001,12.829276506500037]}},{"type":"Feature","properties":{"psgc_code":"056211009","name":"Binisitahan del Norte","level":"barangay-label","municipality_psgc_code":"056211000","municipality_name":"Magallanes"},"geometry":{"type":"Point","coordinates":[123.8371452510001,12.83026030250005]}},{"type":"Feature","properties":{"psgc_code":"056211010","name":"Binisitahan del Sur","level":"barangay-label","municipality_psgc_code":"056211000","municipality_name":"Magallanes"},"geometry":{"type":"Point","coordinates":[123.83452549450011,12.829276930500043]}},{"type":"Feature","properties":{"psgc_code":"056211011","name":"Biton","level":"barangay-label","municipality_psgc_code":"056211000","municipality_name":"Magallanes"},"geometry":{"type":"Point","coordinates":[123.8615018380001,12.762052971500028]}},{"type":"Feature","properties":{"psgc_code":"056211012","name":"Bulala","level":"barangay-label","municipality_psgc_code":"056211000","municipality_name":"Magallanes"},"geometry":{"type":"Point","coordinates":[123.92153282350006,12.80789995650005]}},{"type":"Feature","properties":{"psgc_code":"056211013","name":"Busay","level":"barangay-label","municipality_psgc_code":"056211000","municipality_name":"Magallanes"},"geometry":{"type":"Point","coordinates":[123.91525848850006,12.787033251000054]}},{"type":"Feature","properties":{"psgc_code":"056211014","name":"Caditaan","level":"barangay-label","municipality_psgc_code":"056211000","municipality_name":"Magallanes"},"geometry":{"type":"Point","coordinates":[123.85767934300009,12.806877852500065]}},{"type":"Feature","properties":{"psgc_code":"056211015","name":"Cagbolo","level":"barangay-label","municipality_psgc_code":"056211000","municipality_name":"Magallanes"},"geometry":{"type":"Point","coordinates":[123.86215245200009,12.857823970500021]}},{"type":"Feature","properties":{"psgc_code":"056211016","name":"Cagtalaba","level":"barangay-label","municipality_psgc_code":"056211000","municipality_name":"Magallanes"},"geometry":{"type":"Point","coordinates":[123.87658371850006,12.860433240500043]}},{"type":"Feature","properties":{"psgc_code":"056211017","name":"Cawit Extension","level":"barangay-label","municipality_psgc_code":"056211000","municipality_name":"Magallanes"},"geometry":{"type":"Point","coordinates":[123.83970586950011,12.823441544500042]}},{"type":"Feature","properties":{"psgc_code":"056211018","name":"Cawit Proper","level":"barangay-label","municipality_psgc_code":"056211000","municipality_name":"Magallanes"},"geometry":{"type":"Point","coordinates":[123.83669857650005,12.825574992500066]}},{"type":"Feature","properties":{"psgc_code":"056211019","name":"Ginangra","level":"barangay-label","municipality_psgc_code":"056211000","municipality_name":"Magallanes"},"geometry":{"type":"Point","coordinates":[123.85516691800007,12.772824116500033]}},{"type":"Feature","properties":{"psgc_code":"056211020","name":"Hubo","level":"barangay-label","municipality_psgc_code":"056211000","municipality_name":"Magallanes"},"geometry":{"type":"Point","coordinates":[123.85012225750006,12.842658860000027]}},{"type":"Feature","properties":{"psgc_code":"056211021","name":"Incarizan","level":"barangay-label","municipality_psgc_code":"056211000","municipality_name":"Magallanes"},"geometry":{"type":"Point","coordinates":[123.87544821800009,12.842178910000028]}},{"type":"Feature","properties":{"psgc_code":"056211022","name":"Lapinig","level":"barangay-label","municipality_psgc_code":"056211000","municipality_name":"Magallanes"},"geometry":{"type":"Point","coordinates":[123.9059793300001,12.763743527000031]}},{"type":"Feature","properties":{"psgc_code":"056211023","name":"Magsaysay","level":"barangay-label","municipality_psgc_code":"056211000","municipality_name":"Magallanes"},"geometry":{"type":"Point","coordinates":[123.91881324400005,12.794082469000045]}},{"type":"Feature","properties":{"psgc_code":"056211024","name":"Malbog","level":"barangay-label","municipality_psgc_code":"056211000","municipality_name":"Magallanes"},"geometry":{"type":"Point","coordinates":[123.88903888150008,12.807839845000046]}},{"type":"Feature","properties":{"psgc_code":"056211025","name":"Pantalan","level":"barangay-label","municipality_psgc_code":"056211000","municipality_name":"Magallanes"},"geometry":{"type":"Point","coordinates":[123.83269112050004,12.828070338500055]}},{"type":"Feature","properties":{"psgc_code":"056211026","name":"Pawik","level":"barangay-label","municipality_psgc_code":"056211000","municipality_name":"Magallanes"},"geometry":{"type":"Point","coordinates":[123.87392619600007,12.773642730000034]}},{"type":"Feature","properties":{"psgc_code":"056211027","name":"Pili","level":"barangay-label","municipality_psgc_code":"056211000","municipality_name":"Magallanes"},"geometry":{"type":"Point","coordinates":[123.91807537050005,12.822125855500047]}},{"type":"Feature","properties":{"psgc_code":"056211028","name":"Poblacion","level":"barangay-label","municipality_psgc_code":"056211000","municipality_name":"Magallanes"},"geometry":{"type":"Point","coordinates":[123.83408054850003,12.82709624300006]}},{"type":"Feature","properties":{"psgc_code":"056211029","name":"Salvacion","level":"barangay-label","municipality_psgc_code":"056211000","municipality_name":"Magallanes"},"geometry":{"type":"Point","coordinates":[123.8683895905001,12.786096557500032]}},{"type":"Feature","properties":{"psgc_code":"056211030","name":"Santa Elena","level":"barangay-label","municipality_psgc_code":"056211000","municipality_name":"Magallanes"},"geometry":{"type":"Point","coordinates":[123.89035671450006,12.83086091800004]}},{"type":"Feature","properties":{"psgc_code":"056211031","name":"Siuton","level":"barangay-label","municipality_psgc_code":"056211000","municipality_name":"Magallanes"},"geometry":{"type":"Point","coordinates":[123.87478881200008,12.792196053500048]}},{"type":"Feature","properties":{"psgc_code":"056211032","name":"Tagas","level":"barangay-label","municipality_psgc_code":"056211000","municipality_name":"Magallanes"},"geometry":{"type":"Point","coordinates":[123.89288250750008,12.85295634250005]}},{"type":"Feature","properties":{"psgc_code":"056211033","name":"Tulatula Norte","level":"barangay-label","municipality_psgc_code":"056211000","municipality_name":"Magallanes"},"geometry":{"type":"Point","coordinates":[123.90066820450005,12.829037135500045]}},{"type":"Feature","properties":{"psgc_code":"056211034","name":"Tulatula Sur","level":"barangay-label","municipality_psgc_code":"056211000","municipality_name":"Magallanes"},"geometry":{"type":"Point","coordinates":[123.91454026100007,12.773944684000043]}}]}
