{"type":"FeatureCollection","features":[{"type":"Feature","properties":{"psgc_code":"056210001","name":"Anog","level":"barangay-label","municipality_psgc_code":"056210000","municipality_name":"Juban"},"geometry":{"type":"Point","coordinates":[124.02864353200009,12.789496279500042]}},{"type":"Feature","properties":{"psgc_code":"056210002","name":"Aroroy","level":"barangay-label","municipality_psgc_code":"056210000","municipality_name":"Juban"},"geometry":{"type":"Point","coordinates":[124.00574441450004,12.822797493500046]}},{"type":"Feature","properties":{"psgc_code":"056210003","name":"Bacolod","level":"barangay-label","municipality_psgc_code":"056210000","municipality_name":"Juban"},"geometry":{"type":"Point","coordinates":[124.00078588850005,12.795590151000056]}},{"type":"Feature","properties":{"psgc_code":"056210004","name":"Binanuahan","level":"barangay-label","municipality_psgc_code":"056210000","municipality_name":"Juban"},"geometry":{"type":"Point","coordinates":[123.9759794575001,12.86138576650006]}},{"type":"Feature","properties":{"psgc_code":"056210005","name":"Biriran","level":"barangay-label","municipality_psgc_code":"056210000","municipality_name":"Juban"},"geometry":{"type":"Point","coordinates":[123.95534248050008,12.855780691000032]}},{"type":"Feature","properties":{"psgc_code":"056210006","name":"Buraburan","level":"barangay-label","municipality_psgc_code":"056210000","municipality_name":"Juban"},"geometry":{"type":"Point","coordinates":[123.98884924650002,12.77125121350005]}},{"type":"Feature","properties":{"psgc_code":"056210007","name":"Calateo","level":"barangay-label","municipality_psgc_code":"056210000","municipality_name":"Juban"},"geometry":{"type":"Point","coordinates":[123.98252683800007,12.804037902000033]}},{"type":"Feature","properties":{"psgc_code":"056210008","name":"Calmayon","level":"barangay-label","municipality_psgc_code":"056210000","municipality_name":"Juban"},"geometry":{"type":"Point","coordinates":[123.96270356350004,12.780698813500038]}},{"type":"Feature","properties":{"psgc_code":"056210009","name":"Carohayon","level":"barangay-label","municipality_psgc_code":"056210000","municipality_name":"Juban"},"geometry":{"type":"Point","coordinates":[123.9503660865001,12.851518079500039]}},{"type":"Feature","properties":{"psgc_code":"056210010","name":"Catanagan","level":"barangay-label","municipality_psgc_code":"056210000","municipality_name":"Juban"},"geometry":{"type":"Point","coordinates":[123.96727484400009,12.86068630000005]}},{"type":"Feature","properties":{"psgc_code":"056210011","name":"Catanusan","level":"barangay-label","municipality_psgc_code":"056210000","municipality_name":"Juban"},"geometry":{"type":"Point","coordinates":[123.98777073700006,12.79542556600006]}},{"type":"Feature","properties":{"psgc_code":"056210012","name":"Cogon","level":"barangay-label","municipality_psgc_code":"056210000","municipality_name":"Juban"},"geometry":{"type":"Point","coordinates":[123.99900346000004,12.837991223000046]}},{"type":"Feature","properties":{"psgc_code":"056210013","name":"Embarcadero","level":"barangay-label","municipality_psgc_code":"056210000","municipality_name":"Juban"},"geometry":{"type":"Point","coordinates":[123.98798135500004,12.863506985000043]}},{"type":"Feature","properties":{"psgc_code":"056210014","name":"Guruyan","level":"barangay-label","municipality_psgc_code":"056210000","municipality_name":"Juban"},"geometry":{"type":"Point","coordinates":[123.97059426600003,12.754054320500046]}},{"type":"Feature","properties":{"psgc_code":"056210016","name":"Lajong","level":"barangay-label","municipality_psgc_code":"056210000","municipality_name":"Juban"},"geometry":{"type":"Point","coordinates":[123.94934215850003,12.822263662000069]}},{"type":"Feature","properties":{"psgc_code":"056210017","name":"Maalo","level":"barangay-label","municipality_psgc_code":"056210000","municipality_name":"Juban"},"geometry":{"type":"Point","coordinates":[123.96001478450006,12.800873000500047]}},{"type":"Feature","properties":{"psgc_code":"056210019","name":"North Poblacion","level":"barangay-label","municipality_psgc_code":"056210000","municipality_name":"Juban"},"geometry":{"type":"Point","coordinates":[123.98810772200005,12.848540963000033]}},{"type":"Feature","properties":{"psgc_code":"056210020","name":"South Poblacion","level":"barangay-label","municipality_psgc_code":"056210000","municipality_name":"Juban"},"geometry":{"type":"Point","coordinates":[123.99094096200008,12.845150449500036]}},{"type":"Feature","properties":{"psgc_code":"056210021","name":"Puting Sapa","level":"barangay-label","municipality_psgc_code":"056210000","municipality_name":"Juban"},"geometry":{"type":"Point","coordinates":[124.00949144550009,12.775588509500066]}},{"type":"Feature","properties":{"psgc_code":"056210022","name":"Rangas","level":"barangay-label","municipality_psgc_code":"056210000","municipality_name":"Juban"},"geometry":{"type":"Point","coordinates":[124.00674693350004,12.808014532000044]}},{"type":"Feature","properties":{"psgc_code":"056210023","name":"Sablayan","level":"barangay-label","municipality_psgc_code":"056210000","municipality_name":"Juban"},"geometry":{"type":"Point","coordinates":[123.89564603950004,12.874478556500037]}},{"type":"Feature","properties":{"psgc_code":"056210024","name":"Sipaya","level":"barangay-label","municipality_psgc_code":"056210000","municipality_name":"Juban"},"geometry":{"type":"Point","coordinates":[123.98431699700006,12.815169170500038]}},{"type":"Feature","properties":{"psgc_code":"056210025","name":"Taboc","level":"barangay-label","municipality_psgc_code":"056210000","municipality_name":"Juban"},"geometry":{"type":"Point","coordinates":[123.97951735400011,12.831192364500026]}},{"type":"Feature","properties":{"psgc_code":"056210026","name":"Tinago","level":"barangay-label","municipality_psgc_code":"056210000","municipality_name":"Juban"},"geometry":{"type":"Point","coordinates":[123.92728134600009,12.843271097000041]}},{"type":"Feature","properties":{"psgc_code":"056210027","name":"Tughan","level":"barangay-label","municipality_psgc_code":"056210000","municipality_name":"Juban"},"geometry":{"type":"Point","coordinates":[123.99649672200007,12.858115793000024]}}]}
