{"type":"FeatureCollection","features":[{"type":"Feature","properties":{"psgc_code":"056214001","name":"Brillante (Pob.)","level":"barangay-label","municipality_psgc_code":"056214000","municipality_name":"Prieto Diaz"},"geometry":{"type":"Point","coordinates":[124.19404477700004,13.041867766000053]}},{"type":"Feature","properties":{"psgc_code":"056214002","name":"Bulawan","level":"barangay-label","municipality_psgc_code":"056214000","municipality_name":"Prieto Diaz"},"geometry":{"type":"Point","coordinates":[124.15925374000005,13.030476533500034]}},{"type":"Feature","properties":{"psgc_code":"056214003","name":"Calao","level":"barangay-label","municipality_psgc_code":"056214000","municipality_name":"Prieto Diaz"},"geometry":{"type":"Point","coordinates":[124.15143572100004,13.016960475000047]}},{"type":"Feature","properties":{"psgc_code":"056214004","name":"Carayat","level":"barangay-label","municipality_psgc_code":"056214000","municipality_name":"Prieto Diaz"},"geometry":{"type":"Point","coordinates":[124.14406872750004,13.004731198000057]}},{"type":"Feature","properties":{"psgc_code":"056214005","name":"Diamante","level":"barangay-label","municipality_psgc_code":"056214000","municipality_name":"Prieto Diaz"},"geometry":{"type":"Point","coordinates":[124.19304951650003,13.035440364000038]}},{"type":"Feature","properties":{"psgc_code":"056214006","name":"Gogon","level":"barangay-label","municipality_psgc_code":"056214000","municipality_name":"Prieto Diaz"},"geometry":{"type":"Point","coordinates":[124.17726084850011,13.03814996750003]}},{"type":"Feature","properties":{"psgc_code":"056214007","name":"Lupi","level":"barangay-label","municipality_psgc_code":"056214000","municipality_name":"Prieto Diaz"},"geometry":{"type":"Point","coordinates":[124.18099496050007,13.064516365000058]}},{"type":"Feature","properties":{"psgc_code":"056214008","name":"Manlabong","level":"barangay-label","municipality_psgc_code":"056214000","municipality_name":"Prieto Diaz"},"geometry":{"type":"Point","coordinates":[124.15321243150004,13.065902882000044]}},{"type":"Feature","properties":{"psgc_code":"056214010","name":"Maningcay De Oro","level":"barangay-label","municipality_psgc_code":"056214000","municipality_name":"Prieto Diaz"},"geometry":{"type":"Point","coordinates":[124.18875856000005,13.03554878050005]}},{"type":"Feature","properties":{"psgc_code":"056214011","name":"Perlas","level":"barangay-label","municipality_psgc_code":"056214000","municipality_name":"Prieto Diaz"},"geometry":{"type":"Point","coordinates":[124.19440379150006,13.040296758500062]}},{"type":"Feature","properties":{"psgc_code":"056214012","name":"Quidolog","level":"barangay-label","municipality_psgc_code":"056214000","municipality_name":"Prieto Diaz"},"geometry":{"type":"Point","coordinates":[124.18893352750007,13.058073052500049]}},{"type":"Feature","properties":{"psgc_code":"056214013","name":"Rizal","level":"barangay-label","municipality_psgc_code":"056214000","municipality_name":"Prieto Diaz"},"geometry":{"type":"Point","coordinates":[124.18982485400005,13.049290298000043]}},{"type":"Feature","properties":{"psgc_code":"056214014","name":"San Antonio","level":"barangay-label","municipality_psgc_code":"056214000","municipality_name":"Prieto Diaz"},"geometry":{"type":"Point","coordinates":[124.15960733750006,13.057188195000066]}},{"type":"Feature","properties":{"psgc_code":"056214015","name":"San Fernando","level":"barangay-label","municipality_psgc_code":"056214000","municipality_name":"Prieto Diaz"},"geometry":{"type":"Point","coordinates":[124.15008958000004,13.008917815000075]}},{"type":"Feature","properties":{"psgc_code":"056214016","name":"San Isidro","level":"barangay-label","municipality_psgc_code":"056214000","municipality_name":"Prieto Diaz"},"geometry":{"type":"Point","coordinates":[124.17512745350007,13.030245066000047]}},{"type":"Feature","properties":{"psgc_code":"056214017","name":"San Juan","level":"barangay-label","municipality_psgc_code":"056214000","municipality_name":"Prieto Diaz"},"geometry":{"type":"Point","coordinates":[124.1774762425,13.049122152000052]}},{"type":"Feature","properties":{"psgc_code":"056214018","name":"San Rafael","level":"barangay-label","municipality_psgc_code":"056214000","municipality_name":"Prieto Diaz"},"geometry":{"type":"Point","coordinates":[124.1363801810001,13.027272438500063]}},{"type":"Feature","properties":{"psgc_code":"056214019","name":"San Ramon","level":"barangay-label","municipality_psgc_code":"056214000","municipality_name":"Prieto Diaz"},"geometry":{"type":"Point","coordinates":[124.16558182100006,13.065228064000024]}},{"type":"Feature","properties":{"psgc_code":"056214020","name":"Santa Lourdes","level":"barangay-label","municipality_psgc_code":"056214000","municipality_name":"Prieto Diaz"},"geometry":{"type":"Point","coordinates":[124.15604113350007,13.023060046000067]}},{"type":"Feature","properties":{"psgc_code":"056214021","name":"Santo Domingo","level":"barangay-label","municipality_psgc_code":"056214000","municipality_name":"Prieto Diaz"},"geometry":{"type":"Point","coordinates":[124.17497419600005,13.055738500000045]}},{"type":"Feature","properties":{"psgc_code":"056214022","name":"Talisayan","level":"barangay-label","municipality_psgc_code":"056214000","municipality_name":"Prieto Diaz"},"geometry":{"type":"Point","coordinates":[124.1356046520001,13.059447078000062]}},{"type":"Feature","properties":{"psgc_code":"056214023","name":"Tupaz","level":"barangay-label","municipality_psgc_code":"056214000","municipality_name":"Prieto Diaz"},"geometry":{"type":"Point","coordinates":[124.1899570710001,13.043875729500058]}},{"type":"Feature","properties":{"psgc_code":"056214024","name":"Ulag","level":"barangay-label","municipality_psgc_code":"056214000","municipality_name":"Prieto Diaz"},"geometry":{"type":"Point","coordinates":[124.1528371175001,13.020837203500037]}}]}
