{"type":"FeatureCollection","features":[{"type":"Feature","properties":{"psgc_code":"056213001","name":"Abas","level":"barangay-label","municipality_psgc_code":"056213000","municipality_name":"Pilar"},"geometry":{"type":"Point","coordinates":[123.67683678500003,12.96518546550001]}},{"type":"Feature","properties":{"psgc_code":"056213002","name":"Abucay","level":"barangay-label","municipality_psgc_code":"056213000","municipality_name":"Pilar"},"geometry":{"type":"Point","coordinates":[123.64968193450011,12.979365878500062]}},{"type":"Feature","properties":{"psgc_code":"056213003","name":"Bantayan","level":"barangay-label","municipality_psgc_code":"056213000","municipality_name":"Pilar"},"geometry":{"type":"Point","coordinates":[123.73774051200007,12.856925398000044]}},{"type":"Feature","properties":{"psgc_code":"056213004","name":"Banuyo (Pob.)","level":"barangay-label","municipality_psgc_code":"056213000","municipality_name":"Pilar"},"geometry":{"type":"Point","coordinates":[123.68457712200006,12.925402124000042]}},{"type":"Feature","properties":{"psgc_code":"056213005","name":"Bayasong","level":"barangay-label","municipality_psgc_code":"056213000","municipality_name":"Pilar"},"geometry":{"type":"Point","coordinates":[123.68447044850004,12.989050941000034]}},{"type":"Feature","properties":{"psgc_code":"056213006","name":"Bayawas","level":"barangay-label","municipality_psgc_code":"056213000","municipality_name":"Pilar"},"geometry":{"type":"Point","coordinates":[123.69541146850005,12.99144601650005]}},{"type":"Feature","properties":{"psgc_code":"056213007","name":"Binanuahan (Pob.)","level":"barangay-label","municipality_psgc_code":"056213000","municipality_name":"Pilar"},"geometry":{"type":"Point","coordinates":[123.67740569800009,12.92370088850002]}},{"type":"Feature","properties":{"psgc_code":"056213009","name":"Cabiguan","level":"barangay-label","municipality_psgc_code":"056213000","municipality_name":"Pilar"},"geometry":{"type":"Point","coordinates":[123.63767155000005,12.994773589500056]}},{"type":"Feature","properties":{"psgc_code":"056213010","name":"Cagdongon","level":"barangay-label","municipality_psgc_code":"056213000","municipality_name":"Pilar"},"geometry":{"type":"Point","coordinates":[123.65288981250006,12.966383919000036]}},{"type":"Feature","properties":{"psgc_code":"056213011","name":"Calongay","level":"barangay-label","municipality_psgc_code":"056213000","municipality_name":"Pilar"},"geometry":{"type":"Point","coordinates":[123.67790290500005,12.939170405000018]}},{"type":"Feature","properties":{"psgc_code":"056213012","name":"Calpi","level":"barangay-label","municipality_psgc_code":"056213000","municipality_name":"Pilar"},"geometry":{"type":"Point","coordinates":[123.72551192500006,12.937606661500041]}},{"type":"Feature","properties":{"psgc_code":"056213013","name":"Catamlangan","level":"barangay-label","municipality_psgc_code":"056213000","municipality_name":"Pilar"},"geometry":{"type":"Point","coordinates":[123.64191866150009,13.01078864750005]}},{"type":"Feature","properties":{"psgc_code":"056213014","name":"Comapo-capo","level":"barangay-label","municipality_psgc_code":"056213000","municipality_name":"Pilar"},"geometry":{"type":"Point","coordinates":[123.67342260800005,12.998399227000025]}},{"type":"Feature","properties":{"psgc_code":"056213015","name":"Danlog","level":"barangay-label","municipality_psgc_code":"056213000","municipality_name":"Pilar"},"geometry":{"type":"Point","coordinates":[123.71027878200005,13.03098430950007]}},{"type":"Feature","properties":{"psgc_code":"056213016","name":"Dao (Pob.)","level":"barangay-label","municipality_psgc_code":"056213000","municipality_name":"Pilar"},"geometry":{"type":"Point","coordinates":[123.66904555200006,12.92179504100002]}},{"type":"Feature","properties":{"psgc_code":"056213017","name":"Dapdap","level":"barangay-label","municipality_psgc_code":"056213000","municipality_name":"Pilar"},"geometry":{"type":"Point","coordinates":[123.73104424300004,12.871361702500021]}},{"type":"Feature","properties":{"psgc_code":"056213018","name":"Del Rosario","level":"barangay-label","municipality_psgc_code":"056213000","municipality_name":"Pilar"},"geometry":{"type":"Point","coordinates":[123.75496452150006,12.979861262500066]}},{"type":"Feature","properties":{"psgc_code":"056213019","name":"Esmerada","level":"barangay-label","municipality_psgc_code":"056213000","municipality_name":"Pilar"},"geometry":{"type":"Point","coordinates":[123.7183072685001,12.987163921000047]}},{"type":"Feature","properties":{"psgc_code":"056213020","name":"Esperanza","level":"barangay-label","municipality_psgc_code":"056213000","municipality_name":"Pilar"},"geometry":{"type":"Point","coordinates":[123.73104303750006,13.004482381000058]}},{"type":"Feature","properties":{"psgc_code":"056213021","name":"Guiron","level":"barangay-label","municipality_psgc_code":"056213000","municipality_name":"Pilar"},"geometry":{"type":"Point","coordinates":[123.63739238100004,12.905288010500044]}},{"type":"Feature","properties":{"psgc_code":"056213022","name":"Ginablan","level":"barangay-label","municipality_psgc_code":"056213000","municipality_name":"Pilar"},"geometry":{"type":"Point","coordinates":[123.70524957100002,12.958622689000066]}},{"type":"Feature","properties":{"psgc_code":"056213023","name":"Inang","level":"barangay-label","municipality_psgc_code":"056213000","municipality_name":"Pilar"},"geometry":{"type":"Point","coordinates":[123.72838611950003,12.97600095550004]}},{"type":"Feature","properties":{"psgc_code":"056213024","name":"Inapugan","level":"barangay-label","municipality_psgc_code":"056213000","municipality_name":"Pilar"},"geometry":{"type":"Point","coordinates":[123.69390968400006,12.874831146500043]}},{"type":"Feature","properties":{"psgc_code":"056213025","name":"Lubiano","level":"barangay-label","municipality_psgc_code":"056213000","municipality_name":"Pilar"},"geometry":{"type":"Point","coordinates":[123.72221359850005,12.999121524000032]}},{"type":"Feature","properties":{"psgc_code":"056213026","name":"Leona","level":"barangay-label","municipality_psgc_code":"056213000","municipality_name":"Pilar"},"geometry":{"type":"Point","coordinates":[123.65596944500004,13.003410580000061]}},{"type":"Feature","properties":{"psgc_code":"056213027","name":"Lipason","level":"barangay-label","municipality_psgc_code":"056213000","municipality_name":"Pilar"},"geometry":{"type":"Point","coordinates":[123.64726515150005,12.950718428000043]}},{"type":"Feature","properties":{"psgc_code":"056213028","name":"Lourdes","level":"barangay-label","municipality_psgc_code":"056213000","municipality_name":"Pilar"},"geometry":{"type":"Point","coordinates":[123.69127509950006,13.022122001500037]}},{"type":"Feature","properties":{"psgc_code":"056213029","name":"Lungib","level":"barangay-label","municipality_psgc_code":"056213000","municipality_name":"Pilar"},"geometry":{"type":"Point","coordinates":[123.71803277800008,12.895834826000053]}},{"type":"Feature","properties":{"psgc_code":"056213030","name":"Lumbang","level":"barangay-label","municipality_psgc_code":"056213000","municipality_name":"Pilar"},"geometry":{"type":"Point","coordinates":[123.64825840300006,12.934270977000025]}},{"type":"Feature","properties":{"psgc_code":"056213031","name":"Mabanate","level":"barangay-label","municipality_psgc_code":"056213000","municipality_name":"Pilar"},"geometry":{"type":"Point","coordinates":[123.67423600050007,12.950190648000042]}},{"type":"Feature","properties":{"psgc_code":"056213032","name":"Malbog","level":"barangay-label","municipality_psgc_code":"056213000","municipality_name":"Pilar"},"geometry":{"type":"Point","coordinates":[123.75002646300004,12.944038835500038]}},{"type":"Feature","properties":{"psgc_code":"056213033","name":"Marifosque (Pob.)","level":"barangay-label","municipality_psgc_code":"056213000","municipality_name":"Pilar"},"geometry":{"type":"Point","coordinates":[123.66721122400004,12.928226883500024]}},{"type":"Feature","properties":{"psgc_code":"056213034","name":"Mercedes","level":"barangay-label","municipality_psgc_code":"056213000","municipality_name":"Pilar"},"geometry":{"type":"Point","coordinates":[123.72695739050002,13.015733057500057]}},{"type":"Feature","properties":{"psgc_code":"056213035","name":"Migabod","level":"barangay-label","municipality_psgc_code":"056213000","municipality_name":"Pilar"},"geometry":{"type":"Point","coordinates":[123.6527956465,12.99356191100003]}},{"type":"Feature","properties":{"psgc_code":"056213036","name":"Naspi","level":"barangay-label","municipality_psgc_code":"056213000","municipality_name":"Pilar"},"geometry":{"type":"Point","coordinates":[123.70314362050004,13.017903842500031]}},{"type":"Feature","properties":{"psgc_code":"056213037","name":"Palanas","level":"barangay-label","municipality_psgc_code":"056213000","municipality_name":"Pilar"},"geometry":{"type":"Point","coordinates":[123.74039025650006,12.9211765]}},{"type":"Feature","properties":{"psgc_code":"056213038","name":"Pangpang","level":"barangay-label","municipality_psgc_code":"056213000","municipality_name":"Pilar"},"geometry":{"type":"Point","coordinates":[123.73768589550002,12.898747531000055]}},{"type":"Feature","properties":{"psgc_code":"056213039","name":"Pinagsalog","level":"barangay-label","municipality_psgc_code":"056213000","municipality_name":"Pilar"},"geometry":{"type":"Point","coordinates":[123.66517049450005,13.009651267500058]}},{"type":"Feature","properties":{"psgc_code":"056213040","name":"Pineda","level":"barangay-label","municipality_psgc_code":"056213000","municipality_name":"Pilar"},"geometry":{"type":"Point","coordinates":[123.70905151600005,12.921053968000052]}},{"type":"Feature","properties":{"psgc_code":"056213042","name":"Poctol","level":"barangay-label","municipality_psgc_code":"056213000","municipality_name":"Pilar"},"geometry":{"type":"Point","coordinates":[123.69728107900005,13.007197772000023]}},{"type":"Feature","properties":{"psgc_code":"056213043","name":"Pudo","level":"barangay-label","municipality_psgc_code":"056213000","municipality_name":"Pilar"},"geometry":{"type":"Point","coordinates":[123.70965863850006,13.004273484000066]}},{"type":"Feature","properties":{"psgc_code":"056213044","name":"Putiao","level":"barangay-label","municipality_psgc_code":"056213000","municipality_name":"Pilar"},"geometry":{"type":"Point","coordinates":[123.70809153450006,13.020467355000015]}},{"type":"Feature","properties":{"psgc_code":"056213045","name":"Sacnangan","level":"barangay-label","municipality_psgc_code":"056213000","municipality_name":"Pilar"},"geometry":{"type":"Point","coordinates":[123.73457131650008,12.957994042500045]}},{"type":"Feature","properties":{"psgc_code":"056213046","name":"Salvacion","level":"barangay-label","municipality_psgc_code":"056213000","municipality_name":"Pilar"},"geometry":{"type":"Point","coordinates":[123.74470161250002,12.997990019500065]}},{"type":"Feature","properties":{"psgc_code":"056213048","name":"San Antonio","level":"barangay-label","municipality_psgc_code":"056213000","municipality_name":"Pilar"},"geometry":{"type":"Point","coordinates":[123.64302952850005,12.885434174500059]}},{"type":"Feature","properties":{"psgc_code":"056213049","name":"San Jose","level":"barangay-label","municipality_psgc_code":"056213000","municipality_name":"Pilar"},"geometry":{"type":"Point","coordinates":[123.67910821900007,12.976520666000035]}},{"type":"Feature","properties":{"psgc_code":"056213050","name":"San Rafael","level":"barangay-label","municipality_psgc_code":"056213000","municipality_name":"Pilar"},"geometry":{"type":"Point","coordinates":[123.70064617000003,12.898434560000053]}},{"type":"Feature","properties":{"psgc_code":"056213051","name":"Santa Fe","level":"barangay-label","municipality_psgc_code":"056213000","municipality_name":"Pilar"},"geometry":{"type":"Point","coordinates":[123.65096324850009,12.91374811250003]}}]}
