{"type":"FeatureCollection","features":[{"type":"Feature","properties":{"psgc_code":"056202002","name":"Alegria","level":"barangay-label","municipality_psgc_code":"056202000","municipality_name":"Barcelona"},"geometry":{"type":"Point","coordinates":[124.11764627700006,12.86581107550006]}},{"type":"Feature","properties":{"psgc_code":"056202003","name":"Bagacay","level":"barangay-label","municipality_psgc_code":"056202000","municipality_name":"Barcelona"},"geometry":{"type":"Point","coordinates":[124.10014260800007,12.846635036500064]}},{"type":"Feature","properties":{"psgc_code":"056202004","name":"Bangate","level":"barangay-label","municipality_psgc_code":"056202000","municipality_name":"Barcelona"},"geometry":{"type":"Point","coordinates":[124.14062797200006,12.81094342800003]}},{"type":"Feature","properties":{"psgc_code":"056202005","name":"Bugtong","level":"barangay-label","municipality_psgc_code":"056202000","municipality_name":"Barcelona"},"geometry":{"type":"Point","coordinates":[124.10416398450006,12.863208899000057]}},{"type":"Feature","properties":{"psgc_code":"056202006","name":"Cagang","level":"barangay-label","municipality_psgc_code":"056202000","municipality_name":"Barcelona"},"geometry":{"type":"Point","coordinates":[124.13795115350007,12.85523365350005]}},{"type":"Feature","properties":{"psgc_code":"056202008","name":"Fabrica","level":"barangay-label","municipality_psgc_code":"056202000","municipality_name":"Barcelona"},"geometry":{"type":"Point","coordinates":[124.10807319650007,12.82100790100003]}},{"type":"Feature","properties":{"psgc_code":"056202010","name":"Jibong","level":"barangay-label","municipality_psgc_code":"056202000","municipality_name":"Barcelona"},"geometry":{"type":"Point","coordinates":[124.13976191850008,12.84362036300004]}},{"type":"Feature","properties":{"psgc_code":"056202011","name":"Lago","level":"barangay-label","municipality_psgc_code":"056202000","municipality_name":"Barcelona"},"geometry":{"type":"Point","coordinates":[124.13001553250008,12.86012949850007]}},{"type":"Feature","properties":{"psgc_code":"056202012","name":"Layog","level":"barangay-label","municipality_psgc_code":"056202000","municipality_name":"Barcelona"},"geometry":{"type":"Point","coordinates":[124.14733378900007,12.828785815500053]}},{"type":"Feature","properties":{"psgc_code":"056202013","name":"Luneta","level":"barangay-label","municipality_psgc_code":"056202000","municipality_name":"Barcelona"},"geometry":{"type":"Point","coordinates":[124.15029924650003,12.854713487000055]}},{"type":"Feature","properties":{"psgc_code":"056202014","name":"Macabari","level":"barangay-label","municipality_psgc_code":"056202000","municipality_name":"Barcelona"},"geometry":{"type":"Point","coordinates":[124.14513457950005,12.819259899000059]}},{"type":"Feature","properties":{"psgc_code":"056202015","name":"Mapapac","level":"barangay-label","municipality_psgc_code":"056202000","municipality_name":"Barcelona"},"geometry":{"type":"Point","coordinates":[124.14444287850012,12.837932430000052]}},{"type":"Feature","properties":{"psgc_code":"056202016","name":"Olandia","level":"barangay-label","municipality_psgc_code":"056202000","municipality_name":"Barcelona"},"geometry":{"type":"Point","coordinates":[124.12419019550009,12.835486826500045]}},{"type":"Feature","properties":{"psgc_code":"056202017","name":"Paghaluban","level":"barangay-label","municipality_psgc_code":"056202000","municipality_name":"Barcelona"},"geometry":{"type":"Point","coordinates":[124.14457914750005,12.829531913000068]}},{"type":"Feature","properties":{"psgc_code":"056202018","name":"Poblacion Central","level":"barangay-label","municipality_psgc_code":"056202000","municipality_name":"Barcelona"},"geometry":{"type":"Point","coordinates":[124.14357461550009,12.865198199000048]}},{"type":"Feature","properties":{"psgc_code":"056202019","name":"Poblacion Norte","level":"barangay-label","municipality_psgc_code":"056202000","municipality_name":"Barcelona"},"geometry":{"type":"Point","coordinates":[124.14068167100004,12.869442245500068]}},{"type":"Feature","properties":{"psgc_code":"056202020","name":"Poblacion Sur","level":"barangay-label","municipality_psgc_code":"056202000","municipality_name":"Barcelona"},"geometry":{"type":"Point","coordinates":[124.14822419050006,12.862247728500051]}},{"type":"Feature","properties":{"psgc_code":"056202021","name":"Putiao","level":"barangay-label","municipality_psgc_code":"056202000","municipality_name":"Barcelona"},"geometry":{"type":"Point","coordinates":[124.12734065550006,12.82629820450006]}},{"type":"Feature","properties":{"psgc_code":"056202022","name":"San Antonio","level":"barangay-label","municipality_psgc_code":"056202000","municipality_name":"Barcelona"},"geometry":{"type":"Point","coordinates":[124.10447218650006,12.83613435400005]}},{"type":"Feature","properties":{"psgc_code":"056202023","name":"San Isidro","level":"barangay-label","municipality_psgc_code":"056202000","municipality_name":"Barcelona"},"geometry":{"type":"Point","coordinates":[124.1292993675001,12.869216159000043]}},{"type":"Feature","properties":{"psgc_code":"056202024","name":"San Ramon","level":"barangay-label","municipality_psgc_code":"056202000","municipality_name":"Barcelona"},"geometry":{"type":"Point","coordinates":[124.09481862050006,12.807246453000062]}},{"type":"Feature","properties":{"psgc_code":"056202025","name":"San Vicente","level":"barangay-label","municipality_psgc_code":"056202000","municipality_name":"Barcelona"},"geometry":{"type":"Point","coordinates":[124.12232857250007,12.850645693000047]}},{"type":"Feature","properties":{"psgc_code":"056202027","name":"Santa Cruz","level":"barangay-label","municipality_psgc_code":"056202000","municipality_name":"Barcelona"},"geometry":{"type":"Point","coordinates":[124.12452301000008,12.813671982000045]}},{"type":"Feature","properties":{"psgc_code":"056202028","name":"Santa Lourdes","level":"barangay-label","municipality_psgc_code":"056202000","municipality_name":"Barcelona"},"geometry":{"type":"Point","coordinates":[124.08413497050003,12.818990444500031]}},{"type":"Feature","properties":{"psgc_code":"056202029","name":"Tagdon","level":"barangay-label","municipality_psgc_code":"056202000","municipality_name":"Barcelona"},"geometry":{"type":"Point","coordinates":[124.1442244005001,12.848757699500055]}}]}
