{"type":"FeatureCollection","features":[{"type":"Feature","properties":{"psgc_code":"056206001","name":"Amomonting","level":"barangay-label","municipality_psgc_code":"056206000","municipality_name":"Castilla"},"geometry":{"type":"Point","coordinates":[123.81611257950001,12.914297498500048]}},{"type":"Feature","properties":{"psgc_code":"056206002","name":"Bagalayag","level":"barangay-label","municipality_psgc_code":"056206000","municipality_name":"Castilla"},"geometry":{"type":"Point","coordinates":[123.8721513315001,12.93833792650005]}},{"type":"Feature","properties":{"psgc_code":"056206003","name":"Bagong Sirang","level":"barangay-label","municipality_psgc_code":"056206000","municipality_name":"Castilla"},"geometry":{"type":"Point","coordinates":[123.8519016300001,12.911879316500034]}},{"type":"Feature","properties":{"psgc_code":"056206004","name":"Bonga","level":"barangay-label","municipality_psgc_code":"056206000","municipality_name":"Castilla"},"geometry":{"type":"Point","coordinates":[123.84324094400003,12.907444222500025]}},{"type":"Feature","properties":{"psgc_code":"056206005","name":"Buenavista","level":"barangay-label","municipality_psgc_code":"056206000","municipality_name":"Castilla"},"geometry":{"type":"Point","coordinates":[123.75616622650006,12.870572077500071]}},{"type":"Feature","properties":{"psgc_code":"056206006","name":"Burabod","level":"barangay-label","municipality_psgc_code":"056206000","municipality_name":"Castilla"},"geometry":{"type":"Point","coordinates":[123.78298258900003,12.93477833150004]}},{"type":"Feature","properties":{"psgc_code":"056206007","name":"Caburacan","level":"barangay-label","municipality_psgc_code":"056206000","municipality_name":"Castilla"},"geometry":{"type":"Point","coordinates":[123.75985088900008,12.908601414500051]}},{"type":"Feature","properties":{"psgc_code":"056206008","name":"Canjela","level":"barangay-label","municipality_psgc_code":"056206000","municipality_name":"Castilla"},"geometry":{"type":"Point","coordinates":[123.82151274550006,13.010036449500035]}},{"type":"Feature","properties":{"psgc_code":"056206009","name":"Cogon","level":"barangay-label","municipality_psgc_code":"056206000","municipality_name":"Castilla"},"geometry":{"type":"Point","coordinates":[123.82564781500004,12.902278424500016]}},{"type":"Feature","properties":{"psgc_code":"056206010","name":"Cumadcad","level":"barangay-label","municipality_psgc_code":"056206000","municipality_name":"Castilla"},"geometry":{"type":"Point","coordinates":[123.7847601165001,12.972203983500037]}},{"type":"Feature","properties":{"psgc_code":"056206011","name":"Dangcalan","level":"barangay-label","municipality_psgc_code":"056206000","municipality_name":"Castilla"},"geometry":{"type":"Point","coordinates":[123.86913378700007,12.970348524500029]}},{"type":"Feature","properties":{"psgc_code":"056206012","name":"Dinapa","level":"barangay-label","municipality_psgc_code":"056206000","municipality_name":"Castilla"},"geometry":{"type":"Point","coordinates":[123.78819411200004,12.90797970750006]}},{"type":"Feature","properties":{"psgc_code":"056206013","name":"La Union","level":"barangay-label","municipality_psgc_code":"056206000","municipality_name":"Castilla"},"geometry":{"type":"Point","coordinates":[123.8729160955001,13.009627490500034]}},{"type":"Feature","properties":{"psgc_code":"056206014","name":"Libtong","level":"barangay-label","municipality_psgc_code":"056206000","municipality_name":"Castilla"},"geometry":{"type":"Point","coordinates":[123.85683099650005,12.932525992500022]}},{"type":"Feature","properties":{"psgc_code":"056206015","name":"Loreto","level":"barangay-label","municipality_psgc_code":"056206000","municipality_name":"Castilla"},"geometry":{"type":"Point","coordinates":[123.76541482650009,12.939489394500043]}},{"type":"Feature","properties":{"psgc_code":"056206016","name":"Macalaya","level":"barangay-label","municipality_psgc_code":"056206000","municipality_name":"Castilla"},"geometry":{"type":"Point","coordinates":[123.77627966600005,12.890821374500035]}},{"type":"Feature","properties":{"psgc_code":"056206017","name":"Maracabac","level":"barangay-label","municipality_psgc_code":"056206000","municipality_name":"Castilla"},"geometry":{"type":"Point","coordinates":[123.8115722570001,12.959359744500063]}},{"type":"Feature","properties":{"psgc_code":"056206018","name":"Mayon","level":"barangay-label","municipality_psgc_code":"056206000","municipality_name":"Castilla"},"geometry":{"type":"Point","coordinates":[123.78986467750009,12.955704931500037]}},{"type":"Feature","properties":{"psgc_code":"056206019","name":"Milagrosa","level":"barangay-label","municipality_psgc_code":"056206000","municipality_name":"Castilla"},"geometry":{"type":"Point","coordinates":[123.85556156450006,13.008255065000043]}},{"type":"Feature","properties":{"psgc_code":"056206020","name":"Miluya","level":"barangay-label","municipality_psgc_code":"056206000","municipality_name":"Castilla"},"geometry":{"type":"Point","coordinates":[123.81036329850005,12.931697064500035]}},{"type":"Feature","properties":{"psgc_code":"056206021","name":"Maypangi","level":"barangay-label","municipality_psgc_code":"056206000","municipality_name":"Castilla"},"geometry":{"type":"Point","coordinates":[123.83728643700006,13.013465295500055]}},{"type":"Feature","properties":{"psgc_code":"056206022","name":"Monte Carmelo","level":"barangay-label","municipality_psgc_code":"056206000","municipality_name":"Castilla"},"geometry":{"type":"Point","coordinates":[123.81533557900008,12.952483760500039]}},{"type":"Feature","properties":{"psgc_code":"056206023","name":"Oras","level":"barangay-label","municipality_psgc_code":"056206000","municipality_name":"Castilla"},"geometry":{"type":"Point","coordinates":[123.83209495650001,12.933547576500043]}},{"type":"Feature","properties":{"psgc_code":"056206024","name":"Pandan","level":"barangay-label","municipality_psgc_code":"056206000","municipality_name":"Castilla"},"geometry":{"type":"Point","coordinates":[123.80792299550006,12.89133126200005]}},{"type":"Feature","properties":{"psgc_code":"056206025","name":"Poblacion","level":"barangay-label","municipality_psgc_code":"056206000","municipality_name":"Castilla"},"geometry":{"type":"Point","coordinates":[123.87025748750006,12.955232879000011]}},{"type":"Feature","properties":{"psgc_code":"056206026","name":"Quirapi","level":"barangay-label","municipality_psgc_code":"056206000","municipality_name":"Castilla"},"geometry":{"type":"Point","coordinates":[123.78865557150004,12.877177816000057]}},{"type":"Feature","properties":{"psgc_code":"056206027","name":"Saclayan","level":"barangay-label","municipality_psgc_code":"056206000","municipality_name":"Castilla"},"geometry":{"type":"Point","coordinates":[123.82540830800002,12.885945620500053]}},{"type":"Feature","properties":{"psgc_code":"056206028","name":"Salvacion","level":"barangay-label","municipality_psgc_code":"056206000","municipality_name":"Castilla"},"geometry":{"type":"Point","coordinates":[123.81001868750008,13.012508245500044]}},{"type":"Feature","properties":{"psgc_code":"056206029","name":"San Isidro","level":"barangay-label","municipality_psgc_code":"056206000","municipality_name":"Castilla"},"geometry":{"type":"Point","coordinates":[123.85067314250007,12.971211140000065]}},{"type":"Feature","properties":{"psgc_code":"056206030","name":"San Rafael","level":"barangay-label","municipality_psgc_code":"056206000","municipality_name":"Castilla"},"geometry":{"type":"Point","coordinates":[123.82641237600006,12.973602803000059]}},{"type":"Feature","properties":{"psgc_code":"056206031","name":"San Roque","level":"barangay-label","municipality_psgc_code":"056206000","municipality_name":"Castilla"},"geometry":{"type":"Point","coordinates":[123.79797038050003,13.004657456000047]}},{"type":"Feature","properties":{"psgc_code":"056206032","name":"San Vicente","level":"barangay-label","municipality_psgc_code":"056206000","municipality_name":"Castilla"},"geometry":{"type":"Point","coordinates":[123.80703413350007,12.976631678000047]}},{"type":"Feature","properties":{"psgc_code":"056206033","name":"Sogoy","level":"barangay-label","municipality_psgc_code":"056206000","municipality_name":"Castilla"},"geometry":{"type":"Point","coordinates":[123.77440484150002,12.98089654450007]}},{"type":"Feature","properties":{"psgc_code":"056206034","name":"Tomalaytay","level":"barangay-label","municipality_psgc_code":"056206000","municipality_name":"Castilla"},"geometry":{"type":"Point","coordinates":[123.80586245500007,12.877193712000036]}}]}
