{"type":"FeatureCollection","features":[{"type":"Feature","properties":{"psgc_code":"056203001","name":"A. Bonifacio","level":"barangay-label","municipality_psgc_code":"056203000","municipality_name":"Bulan"},"geometry":{"type":"Point","coordinates":[123.89469798900006,12.685545880000033]}},{"type":"Feature","properties":{"psgc_code":"056203002","name":"Abad Santos","level":"barangay-label","municipality_psgc_code":"056203000","municipality_name":"Bulan"},"geometry":{"type":"Point","coordinates":[123.92411290600006,12.679675034500065]}},{"type":"Feature","properties":{"psgc_code":"056203003","name":"Aguinaldo","level":"barangay-label","municipality_psgc_code":"056203000","municipality_name":"Bulan"},"geometry":{"type":"Point","coordinates":[123.96362570200006,12.59134698900004]}},{"type":"Feature","properties":{"psgc_code":"056203004","name":"Antipolo","level":"barangay-label","municipality_psgc_code":"056203000","municipality_name":"Bulan"},"geometry":{"type":"Point","coordinates":[123.87351695650007,12.717627122000039]}},{"type":"Feature","properties":{"psgc_code":"056203005","name":"Zone I Pob.","level":"barangay-label","municipality_psgc_code":"056203000","municipality_name":"Bulan"},"geometry":{"type":"Point","coordinates":[123.87552524800003,12.661124345000049]}},{"type":"Feature","properties":{"psgc_code":"056203006","name":"Zone II Pob.","level":"barangay-label","municipality_psgc_code":"056203000","municipality_name":"Bulan"},"geometry":{"type":"Point","coordinates":[123.87423271350002,12.660417525000042]}},{"type":"Feature","properties":{"psgc_code":"056203007","name":"Zone III Pob.","level":"barangay-label","municipality_psgc_code":"056203000","municipality_name":"Bulan"},"geometry":{"type":"Point","coordinates":[123.87640488500004,12.666785828000059]}},{"type":"Feature","properties":{"psgc_code":"056203008","name":"Zone IV Pob.","level":"barangay-label","municipality_psgc_code":"056203000","municipality_name":"Bulan"},"geometry":{"type":"Point","coordinates":[123.87383590500008,12.666612115500046]}},{"type":"Feature","properties":{"psgc_code":"056203009","name":"Zone V Pob.","level":"barangay-label","municipality_psgc_code":"056203000","municipality_name":"Bulan"},"geometry":{"type":"Point","coordinates":[123.87570103350004,12.670997519500046]}},{"type":"Feature","properties":{"psgc_code":"056203010","name":"Zone VI Pob.","level":"barangay-label","municipality_psgc_code":"056203000","municipality_name":"Bulan"},"geometry":{"type":"Point","coordinates":[123.87307020650007,12.66971316750005]}},{"type":"Feature","properties":{"psgc_code":"056203011","name":"Bical","level":"barangay-label","municipality_psgc_code":"056203000","municipality_name":"Bulan"},"geometry":{"type":"Point","coordinates":[123.94630148600004,12.729709868500066]}},{"type":"Feature","properties":{"psgc_code":"056203012","name":"Beguin","level":"barangay-label","municipality_psgc_code":"056203000","municipality_name":"Bulan"},"geometry":{"type":"Point","coordinates":[123.91132001400001,12.692920306500042]}},{"type":"Feature","properties":{"psgc_code":"056203013","name":"Bonga","level":"barangay-label","municipality_psgc_code":"056203000","municipality_name":"Bulan"},"geometry":{"type":"Point","coordinates":[123.96310087450007,12.630220540500034]}},{"type":"Feature","properties":{"psgc_code":"056203014","name":"Butag","level":"barangay-label","municipality_psgc_code":"056203000","municipality_name":"Bulan"},"geometry":{"type":"Point","coordinates":[123.93183102500006,12.632740589000068]}},{"type":"Feature","properties":{"psgc_code":"056203015","name":"Cadandanan","level":"barangay-label","municipality_psgc_code":"056203000","municipality_name":"Bulan"},"geometry":{"type":"Point","coordinates":[123.91722297550007,12.75595728550007]}},{"type":"Feature","properties":{"psgc_code":"056203016","name":"Calomagon","level":"barangay-label","municipality_psgc_code":"056203000","municipality_name":"Bulan"},"geometry":{"type":"Point","coordinates":[123.88148683800006,12.711658098000044]}},{"type":"Feature","properties":{"psgc_code":"056203017","name":"Calpi","level":"barangay-label","municipality_psgc_code":"056203000","municipality_name":"Bulan"},"geometry":{"type":"Point","coordinates":[123.93504156050011,12.744303724500043]}},{"type":"Feature","properties":{"psgc_code":"056203018","name":"Cocok-Cabitan","level":"barangay-label","municipality_psgc_code":"056203000","municipality_name":"Bulan"},"geometry":{"type":"Point","coordinates":[123.8905005530001,12.755320297000054]}},{"type":"Feature","properties":{"psgc_code":"056203019","name":"Daganas","level":"barangay-label","municipality_psgc_code":"056203000","municipality_name":"Bulan"},"geometry":{"type":"Point","coordinates":[123.9593326530001,12.704859025500038]}},{"type":"Feature","properties":{"psgc_code":"056203020","name":"Danao","level":"barangay-label","municipality_psgc_code":"056203000","municipality_name":"Bulan"},"geometry":{"type":"Point","coordinates":[123.85825137700004,12.738464475000029]}},{"type":"Feature","properties":{"psgc_code":"056203021","name":"Dolos","level":"barangay-label","municipality_psgc_code":"056203000","municipality_name":"Bulan"},"geometry":{"type":"Point","coordinates":[123.94055216150008,12.761618754500034]}},{"type":"Feature","properties":{"psgc_code":"056203022","name":"E. Quirino","level":"barangay-label","municipality_psgc_code":"056203000","municipality_name":"Bulan"},"geometry":{"type":"Point","coordinates":[123.90063856800009,12.731908276000041]}},{"type":"Feature","properties":{"psgc_code":"056203023","name":"Fabrica","level":"barangay-label","municipality_psgc_code":"056203000","municipality_name":"Bulan"},"geometry":{"type":"Point","coordinates":[123.89816335350002,12.665342493500049]}},{"type":"Feature","properties":{"psgc_code":"056203024","name":"Gate","level":"barangay-label","municipality_psgc_code":"056203000","municipality_name":"Bulan"},"geometry":{"type":"Point","coordinates":[123.97632042250007,12.665876612000034]}},{"type":"Feature","properties":{"psgc_code":"056203025","name":"Benigno S. Aquino","level":"barangay-label","municipality_psgc_code":"056203000","municipality_name":"Bulan"},"geometry":{"type":"Point","coordinates":[123.87857149650007,12.683099045500057]}},{"type":"Feature","properties":{"psgc_code":"056203026","name":"Inararan","level":"barangay-label","municipality_psgc_code":"056203000","municipality_name":"Bulan"},"geometry":{"type":"Point","coordinates":[123.86731799650005,12.695369491000065]}},{"type":"Feature","properties":{"psgc_code":"056203027","name":"J. Gerona","level":"barangay-label","municipality_psgc_code":"056203000","municipality_name":"Bulan"},"geometry":{"type":"Point","coordinates":[123.96174712900006,12.614621366500046]}},{"type":"Feature","properties":{"psgc_code":"056203028","name":"Jamorawon","level":"barangay-label","municipality_psgc_code":"056203000","municipality_name":"Bulan"},"geometry":{"type":"Point","coordinates":[123.91857128600003,12.707857114500058]}},{"type":"Feature","properties":{"psgc_code":"056203029","name":"Libertad","level":"barangay-label","municipality_psgc_code":"056203000","municipality_name":"Bulan"},"geometry":{"type":"Point","coordinates":[123.87635811700011,12.663378207500045]}},{"type":"Feature","properties":{"psgc_code":"056203030","name":"Lajong","level":"barangay-label","municipality_psgc_code":"056203000","municipality_name":"Bulan"},"geometry":{"type":"Point","coordinates":[123.89585332600006,12.672099128500065]}},{"type":"Feature","properties":{"psgc_code":"056203031","name":"Magsaysay","level":"barangay-label","municipality_psgc_code":"056203000","municipality_name":"Bulan"},"geometry":{"type":"Point","coordinates":[123.93433162100007,12.673797312000062]}},{"type":"Feature","properties":{"psgc_code":"056203032","name":"Managanaga","level":"barangay-label","municipality_psgc_code":"056203000","municipality_name":"Bulan"},"geometry":{"type":"Point","coordinates":[123.88232828500009,12.677823402000058]}},{"type":"Feature","properties":{"psgc_code":"056203033","name":"Marinab","level":"barangay-label","municipality_psgc_code":"056203000","municipality_name":"Bulan"},"geometry":{"type":"Point","coordinates":[123.96044798250006,12.603168334500054]}},{"type":"Feature","properties":{"psgc_code":"056203034","name":"Nasuje","level":"barangay-label","municipality_psgc_code":"056203000","municipality_name":"Bulan"},"geometry":{"type":"Point","coordinates":[123.86134980800006,12.703137730500059]}},{"type":"Feature","properties":{"psgc_code":"056203035","name":"Montecalvario","level":"barangay-label","municipality_psgc_code":"056203000","municipality_name":"Bulan"},"geometry":{"type":"Point","coordinates":[123.93544472350004,12.711284854000041]}},{"type":"Feature","properties":{"psgc_code":"056203036","name":"N. Roque","level":"barangay-label","municipality_psgc_code":"056203000","municipality_name":"Bulan"},"geometry":{"type":"Point","coordinates":[123.93292499400008,12.655440042000038]}},{"type":"Feature","properties":{"psgc_code":"056203037","name":"Namo","level":"barangay-label","municipality_psgc_code":"056203000","municipality_name":"Bulan"},"geometry":{"type":"Point","coordinates":[123.86485276550007,12.720608624500045]}},{"type":"Feature","properties":{"psgc_code":"056203038","name":"Obrero","level":"barangay-label","municipality_psgc_code":"056203000","municipality_name":"Bulan"},"geometry":{"type":"Point","coordinates":[123.87885063850001,12.668818876000046]}},{"type":"Feature","properties":{"psgc_code":"056203039","name":"Osme\u00f1a","level":"barangay-label","municipality_psgc_code":"056203000","municipality_name":"Bulan"},"geometry":{"type":"Point","coordinates":[123.96666534700006,12.58142996250004]}},{"type":"Feature","properties":{"psgc_code":"056203040","name":"Otavi","level":"barangay-label","municipality_psgc_code":"056203000","municipality_name":"Bulan"},"geometry":{"type":"Point","coordinates":[123.91400553500006,12.640747972000074]}},{"type":"Feature","properties":{"psgc_code":"056203041","name":"Padre Diaz","level":"barangay-label","municipality_psgc_code":"056203000","municipality_name":"Bulan"},"geometry":{"type":"Point","coordinates":[123.96168332400003,12.680360488500042]}},{"type":"Feature","properties":{"psgc_code":"056203042","name":"Palale","level":"barangay-label","municipality_psgc_code":"056203000","municipality_name":"Bulan"},"geometry":{"type":"Point","coordinates":[123.9056908285001,12.746648803000056]}},{"type":"Feature","properties":{"psgc_code":"056203045","name":"J.P. Laurel","level":"barangay-label","municipality_psgc_code":"056203000","municipality_name":"Bulan"},"geometry":{"type":"Point","coordinates":[123.87046086600003,12.689409316500047]}},{"type":"Feature","properties":{"psgc_code":"056203046","name":"Quezon","level":"barangay-label","municipality_psgc_code":"056203000","municipality_name":"Bulan"},"geometry":{"type":"Point","coordinates":[123.96721706400007,12.574663004000058]}},{"type":"Feature","properties":{"psgc_code":"056203047","name":"R. Gerona","level":"barangay-label","municipality_psgc_code":"056203000","municipality_name":"Bulan"},"geometry":{"type":"Point","coordinates":[123.8617584585001,12.750329566000033]}},{"type":"Feature","properties":{"psgc_code":"056203048","name":"Recto","level":"barangay-label","municipality_psgc_code":"056203000","municipality_name":"Bulan"},"geometry":{"type":"Point","coordinates":[123.8847674220001,12.738374821500031]}},{"type":"Feature","properties":{"psgc_code":"056203049","name":"M. Roxas","level":"barangay-label","municipality_psgc_code":"056203000","municipality_name":"Bulan"},"geometry":{"type":"Point","coordinates":[123.91876041350008,12.73427885950005]}},{"type":"Feature","properties":{"psgc_code":"056203050","name":"Sagrada","level":"barangay-label","municipality_psgc_code":"056203000","municipality_name":"Bulan"},"geometry":{"type":"Point","coordinates":[123.97077130650007,12.565619789000035]}},{"type":"Feature","properties":{"psgc_code":"056203051","name":"San Francisco","level":"barangay-label","municipality_psgc_code":"056203000","municipality_name":"Bulan"},"geometry":{"type":"Point","coordinates":[123.90998492400007,12.717334601000061]}},{"type":"Feature","properties":{"psgc_code":"056203052","name":"San Isidro","level":"barangay-label","municipality_psgc_code":"056203000","municipality_name":"Bulan"},"geometry":{"type":"Point","coordinates":[123.95558224400008,12.652439472000053]}},{"type":"Feature","properties":{"psgc_code":"056203053","name":"San Juan Bag-o","level":"barangay-label","municipality_psgc_code":"056203000","municipality_name":"Bulan"},"geometry":{"type":"Point","coordinates":[123.91121056000009,12.67508316200005]}},{"type":"Feature","properties":{"psgc_code":"056203054","name":"San Juan Daan","level":"barangay-label","municipality_psgc_code":"056203000","municipality_name":"Bulan"},"geometry":{"type":"Point","coordinates":[123.93367438450002,12.694002067000042]}},{"type":"Feature","properties":{"psgc_code":"056203055","name":"San Rafael","level":"barangay-label","municipality_psgc_code":"056203000","municipality_name":"Bulan"},"geometry":{"type":"Point","coordinates":[123.89103062850006,12.650827640000045]}},{"type":"Feature","properties":{"psgc_code":"056203056","name":"San Ramon","level":"barangay-label","municipality_psgc_code":"056203000","municipality_name":"Bulan"},"geometry":{"type":"Point","coordinates":[123.94398832850004,12.654544073000036]}},{"type":"Feature","properties":{"psgc_code":"056203057","name":"San Vicente","level":"barangay-label","municipality_psgc_code":"056203000","municipality_name":"Bulan"},"geometry":{"type":"Point","coordinates":[123.88150673950008,12.659130911500027]}},{"type":"Feature","properties":{"psgc_code":"056203058","name":"Santa Remedios","level":"barangay-label","municipality_psgc_code":"056203000","municipality_name":"Bulan"},"geometry":{"type":"Point","coordinates":[123.88693895300008,12.673134618500058]}},{"type":"Feature","properties":{"psgc_code":"056203059","name":"Santa Teresita","level":"barangay-label","municipality_psgc_code":"056203000","municipality_name":"Bulan"},"geometry":{"type":"Point","coordinates":[123.98690798900009,12.668900818000054]}},{"type":"Feature","properties":{"psgc_code":"056203060","name":"Sigad","level":"barangay-label","municipality_psgc_code":"056203000","municipality_name":"Bulan"},"geometry":{"type":"Point","coordinates":[123.91480439000009,12.652393291500058]}},{"type":"Feature","properties":{"psgc_code":"056203061","name":"Somagongsong","level":"barangay-label","municipality_psgc_code":"056203000","municipality_name":"Bulan"},"geometry":{"type":"Point","coordinates":[123.89456962850005,12.695670550500036]}},{"type":"Feature","properties":{"psgc_code":"056203062","name":"G. Del Pilar","level":"barangay-label","municipality_psgc_code":"056203000","municipality_name":"Bulan"},"geometry":{"type":"Point","coordinates":[123.9192941675001,12.66737078950007]}},{"type":"Feature","properties":{"psgc_code":"056203063","name":"Taromata","level":"barangay-label","municipality_psgc_code":"056203000","municipality_name":"Bulan"},"geometry":{"type":"Point","coordinates":[123.9763102285001,12.652821574000056]}},{"type":"Feature","properties":{"psgc_code":"056203064","name":"Zone VII Pob.","level":"barangay-label","municipality_psgc_code":"056203000","municipality_name":"Bulan"},"geometry":{"type":"Point","coordinates":[123.87143368450006,12.675425906000044]}},{"type":"Feature","properties":{"psgc_code":"056203065","name":"Zone VIII Pob.","level":"barangay-label","municipality_psgc_code":"056203000","municipality_name":"Bulan"},"geometry":{"type":"Point","coordinates":[123.88066303150009,12.666159457000049]}}]}
