{"type":"FeatureCollection","features":[{"type":"Feature","properties":{"psgc_code":"056205001","name":"Adovis (Pob.)","level":"barangay-label","municipality_psgc_code":"056205000","municipality_name":"Casiguran"},"geometry":{"type":"Point","coordinates":[124.0116675695001,12.866061081500046]}},{"type":"Feature","properties":{"psgc_code":"056205002","name":"Boton","level":"barangay-label","municipality_psgc_code":"056205000","municipality_name":"Casiguran"},"geometry":{"type":"Point","coordinates":[124.05697220100006,12.921139303000045]}},{"type":"Feature","properties":{"psgc_code":"056205003","name":"Burgos","level":"barangay-label","municipality_psgc_code":"056205000","municipality_name":"Casiguran"},"geometry":{"type":"Point","coordinates":[124.04400375800009,12.875230632500035]}},{"type":"Feature","properties":{"psgc_code":"056205004","name":"Casay","level":"barangay-label","municipality_psgc_code":"056205000","municipality_name":"Casiguran"},"geometry":{"type":"Point","coordinates":[124.05816054400009,12.83638015450006]}},{"type":"Feature","properties":{"psgc_code":"056205005","name":"Cawit","level":"barangay-label","municipality_psgc_code":"056205000","municipality_name":"Casiguran"},"geometry":{"type":"Point","coordinates":[124.00519568950006,12.87444881150003]}},{"type":"Feature","properties":{"psgc_code":"056205006","name":"Central (Pob.)","level":"barangay-label","municipality_psgc_code":"056205000","municipality_name":"Casiguran"},"geometry":{"type":"Point","coordinates":[124.00768674700004,12.873155873500025]}},{"type":"Feature","properties":{"psgc_code":"056205007","name":"Colambis","level":"barangay-label","municipality_psgc_code":"056205000","municipality_name":"Casiguran"},"geometry":{"type":"Point","coordinates":[124.02266981700006,12.868760906500057]}},{"type":"Feature","properties":{"psgc_code":"056205008","name":"Escuala","level":"barangay-label","municipality_psgc_code":"056205000","municipality_name":"Casiguran"},"geometry":{"type":"Point","coordinates":[124.04810021100002,12.824361074000052]}},{"type":"Feature","properties":{"psgc_code":"056205010","name":"Cogon","level":"barangay-label","municipality_psgc_code":"056205000","municipality_name":"Casiguran"},"geometry":{"type":"Point","coordinates":[124.0379625435001,12.850897452000055]}},{"type":"Feature","properties":{"psgc_code":"056205011","name":"Inlagadian","level":"barangay-label","municipality_psgc_code":"056205000","municipality_name":"Casiguran"},"geometry":{"type":"Point","coordinates":[124.06014845700008,12.81309528050005]}},{"type":"Feature","properties":{"psgc_code":"056205012","name":"Lungib","level":"barangay-label","municipality_psgc_code":"056205000","municipality_name":"Casiguran"},"geometry":{"type":"Point","coordinates":[124.00129633050005,12.86178445050004]}},{"type":"Feature","properties":{"psgc_code":"056205013","name":"Mabini","level":"barangay-label","municipality_psgc_code":"056205000","municipality_name":"Casiguran"},"geometry":{"type":"Point","coordinates":[124.03210915650004,12.810798871500054]}},{"type":"Feature","properties":{"psgc_code":"056205014","name":"Ponong","level":"barangay-label","municipality_psgc_code":"056205000","municipality_name":"Casiguran"},"geometry":{"type":"Point","coordinates":[124.0318668490001,12.888865926500046]}},{"type":"Feature","properties":{"psgc_code":"056205015","name":"Rizal","level":"barangay-label","municipality_psgc_code":"056205000","municipality_name":"Casiguran"},"geometry":{"type":"Point","coordinates":[124.02845846000008,12.879425832500061]}},{"type":"Feature","properties":{"psgc_code":"056205016","name":"San Antonio","level":"barangay-label","municipality_psgc_code":"056205000","municipality_name":"Casiguran"},"geometry":{"type":"Point","coordinates":[124.02143086300003,12.85365304000004]}},{"type":"Feature","properties":{"psgc_code":"056205017","name":"San Isidro","level":"barangay-label","municipality_psgc_code":"056205000","municipality_name":"Casiguran"},"geometry":{"type":"Point","coordinates":[124.01301877450004,12.847612726000051]}},{"type":"Feature","properties":{"psgc_code":"056205018","name":"San Juan","level":"barangay-label","municipality_psgc_code":"056205000","municipality_name":"Casiguran"},"geometry":{"type":"Point","coordinates":[124.03805780600004,12.832623480500047]}},{"type":"Feature","properties":{"psgc_code":"056205019","name":"San Pascual","level":"barangay-label","municipality_psgc_code":"056205000","municipality_name":"Casiguran"},"geometry":{"type":"Point","coordinates":[124.06057310650004,12.880757960000041]}},{"type":"Feature","properties":{"psgc_code":"056205020","name":"Santa Cruz","level":"barangay-label","municipality_psgc_code":"056205000","municipality_name":"Casiguran"},"geometry":{"type":"Point","coordinates":[124.04031386650007,12.898619696000052]}},{"type":"Feature","properties":{"psgc_code":"056205021","name":"Somal-ot (Pob.)","level":"barangay-label","municipality_psgc_code":"056205000","municipality_name":"Casiguran"},"geometry":{"type":"Point","coordinates":[124.01220740950009,12.874235377000048]}},{"type":"Feature","properties":{"psgc_code":"056205022","name":"Tigbao","level":"barangay-label","municipality_psgc_code":"056205000","municipality_name":"Casiguran"},"geometry":{"type":"Point","coordinates":[124.02537279800003,12.832762920500073]}},{"type":"Feature","properties":{"psgc_code":"056205023","name":"Timbayog (Pob.)","level":"barangay-label","municipality_psgc_code":"056205000","municipality_name":"Casiguran"},"geometry":{"type":"Point","coordinates":[124.0148348560001,12.86831608150004]}},{"type":"Feature","properties":{"psgc_code":"056205024","name":"Tiris","level":"barangay-label","municipality_psgc_code":"056205000","municipality_name":"Casiguran"},"geometry":{"type":"Point","coordinates":[124.03520020200007,12.869388965500036]}},{"type":"Feature","properties":{"psgc_code":"056205025","name":"Trece Martirez","level":"barangay-label","municipality_psgc_code":"056205000","municipality_name":"Casiguran"},"geometry":{"type":"Point","coordinates":[124.044175783,12.90941484500004]}},{"type":"Feature","properties":{"psgc_code":"056205026","name":"Tulay","level":"barangay-label","municipality_psgc_code":"056205000","municipality_name":"Casiguran"},"geometry":{"type":"Point","coordinates":[124.00537349950008,12.872016188500027]}}]}
